{"type":"FeatureCollection","features":[{"type":"Feature","properties":{"label":null},"geometry":{"type":"MultiLineString","coordinates":[[[-74.759,39.143],[-74.674,39.234],[-74.646,39.31]],[[-74.644,39.31],[-74.616,39.346],[-74.554,39.411]]]}},{"type":"Feature","properties":{"label":null},"geometry":{"type":"LineString","coordinates":[[-73.71,41.029],[-73.647,41.038],[-73.595,41.057],[-73.487,41.085],[-73.467,41.094],[-73.425,41.125],[-73.38,41.135],[-73.319,41.156],[-73.274,41.165],[-73.232,41.189],[-73.13,41.198],[-73.109,41.208],[-73.074,41.241],[-73.057,41.248]]}},{"type":"Feature","properties":{"label":null},"geometry":{"type":"LineString","coordinates":[[-72.67,41.67],[-72.668,41.601],[-72.661,41.578],[-72.647,41.555],[-72.584,41.503],[-72.553,41.458],[-72.534,41.439],[-72.459,41.387],[-72.38,41.342]]}},{"type":"Feature","properties":{"label":null},"geometry":{"type":"LineString","coordinates":[[-78.432,40.439],[-78.465,40.236],[-78.48,40.189],[-78.524,40.121],[-78.532,40.098],[-78.532,40.086],[-78.513,40.05]]}},{"type":"Feature","properties":{"label":null},"geometry":{"type":"LineString","coordinates":[[-78.236,39.983],[-78.275,39.994],[-78.331,40.01],[-78.439,40.01],[-78.472,40.022],[-78.513,40.05]]}},{"type":"Feature","properties":{"label":null},"geometry":{"type":"LineString","coordinates":[[-77.171,38.793],[-77.199,38.735],[-77.225,38.713],[-77.249,38.678],[-77.285,38.652],[-77.303,38.629],[-77.343,38.553],[-77.407,38.478],[-77.43,38.421],[-77.511,38.32],[-77.52,38.292],[-77.501,38.223],[-77.516,38.134],[-77.516,38.105],[-77.502,38.028],[-77.464,37.898],[-77.461,37.856],[-77.466,37.797],[-77.447,37.705],[-77.45,37.632],[-77.457,37.613],[-77.471,37.591]]}},{"type":"Feature","properties":{"label":null},"geometry":{"type":"LineString","coordinates":[[-75.096,39.836],[-75.103,39.824],[-75.116,39.777],[-75.141,39.737],[-75.141,39.68],[-75.109,39.63],[-75.075,39.586],[-75.061,39.555],[-75.075,39.492],[-75.071,39.463],[-75.057,39.43],[-75.014,39.406],[-75.009,39.366],[-74.986,39.322],[-74.934,39.265],[-74.894,39.232],[-74.842,39.199],[-74.823,39.175],[-74.79,39.169],[-74.769,39.155],[-74.757,39.155]]}},{"type":"Feature","properties":{"label":null},"geometry":{"type":"LineString","coordinates":[[-72.69,41.625],[-72.746,41.548],[-72.77,41.531],[-72.819,41.509],[-72.836,41.489],[-72.857,41.444],[-72.906,41.403],[-72.939,41.368],[-72.958,41.352],[-72.994,41.34],[-73.017,41.326],[-73.055,41.262],[-73.074,41.243]]}},{"type":"Feature","properties":{"label":null},"geometry":{"type":"LineString","coordinates":[[-72.345,41.34],[-72.374,41.333],[-72.399,41.314],[-72.421,41.305],[-72.461,41.297],[-72.793,41.3],[-72.868,41.291],[-72.883,41.295],[-72.906,41.309],[-72.92,41.311],[-72.958,41.293],[-72.994,41.267],[-73.052,41.243]]}},{"type":"Feature","properties":{"label":null},"geometry":{"type":"LineString","coordinates":[[-75.903,42.135],[-75.901,42.191],[-75.907,42.219],[-75.92,42.243],[-75.92,42.257],[-75.929,42.273],[-75.927,42.29],[-75.964,42.318],[-75.978,42.335],[-76.019,42.405],[-76.037,42.464],[-76.065,42.493],[-76.082,42.545],[-76.129,42.592],[-76.162,42.606],[-76.168,42.613]]}},{"type":"Feature","properties":{"label":null},"geometry":{"type":"LineString","coordinates":[[-75.901,42.153],[-75.863,42.162],[-75.78,42.163],[-75.677,42.196],[-75.606,42.184],[-75.571,42.195],[-75.511,42.203],[-75.493,42.228],[-75.469,42.248],[-75.464,42.292],[-75.387,42.299],[-75.323,42.316],[-75.269,42.337],[-75.252,42.354],[-75.195,42.365],[-75.149,42.391],[-75.136,42.419],[-75.092,42.45],[-75.007,42.458],[-74.972,42.483],[-74.918,42.497],[-74.91,42.509],[-74.906,42.533],[-74.899,42.54],[-74.839,42.54],[-74.813,42.547],[-74.762,42.58],[-74.674,42.617],[-74.639,42.646],[-74.599,42.649],[-74.564,42.636],[-74.524,42.646],[-74.469,42.67],[-74.397,42.677],[-74.292,42.71],[-74.187,42.735],[-74.149,42.752],[-74.078,42.766],[-74.02,42.793]]}},{"type":"Feature","properties":{"label":null},"geometry":{"type":"LineString","coordinates":[[-75.823,42.118],[-75.776,42.024],[-75.745,41.99],[-75.728,41.878],[-75.695,41.87],[-75.683,41.852],[-75.679,41.826],[-75.684,41.771],[-75.669,41.724],[-75.684,41.679],[-75.663,41.654],[-75.66,41.642],[-75.644,41.62],[-75.662,41.531],[-75.679,41.493],[-75.679,41.477],[-75.663,41.467],[-75.66,41.458],[-75.636,41.446],[-75.622,41.429],[-75.61,41.425]]}},{"type":"Feature","properties":{"label":null},"geometry":{"type":"LineString","coordinates":[[-77.732,40.939],[-77.742,40.88],[-77.803,40.843],[-77.864,40.819],[-77.888,40.814],[-77.916,40.819],[-77.957,40.842],[-77.994,40.836],[-78.029,40.819],[-78.061,40.797]]}},{"type":"Feature","properties":{"label":null},"geometry":{"type":"LineString","coordinates":[[-77.367,42.384],[-77.355,42.375],[-77.341,42.34],[-77.329,42.328],[-77.306,42.318],[-77.252,42.307],[-77.226,42.293],[-77.219,42.285],[-77.211,42.254],[-77.197,42.236],[-77.166,42.21],[-77.141,42.198]]}},{"type":"Feature","properties":{"label":null},"geometry":{"type":"LineString","coordinates":[[-77.14,42.2],[-77.101,42.172],[-77.06,42.17],[-77.02,42.135],[-77.001,42.13],[-76.947,42.146],[-76.896,42.153],[-76.846,42.165],[-76.81,42.163],[-76.804,42.113],[-76.782,42.078]]}},{"type":"Feature","properties":{"label":null},"geometry":{"type":"LineString","coordinates":[[-75.459,42.049],[-75.452,42.045],[-75.403,42.043],[-75.384,42.021],[-75.365,42.01],[-75.316,41.972],[-75.304,41.965],[-75.203,41.967],[-75.151,41.993],[-75.097,41.99],[-74.965,41.951],[-74.938,41.955],[-74.884,41.924],[-74.826,41.91],[-74.809,41.898],[-74.788,41.866],[-74.753,41.845],[-74.745,41.828],[-74.729,41.686],[-74.707,41.67],[-74.677,41.661],[-74.648,41.641],[-74.512,41.592],[-74.503,41.583],[-74.502,41.564],[-74.495,41.557],[-74.479,41.554],[-74.443,41.564],[-74.427,41.557],[-74.424,41.552],[-74.425,41.545],[-74.37,41.446]]}},{"type":"Feature","properties":{"label":null},"geometry":{"type":"LineString","coordinates":[[-80.159,41.199],[-79.922,41.201],[-79.889,41.186],[-79.873,41.184],[-79.84,41.194],[-79.823,41.194],[-79.717,41.168],[-79.694,41.179],[-79.639,41.192],[-79.616,41.187],[-79.579,41.191],[-79.548,41.182],[-79.474,41.196],[-79.397,41.186],[-79.378,41.179],[-79.35,41.179],[-79.283,41.17],[-79.227,41.187],[-79.17,41.184],[-79.1,41.168],[-79.029,41.165],[-78.991,41.137],[-78.975,41.132],[-78.953,41.133],[-78.9,41.154],[-78.88,41.158],[-78.847,41.147],[-78.815,41.151],[-78.751,41.144],[-78.68,41.121],[-78.564,41.121],[-78.532,41.106],[-78.485,41.073],[-78.452,41.064],[-78.426,41.05]]}},{"type":"Feature","properties":{"label":null},"geometry":{"type":"LineString","coordinates":[[-76.836,40.291],[-76.841,40.302],[-76.902,40.335],[-76.94,40.362],[-76.995,40.368],[-77.039,40.378],[-77.039,40.406],[-77.011,40.434],[-77.039,40.467],[-77.089,40.494],[-77.122,40.5],[-77.148,40.522],[-77.176,40.56],[-77.221,40.566],[-77.303,40.56],[-77.341,40.543],[-77.371,40.557],[-77.386,40.585],[-77.398,40.597],[-77.437,40.607],[-77.466,40.606],[-77.551,40.583],[-77.577,40.609],[-77.605,40.654],[-77.605,40.692],[-77.617,40.72],[-77.638,40.725],[-77.617,40.753],[-77.633,40.781]]}},{"type":"Feature","properties":{"label":null},"geometry":{"type":"LineString","coordinates":[[-79.517,39.649],[-79.567,39.649],[-79.635,39.666],[-79.708,39.649],[-79.748,39.645],[-79.852,39.664],[-79.878,39.664],[-79.901,39.654],[-79.922,39.616],[-79.955,39.593],[-79.974,39.569]]}},{"type":"Feature","properties":{"label":null},"geometry":{"type":"LineString","coordinates":[[-77.551,36.709],[-77.509,36.754],[-77.471,36.773],[-77.456,36.834],[-77.419,36.858],[-77.407,36.874],[-77.393,36.931],[-77.393,37.032],[-77.388,37.047],[-77.36,37.089],[-77.359,37.16]]}},{"type":"Feature","properties":{"label":null},"geometry":{"type":"LineString","coordinates":[[-80.232,37.785],[-80.213,37.794],[-80.182,37.813],[-80.158,37.817],[-80.057,37.803],[-79.982,37.778],[-79.949,37.777],[-79.915,37.787],[-79.831,37.827],[-79.791,37.837],[-79.76,37.832],[-79.746,37.824],[-79.727,37.801],[-79.71,37.797],[-79.682,37.811],[-79.616,37.87],[-79.599,37.879],[-79.567,37.886],[-79.519,37.879],[-79.376,37.818]]}},{"type":"Feature","properties":{"label":null},"geometry":{"type":"LineString","coordinates":[[-79.376,37.818],[-79.423,37.761],[-79.444,37.726],[-79.47,37.695],[-79.581,37.632],[-79.616,37.61],[-79.645,37.584],[-79.698,37.527],[-79.718,37.516],[-79.769,37.502],[-79.809,37.483],[-79.863,37.452],[-79.934,37.386],[-79.962,37.365],[-79.982,37.36]]}},{"type":"Feature","properties":{"label":null},"geometry":{"type":"LineString","coordinates":[[-72.07,42.132],[-72.086,42.137],[-72.128,42.137],[-72.209,42.181],[-72.232,42.181],[-72.275,42.165],[-72.319,42.167],[-72.395,42.162],[-72.485,42.17],[-72.536,42.172],[-72.584,42.165],[-72.644,42.151]]}},{"type":"Feature","properties":{"label":null},"geometry":{"type":"LineString","coordinates":[[-77.079,41.298],[-77.054,41.267],[-77.011,41.245],[-76.98,41.241],[-76.921,41.257],[-76.87,41.255],[-76.811,41.241],[-76.771,41.217],[-76.768,41.21],[-76.771,41.196],[-76.801,41.151],[-76.804,41.104],[-76.827,41.045]]}},{"type":"Feature","properties":{"label":null},"geometry":{"type":"LineString","coordinates":[[-78.183,39.708],[-78.206,39.699],[-78.27,39.69],[-78.3,39.699],[-78.32,39.696],[-78.376,39.697],[-78.395,39.676],[-78.454,39.664],[-78.501,39.678],[-78.544,39.699],[-78.595,39.709],[-78.661,39.68],[-78.699,39.676],[-78.76,39.659],[-78.763,39.652],[-78.798,39.64],[-78.826,39.645],[-78.921,39.647],[-78.939,39.652],[-78.987,39.68],[-79.041,39.683],[-79.088,39.694],[-79.121,39.694],[-79.208,39.685],[-79.307,39.699],[-79.359,39.689],[-79.387,39.675],[-79.409,39.656],[-79.489,39.657],[-79.515,39.65]]}},{"type":"Feature","properties":{"label":null},"geometry":{"type":"LineString","coordinates":[[-77.367,42.384],[-77.4,42.389],[-77.44,42.372],[-77.476,42.37],[-77.506,42.379],[-77.541,42.384],[-77.608,42.375],[-77.652,42.38],[-77.676,42.373],[-77.702,42.359],[-77.725,42.34],[-77.735,42.325],[-77.772,42.318],[-77.855,42.316],[-77.919,42.3],[-78.022,42.287],[-78.116,42.219],[-78.155,42.201],[-78.182,42.203],[-78.253,42.222],[-78.293,42.222],[-78.312,42.214],[-78.343,42.184],[-78.399,42.165],[-78.423,42.108],[-78.444,42.092],[-78.465,42.09],[-78.511,42.102],[-78.645,42.09]]}},{"type":"Feature","properties":{"label":null},"geometry":{"type":"LineString","coordinates":[[-78.645,42.09],[-78.671,42.141],[-78.683,42.149],[-78.706,42.153]]}},{"type":"Feature","properties":{"label":null},"geometry":{"type":"LineString","coordinates":[[-78.706,42.153],[-78.737,42.129],[-78.775,42.108],[-78.815,42.092],[-78.857,42.087],[-78.885,42.087],[-78.92,42.099],[-78.982,42.151],[-79.013,42.16],[-79.034,42.156],[-79.086,42.134],[-79.111,42.13],[-79.163,42.137],[-79.229,42.125],[-79.316,42.129],[-79.43,42.155],[-79.474,42.158],[-79.606,42.149],[-79.764,42.127]]}},{"type":"Feature","properties":{"label":null},"geometry":{"type":"LineString","coordinates":[[-78.498,40.05],[-78.602,40.048],[-78.671,40.053],[-78.781,40.05],[-78.828,40.057],[-78.855,40.039],[-78.888,39.986],[-78.899,39.977],[-78.918,39.973],[-78.944,39.977],[-78.996,39.994],[-79.043,40.003]]}},{"type":"Feature","properties":{"label":null},"geometry":{"type":"LineString","coordinates":[[-76.662,39.722],[-76.676,39.796],[-76.698,39.864],[-76.695,39.883],[-76.702,39.914],[-76.704,39.92],[-76.683,39.94],[-76.681,39.953],[-76.693,39.975],[-76.718,39.98],[-76.733,39.994],[-76.764,40.095],[-76.808,40.149],[-76.841,40.204]]}},{"type":"Feature","properties":{"label":null},"geometry":{"type":"LineString","coordinates":[[-71.562,42.259],[-71.631,42.228],[-71.666,42.222],[-71.74,42.217],[-71.848,42.188]]}},{"type":"Feature","properties":{"label":null},"geometry":{"type":"LineString","coordinates":[[-72.07,42.132],[-72.029,42.135],[-71.848,42.188]]}},{"type":"Feature","properties":{"label":null},"geometry":{"type":"LineString","coordinates":[[-71.867,42.024],[-71.867,42.049],[-71.855,42.101],[-71.864,42.146],[-71.862,42.162],[-71.848,42.188]]}},{"type":"Feature","properties":{"label":null},"geometry":{"type":"LineString","coordinates":[[-72.07,42.132],[-72.095,42.076],[-72.142,42.031]]}},{"type":"Feature","properties":{"label":null},"geometry":{"type":"LineString","coordinates":[[-72.644,42.151],[-72.645,42.234],[-72.638,42.274],[-72.635,42.283],[-72.609,42.302],[-72.605,42.313],[-72.647,42.344],[-72.649,42.38],[-72.63,42.458],[-72.638,42.549],[-72.63,42.584],[-72.593,42.629]]}},{"type":"Feature","properties":{"label":null},"geometry":{"type":"LineString","coordinates":[[-72.644,42.151],[-72.687,42.148],[-72.84,42.16],[-72.909,42.177],[-72.93,42.189],[-72.97,42.226],[-72.98,42.229],[-73.067,42.248],[-73.175,42.297],[-73.232,42.307],[-73.291,42.313]]}},{"type":"Feature","properties":{"label":null},"geometry":{"type":"LineString","coordinates":[[-72.644,42.151],[-72.578,42.123],[-72.532,42.109],[-72.518,42.092],[-72.517,42.035]]}},{"type":"Feature","properties":{"label":null},"geometry":{"type":"LineString","coordinates":[[-72.517,42.035],[-72.522,41.984],[-72.536,41.955],[-72.56,41.941],[-72.607,41.927],[-72.633,41.913],[-72.647,41.898],[-72.673,41.854],[-72.677,41.844],[-72.678,41.828],[-72.661,41.797],[-72.664,41.759]]}},{"type":"Feature","properties":{"label":null},"geometry":{"type":"LineString","coordinates":[[-72.11,41.547],[-72.076,41.576],[-71.997,41.587],[-71.961,41.602],[-71.918,41.668],[-71.899,41.715],[-71.881,41.741],[-71.872,41.778],[-71.879,41.793],[-71.874,41.806],[-71.874,41.819],[-71.895,41.873],[-71.9,41.901],[-71.879,41.96],[-71.859,41.993],[-71.867,42.024]]}},{"type":"Feature","properties":{"label":null},"geometry":{"type":"LineString","coordinates":[[-71.796,41.446],[-71.694,41.51],[-71.678,41.536],[-71.655,41.604],[-71.638,41.634],[-71.61,41.651],[-71.584,41.651],[-71.523,41.67],[-71.499,41.672],[-71.49,41.679],[-71.482,41.713],[-71.438,41.757],[-71.423,41.786],[-71.416,41.816]]}},{"type":"Feature","properties":{"label":null},"geometry":{"type":"LineString","coordinates":[[-72.656,41.766],[-72.635,41.743],[-72.553,41.694],[-72.508,41.656],[-72.458,41.632],[-72.413,41.592],[-72.36,41.581],[-72.32,41.564],[-72.294,41.571],[-72.19,41.569],[-72.162,41.559],[-72.129,41.561],[-72.11,41.547]]}},{"type":"Feature","properties":{"label":null},"geometry":{"type":"LineString","coordinates":[[-72.664,41.759],[-72.685,41.724],[-72.685,41.713],[-72.671,41.694],[-72.671,41.687],[-72.69,41.625]]}},{"type":"Feature","properties":{"label":null},"geometry":{"type":"LineString","coordinates":[[-72.194,41.377],[-72.102,41.364],[-71.921,41.375],[-71.796,41.446]]}},{"type":"Feature","properties":{"label":null},"geometry":{"type":"LineString","coordinates":[[-72.194,41.377],[-72.133,41.418],[-72.121,41.439],[-72.11,41.547]]}},{"type":"Feature","properties":{"label":null},"geometry":{"type":"LineString","coordinates":[[-72.194,41.377],[-72.265,41.351],[-72.291,41.345],[-72.348,41.338],[-72.38,41.342]]}},{"type":"Feature","properties":{"label":null},"geometry":{"type":"LineString","coordinates":[[-75.903,42.135],[-75.808,42.116],[-75.775,42.102]]}},{"type":"Feature","properties":{"label":null},"geometry":{"type":"LineString","coordinates":[[-72.664,41.759],[-72.723,41.755],[-72.796,41.729],[-72.807,41.717],[-72.81,41.698],[-72.824,41.668],[-72.899,41.613],[-72.902,41.578],[-72.913,41.564],[-72.928,41.554],[-72.96,41.54],[-72.989,41.542],[-73.019,41.538],[-73.048,41.552],[-73.083,41.55],[-73.092,41.529],[-73.098,41.521],[-73.218,41.472],[-73.269,41.415],[-73.284,41.415],[-73.312,41.427],[-73.399,41.417],[-73.427,41.418],[-73.465,41.401],[-73.477,41.392],[-73.477,41.387],[-73.484,41.382],[-73.543,41.389],[-73.576,41.384],[-73.597,41.389]]}},{"type":"Feature","properties":{"label":null},"geometry":{"type":"LineString","coordinates":[[-73.772,41.54],[-73.87,41.524],[-73.901,41.524],[-73.934,41.531],[-73.946,41.531],[-73.963,41.521],[-74.074,41.514]]}},{"type":"Feature","properties":{"label":null},"geometry":{"type":"LineString","coordinates":[[-74.074,41.514],[-74.083,41.597],[-74.081,41.651],[-74.052,41.776],[-74.059,41.856],[-74.057,41.88],[-74.045,41.932],[-74.026,41.951],[-74.012,41.974],[-73.981,42.071],[-73.956,42.111],[-73.944,42.158],[-73.92,42.196],[-73.911,42.226],[-73.882,42.257],[-73.873,42.309],[-73.861,42.349],[-73.828,42.389],[-73.819,42.406],[-73.809,42.436],[-73.812,42.452],[-73.807,42.476],[-73.786,42.514]]}},{"type":"Feature","properties":{"label":null},"geometry":{"type":"LineString","coordinates":[[-73.597,41.389],[-73.609,41.408],[-73.63,41.423],[-73.64,41.455],[-73.673,41.495],[-73.679,41.522],[-73.685,41.535],[-73.706,41.543],[-73.724,41.545],[-73.772,41.54]]}},{"type":"Feature","properties":{"label":null},"geometry":{"type":"MultiLineString","coordinates":[[[-76.438,42.033],[-76.391,42.026],[-76.349,42.033],[-76.283,42.08],[-76.264,42.09],[-76.238,42.092],[-76.162,42.069],[-76.127,42.069],[-76.052,42.097],[-76.025,42.115],[-76.004,42.118],[-75.99,42.127],[-75.907,42.122],[-75.903,42.134]],[[-76.782,42.08],[-76.754,42.049],[-76.716,42.021],[-76.705,42.019],[-76.636,42.016],[-76.546,42.002],[-76.507,42],[-76.473,42.007],[-76.443,42.03]]]}},{"type":"Feature","properties":{"label":null},"geometry":{"type":"LineString","coordinates":[[-74.074,41.514],[-74.111,41.519],[-74.215,41.507],[-74.257,41.496],[-74.344,41.462],[-74.37,41.446]]}},{"type":"Feature","properties":{"label":null},"geometry":{"type":"MultiLineString","coordinates":[[[-77.117,42.001],[-77.105,41.95],[-77.119,41.932],[-77.127,41.885],[-77.114,41.856],[-77.096,41.837],[-77.089,41.797],[-77.074,41.778],[-77.082,41.708],[-77.07,41.689],[-77.07,41.679],[-77.107,41.644]],[[-77.117,42.001],[-77.115,42]],[[-77.117,42.003],[-77.117,42.001]],[[-77.101,42.17],[-77.103,42.158],[-77.159,42.108],[-77.16,42.082],[-77.146,42.066],[-77.15,42.04],[-77.117,42.001]]]}},{"type":"Feature","properties":{"label":null},"geometry":{"type":"LineString","coordinates":[[-74.074,41.514],[-74.073,41.484],[-74.062,41.456],[-74.069,41.423],[-74.097,41.375],[-74.113,41.318],[-74.128,41.307]]}},{"type":"Feature","properties":{"label":null},"geometry":{"type":"LineString","coordinates":[[-74.128,41.307],[-74.13,41.312],[-74.199,41.345],[-74.271,41.349],[-74.286,41.356],[-74.293,41.366],[-74.311,41.382],[-74.347,41.403],[-74.354,41.425],[-74.37,41.446]]}},{"type":"Feature","properties":{"label":null},"geometry":{"type":"LineString","coordinates":[[-74.691,41.356],[-74.661,41.356],[-74.559,41.392],[-74.493,41.406],[-74.469,41.403],[-74.441,41.408],[-74.415,41.418],[-74.37,41.446]]}},{"type":"Feature","properties":{"label":null},"geometry":{"type":"LineString","coordinates":[[-74.7,41.356],[-74.691,41.356]]}},{"type":"Feature","properties":{"label":null},"geometry":{"type":"LineString","coordinates":[[-73.708,41.111],[-73.698,41.137],[-73.682,41.231],[-73.659,41.318],[-73.6,41.377],[-73.597,41.389]]}},{"type":"Feature","properties":{"label":null},"geometry":{"type":"LineString","coordinates":[[-73.718,41.087],[-73.708,41.111]]}},{"type":"Feature","properties":{"label":null},"geometry":{"type":"LineString","coordinates":[[-73.819,41.333],[-73.826,41.323],[-73.824,41.309],[-73.809,41.252],[-73.807,41.151],[-73.802,41.113],[-73.821,41.08],[-73.823,41.062]]}},{"type":"Feature","properties":{"label":null},"geometry":{"type":"LineString","coordinates":[[-73.993,41.102],[-74,41.121],[-74.036,41.168],[-74.035,41.309]]}},{"type":"Feature","properties":{"label":null},"geometry":{"type":"LineString","coordinates":[[-73.823,41.062],[-73.833,41.059]]}},{"type":"Feature","properties":{"label":null},"geometry":{"type":"LineString","coordinates":[[-73.993,41.102],[-73.944,41.099],[-73.929,41.09],[-73.913,41.073],[-73.833,41.059]]}},{"type":"Feature","properties":{"label":null},"geometry":{"type":"LineString","coordinates":[[-73.722,41.024],[-73.691,41.054]]}},{"type":"Feature","properties":{"label":null},"geometry":{"type":"LineString","coordinates":[[-73.722,41.024],[-73.729,41.064],[-73.718,41.087]]}},{"type":"Feature","properties":{"label":null},"geometry":{"type":"LineString","coordinates":[[-73.722,41.024],[-73.823,41.062]]}},{"type":"Feature","properties":{"label":null},"geometry":{"type":"LineString","coordinates":[[-73.993,41.102],[-74.04,41.099]]}},{"type":"Feature","properties":{"label":null},"geometry":{"type":"LineString","coordinates":[[-74.04,41.099],[-74.068,41.1],[-74.161,41.121]]}},{"type":"Feature","properties":{"label":null},"geometry":{"type":"LineString","coordinates":[[-74.161,41.121],[-74.161,41.13],[-74.179,41.146],[-74.177,41.199],[-74.168,41.231],[-74.128,41.307]]}},{"type":"Feature","properties":{"label":null},"geometry":{"type":"LineString","coordinates":[[-74.161,41.121],[-74.165,41.114]]}},{"type":"Feature","properties":{"label":null},"geometry":{"type":"LineString","coordinates":[[-73.006,40.783],[-72.593,40.878],[-72.494,40.892]]}},{"type":"Feature","properties":{"label":null},"geometry":{"type":"LineString","coordinates":[[-75.61,41.425],[-75.591,41.406],[-75.575,41.377],[-75.504,41.41],[-75.474,41.397],[-75.445,41.371],[-75.413,41.354],[-75.377,41.359],[-75.358,41.357],[-75.313,41.34],[-75.208,41.359],[-75.127,41.364],[-74.998,41.351],[-74.951,41.352],[-74.851,41.335],[-74.795,41.349],[-74.7,41.356]]}},{"type":"Feature","properties":{"label":null},"geometry":{"type":"LineString","coordinates":[[-74.165,41.114],[-74.163,41.099],[-74.184,41.09],[-74.199,41.028],[-74.219,41.021]]}},{"type":"Feature","properties":{"label":null},"geometry":{"type":"LineString","coordinates":[[-74.04,41.099],[-74.052,41.064],[-74.087,40.922]]}},{"type":"Feature","properties":{"label":null},"geometry":{"type":"LineString","coordinates":[[-74.219,41.021],[-74.182,40.993],[-74.128,40.942],[-74.087,40.922]]}},{"type":"Feature","properties":{"label":null},"geometry":{"type":"LineString","coordinates":[[-79.764,42.224],[-79.8,42.196],[-79.89,42.151]]}},{"type":"Feature","properties":{"label":null},"geometry":{"type":"LineString","coordinates":[[-75.61,41.425],[-75.709,41.343]]}},{"type":"Feature","properties":{"label":null},"geometry":{"type":"LineString","coordinates":[[-79.764,42.127],[-79.812,42.132],[-79.89,42.151]]}},{"type":"Feature","properties":{"label":null},"geometry":{"type":"LineString","coordinates":[[-73.833,41.059],[-73.84,40.995],[-73.863,40.911],[-73.897,40.868],[-73.915,40.854]]}},{"type":"Feature","properties":{"label":null},"geometry":{"type":"LineString","coordinates":[[-74.219,41.021],[-74.241,41.031],[-74.288,41.021],[-74.34,40.941],[-74.417,40.887],[-74.42,40.864]]}},{"type":"Feature","properties":{"label":null},"geometry":{"type":"MultiLineString","coordinates":[[[-73.97,40.744],[-73.981,40.748],[-74.008,40.722]],[[-72.739,40.904],[-72.775,40.883],[-72.857,40.852],[-72.901,40.84],[-73.005,40.824],[-73.234,40.814],[-73.323,40.803],[-73.404,40.784],[-73.484,40.8],[-73.533,40.783],[-73.642,40.786],[-73.682,40.779],[-73.76,40.751]]]}},{"type":"Feature","properties":{"label":null},"geometry":{"type":"LineString","coordinates":[[-79.89,42.151],[-79.904,42.139],[-79.949,42.116],[-79.988,42.092],[-80.123,42.031]]}},{"type":"Feature","properties":{"label":null},"geometry":{"type":"LineString","coordinates":[[-74.087,40.922],[-74.123,40.894],[-74.156,40.878],[-74.184,40.838],[-74.212,40.757]]}},{"type":"Feature","properties":{"label":null},"geometry":{"type":"LineString","coordinates":[[-74.358,40.847],[-74.351,40.845],[-74.302,40.809],[-74.252,40.791],[-74.25,40.781],[-74.239,40.771],[-74.212,40.757]]}},{"type":"Feature","properties":{"label":null},"geometry":{"type":"LineString","coordinates":[[-73.177,40.746],[-73.191,40.757],[-73.222,40.755],[-73.277,40.748],[-73.284,40.736],[-73.404,40.718],[-73.411,40.71],[-73.527,40.699],[-73.573,40.691],[-73.729,40.682]]}},{"type":"Feature","properties":{"label":null},"geometry":{"type":"LineString","coordinates":[[-75.085,40.93],[-75.076,40.925],[-75.024,40.935],[-74.734,40.913],[-74.71,40.892],[-74.696,40.889],[-74.66,40.899],[-74.601,40.906],[-74.543,40.909],[-74.503,40.906],[-74.458,40.876],[-74.42,40.864]]}},{"type":"Feature","properties":{"label":null},"geometry":{"type":"LineString","coordinates":[[-75.695,41.067],[-75.622,41.074],[-75.505,41.076],[-75.391,41.071],[-75.325,41.059],[-75.309,41.029],[-75.294,41.012],[-75.254,40.993],[-75.207,40.989],[-75.148,40.995],[-75.085,40.93]]}},{"type":"Feature","properties":{"label":null},"geometry":{"type":"LineString","coordinates":[[-75.761,41.3],[-75.771,41.258],[-75.804,41.205],[-75.794,41.199],[-75.794,41.191],[-75.778,41.166],[-75.78,41.13],[-75.731,41.083],[-75.695,41.067]]}},{"type":"Feature","properties":{"label":null},"geometry":{"type":"LineString","coordinates":[[-74.212,40.757],[-74.227,40.731],[-74.248,40.708]]}},{"type":"Feature","properties":{"label":null},"geometry":{"type":"LineString","coordinates":[[-74.008,40.722],[-74.036,40.729],[-74.085,40.731],[-74.187,40.705],[-74.248,40.708]]}},{"type":"Feature","properties":{"label":null},"geometry":{"type":"LineString","coordinates":[[-74.028,40.616],[-74.031,40.611]]}},{"type":"Feature","properties":{"label":null},"geometry":{"type":"MultiLineString","coordinates":[[[-74.163,40.616],[-74.13,40.607],[-74.047,40.609],[-74.031,40.611]],[[-74.289,40.649],[-74.251,40.633],[-74.192,40.624],[-74.163,40.618]]]}},{"type":"Feature","properties":{"label":null},"geometry":{"type":"LineString","coordinates":[[-75.695,41.067],[-75.724,41.061],[-75.823,41.054],[-75.914,41.061],[-76.014,41.045]]}},{"type":"Feature","properties":{"label":null},"geometry":{"type":"LineString","coordinates":[[-75.761,41.3],[-75.806,41.283],[-75.821,41.271],[-75.834,41.253],[-75.881,41.234],[-75.962,41.172],[-75.967,41.154],[-75.964,41.081],[-76.006,41.057],[-76.014,41.045]]}},{"type":"Feature","properties":{"label":null},"geometry":{"type":"LineString","coordinates":[[-74.649,40.642],[-74.457,40.652],[-74.406,40.672],[-74.359,40.696],[-74.311,40.713],[-74.248,40.708]]}},{"type":"Feature","properties":{"label":null},"geometry":{"type":"LineString","coordinates":[[-74.42,40.864],[-74.448,40.814],[-74.481,40.783],[-74.524,40.751],[-74.569,40.692],[-74.635,40.665],[-74.646,40.654],[-74.649,40.642]]}},{"type":"Feature","properties":{"label":null},"geometry":{"type":"LineString","coordinates":[[-74.305,40.52],[-74.326,40.566],[-74.33,40.585],[-74.29,40.645],[-74.269,40.692],[-74.248,40.708]]}},{"type":"Feature","properties":{"label":null},"geometry":{"type":"LineString","coordinates":[[-74.345,40.527],[-74.305,40.52]]}},{"type":"Feature","properties":{"label":null},"geometry":{"type":"LineString","coordinates":[[-74.345,40.527],[-74.472,40.557],[-74.514,40.54],[-74.533,40.541],[-74.568,40.578],[-74.611,40.586],[-74.623,40.597],[-74.649,40.642]]}},{"type":"Feature","properties":{"label":null},"geometry":{"type":"LineString","coordinates":[[-74.305,40.52],[-74.305,40.505],[-74.307,40.493],[-74.304,40.475],[-74.292,40.465],[-74.278,40.456],[-74.265,40.441],[-74.142,40.368],[-74.095,40.319],[-74.08,40.263],[-74.102,40.197],[-74.102,40.17]]}},{"type":"Feature","properties":{"label":null},"geometry":{"type":"LineString","coordinates":[[-75.21,40.666],[-75.186,40.672],[-75.163,40.663],[-75.136,40.67],[-75.12,40.661],[-75.097,40.658],[-75.054,40.663],[-74.971,40.633],[-74.906,40.633],[-74.821,40.651],[-74.649,40.642]]}},{"type":"Feature","properties":{"label":null},"geometry":{"type":"LineString","coordinates":[[-76.014,41.045],[-76.146,41.008],[-76.195,41.017],[-76.242,41.005],[-76.263,41.008],[-76.353,41.038],[-76.685,40.991],[-76.719,40.989],[-76.752,40.998],[-76.789,41.019],[-76.82,41.047],[-76.841,41.052]]}},{"type":"Feature","properties":{"label":null},"geometry":{"type":"LineString","coordinates":[[-75.695,41.067],[-75.655,41.033],[-75.639,41.014],[-75.63,40.991],[-75.636,40.946],[-75.651,40.918],[-75.65,40.894],[-75.663,40.866],[-75.662,40.842],[-75.677,40.821],[-75.677,40.803],[-75.644,40.751],[-75.629,40.72],[-75.597,40.685],[-75.558,40.579]]}},{"type":"Feature","properties":{"label":null},"geometry":{"type":"LineString","coordinates":[[-75.558,40.579],[-75.556,40.576]]}},{"type":"Feature","properties":{"label":null},"geometry":{"type":"LineString","coordinates":[[-75.558,40.579],[-75.531,40.567],[-75.427,40.559],[-75.391,40.571],[-75.375,40.585],[-75.316,40.604],[-75.21,40.666]]}},{"type":"Feature","properties":{"label":null},"geometry":{"type":"LineString","coordinates":[[-76.841,41.052],[-76.883,41.054],[-76.919,41.076],[-76.947,41.08],[-77.068,41.067],[-77.122,41.041],[-77.207,41.062],[-77.336,41.052],[-77.367,41.062],[-77.393,41.061],[-77.41,41.071],[-77.423,41.069],[-77.454,41.047],[-77.575,41.017],[-77.643,40.967],[-77.714,40.944],[-77.773,40.955]]}},{"type":"Feature","properties":{"label":null},"geometry":{"type":"LineString","coordinates":[[-74.345,40.527],[-74.432,40.442],[-74.505,40.283],[-74.606,40.192]]}},{"type":"Feature","properties":{"label":null},"geometry":{"type":"LineString","coordinates":[[-74.102,40.17],[-74.149,40.171],[-74.33,40.157],[-74.403,40.159],[-74.417,40.156],[-74.496,40.18],[-74.536,40.175],[-74.606,40.192]]}},{"type":"Feature","properties":{"label":null},"geometry":{"type":"LineString","coordinates":[[-78.426,41.05],[-78.379,41.034],[-78.371,41.028],[-78.346,41.019],[-78.291,41.015],[-78.26,40.993],[-78.221,40.995],[-78.192,40.986],[-78.128,40.979],[-78.105,40.962],[-78.053,40.975],[-78.03,40.988],[-77.99,40.998],[-77.959,41.021],[-77.902,41.021],[-77.872,41.01],[-77.845,40.995],[-77.801,40.982],[-77.773,40.955]]}},{"type":"Feature","properties":{"label":null},"geometry":{"type":"LineString","coordinates":[[-74.733,40.095],[-74.642,40.171],[-74.606,40.192]]}},{"type":"Feature","properties":{"label":null},"geometry":{"type":"LineString","coordinates":[[-74.826,40.116],[-74.764,40.098],[-74.733,40.095]]}},{"type":"Feature","properties":{"label":null},"geometry":{"type":"LineString","coordinates":[[-75.556,40.576],[-75.651,40.576],[-75.731,40.581],[-75.801,40.576],[-75.87,40.583],[-75.941,40.579],[-76.181,40.5],[-76.315,40.472],[-76.377,40.453],[-76.441,40.446],[-76.518,40.425]]}},{"type":"Feature","properties":{"label":null},"geometry":{"type":"LineString","coordinates":[[-76.014,41.045],[-76.004,41.007],[-76.03,40.989],[-76.033,40.975],[-76.012,40.927],[-76.03,40.897],[-76.012,40.885],[-76.105,40.809],[-76.143,40.79],[-76.256,40.769],[-76.283,40.758],[-76.313,40.734],[-76.363,40.708],[-76.384,40.68],[-76.389,40.668],[-76.4,40.658],[-76.441,40.639],[-76.445,40.626],[-76.414,40.595],[-76.407,40.579],[-76.426,40.562],[-76.438,40.52],[-76.495,40.501],[-76.516,40.482],[-76.523,40.467],[-76.518,40.425]]}},{"type":"Feature","properties":{"label":null},"geometry":{"type":"LineString","coordinates":[[-75.278,40.111],[-75.146,40.159],[-75.103,40.17],[-75.052,40.168],[-74.976,40.133],[-74.879,40.128],[-74.826,40.116]]}},{"type":"Feature","properties":{"label":null},"geometry":{"type":"LineString","coordinates":[[-75.556,40.576],[-75.511,40.515],[-75.492,40.498],[-75.467,40.487],[-75.45,40.472],[-75.424,40.434],[-75.412,40.392],[-75.333,40.215],[-75.287,40.138],[-75.278,40.111]]}},{"type":"Feature","properties":{"label":null},"geometry":{"type":"LineString","coordinates":[[-75.278,40.111],[-75.339,40.067],[-75.351,40.048],[-75.351,40.036],[-75.34,40.026],[-75.276,39.987],[-75.219,39.963],[-75.207,39.953],[-75.186,39.916],[-75.132,39.902]]}},{"type":"Feature","properties":{"label":null},"geometry":{"type":"LineString","coordinates":[[-75.103,39.873],[-75.075,39.871],[-75.05,39.878],[-75.026,39.873],[-75.017,39.876],[-74.979,39.909],[-74.733,40.095]]}},{"type":"Feature","properties":{"label":null},"geometry":{"type":"LineString","coordinates":[[-75.132,39.902],[-75.122,39.899],[-75.103,39.873]]}},{"type":"Feature","properties":{"label":null},"geometry":{"type":"LineString","coordinates":[[-75.103,39.873],[-75.099,39.857]]}},{"type":"Feature","properties":{"label":null},"geometry":{"type":"LineString","coordinates":[[-75.099,39.857],[-75.096,39.836]]}},{"type":"Feature","properties":{"label":null},"geometry":{"type":"LineString","coordinates":[[-76.879,40.211],[-76.82,40.194],[-76.789,40.213],[-76.693,40.206],[-76.632,40.211],[-76.563,40.21],[-76.521,40.225],[-76.408,40.225],[-76.193,40.246],[-76.15,40.243],[-76.026,40.203],[-76.004,40.194],[-75.99,40.178],[-75.969,40.175],[-75.926,40.178],[-75.856,40.151],[-75.808,40.144],[-75.714,40.083],[-75.665,40.065],[-75.601,40.06],[-75.549,40.081],[-75.474,40.078],[-75.389,40.098],[-75.356,40.095],[-75.327,40.105],[-75.278,40.111]]}},{"type":"Feature","properties":{"label":null},"geometry":{"type":"LineString","coordinates":[[-76.518,40.425],[-76.575,40.415],[-76.627,40.397],[-76.757,40.336],[-76.858,40.296],[-76.909,40.312],[-76.94,40.314],[-76.976,40.293],[-76.985,40.279],[-77.044,40.274],[-77.117,40.237],[-77.134,40.225]]}},{"type":"Feature","properties":{"label":null},"geometry":{"type":"LineString","coordinates":[[-77.134,40.225],[-77.039,40.197],[-77.001,40.194],[-76.949,40.197],[-76.916,40.196],[-76.879,40.211]]}},{"type":"Feature","properties":{"label":null},"geometry":{"type":"LineString","coordinates":[[-78.432,40.439],[-78.425,40.458],[-78.404,40.47],[-78.385,40.493],[-78.315,40.599],[-78.253,40.656],[-78.225,40.689],[-78.187,40.711],[-78.061,40.797]]}},{"type":"Feature","properties":{"label":null},"geometry":{"type":"LineString","coordinates":[[-75.509,39.678],[-75.38,39.701],[-75.323,39.725],[-75.219,39.788],[-75.141,39.826],[-75.099,39.857]]}},{"type":"Feature","properties":{"label":null},"geometry":{"type":"LineString","coordinates":[[-75.537,39.687],[-75.509,39.678]]}},{"type":"Feature","properties":{"label":null},"geometry":{"type":"LineString","coordinates":[[-75.646,39.687],[-75.597,39.706],[-75.537,39.687]]}},{"type":"Feature","properties":{"label":null},"geometry":{"type":"LineString","coordinates":[[-74.554,39.411],[-74.536,39.449],[-74.526,39.487],[-74.51,39.522],[-74.47,39.543],[-74.451,39.579],[-74.434,39.602],[-74.328,39.663],[-74.279,39.711],[-74.245,39.774],[-74.222,39.84],[-74.208,39.94],[-74.215,39.982],[-74.212,39.994],[-74.102,40.17]]}},{"type":"Feature","properties":{"label":null},"geometry":{"type":"LineString","coordinates":[[-75.096,39.836],[-75.07,39.819],[-75.056,39.801],[-75.047,39.76],[-74.976,39.709],[-74.924,39.694],[-74.872,39.643],[-74.681,39.517],[-74.639,39.484],[-74.627,39.451],[-74.554,39.411]]}},{"type":"Feature","properties":{"label":null},"geometry":{"type":"LineString","coordinates":[[-74.554,39.411],[-74.523,39.402],[-74.437,39.359]]}},{"type":"Feature","properties":{"label":null},"geometry":{"type":"LineString","coordinates":[[-75.646,39.687],[-75.703,39.657],[-75.787,39.64]]}},{"type":"Feature","properties":{"label":null},"geometry":{"type":"LineString","coordinates":[[-78.244,39.987],[-78.237,39.987],[-78.188,40.022],[-78.168,40.027],[-78.15,40.022],[-78.117,40.026],[-78.088,40.039],[-78.013,40.038],[-77.97,40.046],[-77.883,40.074],[-77.869,40.086],[-77.826,40.09],[-77.709,40.157],[-77.695,40.161],[-77.643,40.147],[-77.588,40.168],[-77.509,40.178],[-77.41,40.196],[-77.247,40.21],[-77.166,40.223],[-77.134,40.225]]}},{"type":"Feature","properties":{"label":null},"geometry":{"type":"LineString","coordinates":[[-80.092,40.663],[-80.043,40.654],[-80.034,40.647],[-79.998,40.642],[-79.981,40.618],[-79.96,40.614],[-79.918,40.597],[-79.882,40.59],[-79.824,40.543],[-79.819,40.529],[-79.795,40.515],[-79.776,40.491],[-79.758,40.463],[-79.751,40.435],[-79.725,40.411],[-79.684,40.387],[-79.678,40.371],[-79.687,40.35],[-79.689,40.317],[-79.684,40.295],[-79.637,40.239],[-79.606,40.22]]}},{"type":"Feature","properties":{"label":null},"geometry":{"type":"LineString","coordinates":[[-79.043,40.003],[-79.064,40.057],[-79.048,40.085],[-78.982,40.178],[-78.966,40.21],[-78.944,40.217],[-78.89,40.262],[-78.852,40.276],[-78.841,40.295],[-78.819,40.312],[-78.801,40.336],[-78.788,40.342],[-78.77,40.369],[-78.762,40.399],[-78.76,40.428],[-78.77,40.456],[-78.756,40.467],[-78.708,40.48],[-78.628,40.451],[-78.588,40.441],[-78.576,40.444],[-78.541,40.467],[-78.518,40.467],[-78.432,40.439]]}},{"type":"Feature","properties":{"label":null},"geometry":{"type":"LineString","coordinates":[[-79.606,40.22],[-79.47,40.154],[-79.439,40.157],[-79.404,40.123],[-79.381,40.109],[-79.352,40.119],[-79.298,40.128],[-79.244,40.105],[-79.107,40.034],[-79.069,40.02],[-79.052,40.005],[-79.043,40.003]]}},{"type":"Feature","properties":{"label":null},"geometry":{"type":"LineString","coordinates":[[-77.134,40.225],[-77.169,40.187],[-77.237,40.182],[-77.473,40.069],[-77.509,40.032],[-77.537,40.013],[-77.588,39.951],[-77.628,39.939],[-77.661,39.897],[-77.695,39.834],[-77.723,39.772],[-77.73,39.732],[-77.74,39.722]]}},{"type":"Feature","properties":{"label":null},"geometry":{"type":"LineString","coordinates":[[-79.606,40.22],[-79.673,40.21],[-79.739,40.164],[-79.798,40.156],[-79.836,40.145],[-79.873,40.13],[-79.906,40.105],[-79.934,40.109],[-79.968,40.133],[-79.996,40.133],[-80.061,40.156],[-80.097,40.164],[-80.13,40.154],[-80.151,40.154],[-80.175,40.166],[-80.194,40.159]]}},{"type":"Feature","properties":{"label":null},"geometry":{"type":"LineString","coordinates":[[-75.502,39.164],[-75.509,39.185],[-75.563,39.234],[-75.587,39.308],[-75.597,39.319],[-75.632,39.334]]}},{"type":"Feature","properties":{"label":null},"geometry":{"type":"LineString","coordinates":[[-78.244,39.987],[-78.241,39.973],[-78.223,39.956],[-78.221,39.944],[-78.263,39.871],[-78.279,39.824],[-78.261,39.796],[-78.218,39.793],[-78.208,39.763],[-78.187,39.744],[-78.187,39.723]]}},{"type":"Feature","properties":{"label":null},"geometry":{"type":"LineString","coordinates":[[-76.151,39.562],[-76.219,39.499],[-76.254,39.487],[-76.315,39.452],[-76.393,39.432],[-76.467,39.371],[-76.502,39.353]]}},{"type":"Feature","properties":{"label":null},"geometry":{"type":"LineString","coordinates":[[-76.643,39.421],[-76.645,39.421],[-76.643,39.44],[-76.664,39.465],[-76.679,39.595],[-76.678,39.631],[-76.672,39.643],[-76.652,39.661],[-76.646,39.683],[-76.662,39.722]]}},{"type":"Feature","properties":{"label":null},"geometry":{"type":"LineString","coordinates":[[-78.187,39.723],[-78.183,39.708]]}},{"type":"Feature","properties":{"label":null},"geometry":{"type":"LineString","coordinates":[[-77.74,39.722],[-77.744,39.704],[-77.737,39.68],[-77.742,39.668],[-77.779,39.637],[-77.794,39.609]]}},{"type":"Feature","properties":{"label":null},"geometry":{"type":"LineString","coordinates":[[-77.794,39.609],[-77.813,39.637],[-77.848,39.652],[-77.909,39.657],[-78.001,39.643],[-78.036,39.645],[-78.058,39.652],[-78.121,39.683],[-78.18,39.704]]}},{"type":"Feature","properties":{"label":null},"geometry":{"type":"LineString","coordinates":[[-77.794,39.609],[-77.805,39.602],[-77.838,39.593],[-77.902,39.576],[-77.935,39.543],[-78.017,39.414],[-78.056,39.366],[-78.086,39.3],[-78.105,39.26],[-78.142,39.225],[-78.128,39.192],[-78.129,39.183],[-78.19,39.112],[-78.202,39.077],[-78.268,39.02],[-78.3,39.011]]}},{"type":"Feature","properties":{"label":null},"geometry":{"type":"LineString","coordinates":[[-76.502,39.353],[-76.528,39.336],[-76.542,39.32],[-76.553,39.277]]}},{"type":"Feature","properties":{"label":null},"geometry":{"type":"LineString","coordinates":[[-76.553,39.277],[-76.561,39.27],[-76.575,39.254]]}},{"type":"Feature","properties":{"label":null},"geometry":{"type":"LineString","coordinates":[[-76.591,39.234],[-76.606,39.235],[-76.622,39.228]]}},{"type":"Feature","properties":{"label":null},"geometry":{"type":"LineString","coordinates":[[-76.743,39.304],[-76.766,39.305],[-76.848,39.293],[-76.891,39.291],[-76.931,39.298],[-77.044,39.333],[-77.195,39.36],[-77.291,39.386],[-77.325,39.392],[-77.437,39.399]]}},{"type":"Feature","properties":{"label":null},"geometry":{"type":"LineString","coordinates":[[-77.794,39.609],[-77.772,39.597],[-77.664,39.598],[-77.622,39.571],[-77.605,39.551],[-77.595,39.532],[-77.589,39.511],[-77.529,39.466],[-77.489,39.416],[-77.468,39.406],[-77.437,39.399]]}},{"type":"Feature","properties":{"label":null},"geometry":{"type":"LineString","coordinates":[[-76.158,38.98],[-76.2,38.964],[-76.249,38.973],[-76.266,38.977],[-76.308,38.973],[-76.31,38.973]]}},{"type":"Feature","properties":{"label":null},"geometry":{"type":"LineString","coordinates":[[-80.194,40.159],[-80.206,40.145],[-80.208,40.131],[-80.205,40.111],[-80.18,40.048],[-80.18,39.999],[-80.17,39.966],[-80.166,39.93],[-80.133,39.881],[-80.095,39.807],[-80.088,39.774],[-80.067,39.741],[-80.062,39.722],[-79.986,39.609],[-79.974,39.569]]}},{"type":"Feature","properties":{"label":null},"geometry":{"type":"LineString","coordinates":[[-76.401,39.006],[-76.41,39.02],[-76.434,39.027],[-76.462,39.025],[-76.49,39.018],[-76.549,38.982],[-76.603,38.982]]}},{"type":"Feature","properties":{"label":null},"geometry":{"type":"LineString","coordinates":[[-76.58,38.987],[-76.587,39.004],[-76.612,39.02],[-76.617,39.043],[-76.631,39.056],[-76.631,39.102],[-76.652,39.15],[-76.652,39.168],[-76.622,39.228]]}},{"type":"Feature","properties":{"label":null},"geometry":{"type":"LineString","coordinates":[[-77.437,39.399],[-77.423,39.383],[-77.339,39.305],[-77.324,39.263],[-77.277,39.223],[-77.2,39.122],[-77.148,39.032]]}},{"type":"Feature","properties":{"label":null},"geometry":{"type":"LineString","coordinates":[[-76.601,38.982],[-76.667,38.954],[-76.74,38.954],[-76.801,38.947],[-76.834,38.949],[-76.874,38.947],[-76.888,38.942],[-76.893,38.933],[-76.914,38.921],[-76.931,38.918]]}},{"type":"Feature","properties":{"label":null},"geometry":{"type":"LineString","coordinates":[[-76.778,39.115],[-76.823,39.077],[-76.848,39.046],[-76.862,39.006],[-76.893,38.982],[-76.931,38.918]]}},{"type":"Feature","properties":{"label":null},"geometry":{"type":"LineString","coordinates":[[-76.931,38.918],[-76.942,38.918],[-76.955,38.919],[-77.006,38.909]]}},{"type":"Feature","properties":{"label":null},"geometry":{"type":"LineString","coordinates":[[-77.219,38.885],[-77.183,38.898],[-77.143,38.885],[-77.114,38.883],[-77.056,38.895],[-77.006,38.909]]}},{"type":"Feature","properties":{"label":null},"geometry":{"type":"LineString","coordinates":[[-77.006,38.909],[-77.013,38.883],[-77.032,38.883],[-77.046,38.871],[-77.061,38.865],[-77.072,38.853],[-77.171,38.793]]}},{"type":"Feature","properties":{"label":null},"geometry":{"type":"LineString","coordinates":[[-78.3,39.011],[-78.258,38.984],[-78.169,38.951],[-78.107,38.918],[-78.011,38.912],[-77.964,38.904],[-77.919,38.89],[-77.862,38.862],[-77.838,38.855],[-77.808,38.864],[-77.773,38.859],[-77.713,38.834],[-77.633,38.817]]}},{"type":"Feature","properties":{"label":null},"geometry":{"type":"LineString","coordinates":[[-77.633,38.817],[-77.614,38.806],[-77.56,38.798],[-77.513,38.801],[-77.475,38.819],[-77.431,38.846],[-77.219,38.885]]}},{"type":"Feature","properties":{"label":null},"geometry":{"type":"LineString","coordinates":[[-80.269,39.282],[-80.225,39.327],[-80.212,39.406],[-80.198,39.43],[-80.139,39.461],[-80.05,39.52],[-80.012,39.522],[-79.998,39.527],[-79.988,39.536],[-79.974,39.569]]}},{"type":"Feature","properties":{"label":null},"geometry":{"type":"LineString","coordinates":[[-79.048,38.117],[-78.942,38.252],[-78.935,38.284],[-78.933,38.346],[-78.923,38.376],[-78.9,38.4],[-78.815,38.464],[-78.779,38.509],[-78.718,38.614],[-78.668,38.666],[-78.661,38.73],[-78.654,38.744],[-78.619,38.78],[-78.607,38.805],[-78.432,38.973],[-78.379,39.01],[-78.3,39.011]]}},{"type":"Feature","properties":{"label":null},"geometry":{"type":"LineString","coordinates":[[-78.576,38.023],[-78.647,38.032],[-78.699,38.028],[-78.77,38.049],[-78.834,38.044],[-78.892,38.048],[-78.947,38.063],[-79.048,38.117]]}},{"type":"Feature","properties":{"label":null},"geometry":{"type":"LineString","coordinates":[[-77.471,37.591],[-77.539,37.601],[-77.56,37.612],[-77.608,37.655],[-77.659,37.676],[-77.773,37.705],[-77.824,37.726],[-77.968,37.832],[-78.074,37.931],[-78.105,37.949],[-78.254,37.997],[-78.32,37.997],[-78.412,38.03],[-78.433,38.028],[-78.492,38.002],[-78.513,38.001],[-78.544,38.015],[-78.576,38.023]]}},{"type":"Feature","properties":{"label":null},"geometry":{"type":"LineString","coordinates":[[-77.471,37.591],[-77.421,37.549],[-77.376,37.527],[-77.266,37.521]]}},{"type":"Feature","properties":{"label":null},"geometry":{"type":"LineString","coordinates":[[-79.376,37.818],[-79.368,37.837],[-79.342,37.86],[-79.241,37.926],[-79.156,38.027],[-79.123,38.039],[-79.102,38.053],[-79.048,38.117]]}},{"type":"Feature","properties":{"label":null},"geometry":{"type":"LineString","coordinates":[[-76.318,37.013],[-76.323,37.035],[-76.33,37.04],[-76.342,37.04],[-76.37,37.03],[-76.388,37.039],[-76.45,37.085],[-76.466,37.101],[-76.507,37.118],[-76.566,37.204],[-76.632,37.243],[-76.652,37.275],[-76.74,37.363],[-76.796,37.41],[-76.893,37.473],[-76.917,37.483],[-76.95,37.492],[-77.037,37.497],[-77.209,37.518],[-77.266,37.521]]}},{"type":"Feature","properties":{"label":null},"geometry":{"type":"LineString","coordinates":[[-77.358,37.153],[-77.329,37.197],[-77.311,37.276],[-77.339,37.336],[-77.346,37.441],[-77.273,37.506],[-77.268,37.511],[-77.266,37.521]]}},{"type":"Feature","properties":{"label":null},"geometry":{"type":"LineString","coordinates":[[-77.426,37.204],[-77.4,37.219],[-77.371,37.198],[-77.358,37.153]]}},{"type":"Feature","properties":{"label":null},"geometry":{"type":"LineString","coordinates":[[-78.091,36.757],[-78.074,36.769],[-78.003,36.79],[-77.964,36.82],[-77.919,36.842],[-77.883,36.842],[-77.862,36.849],[-77.789,36.905],[-77.742,36.926],[-77.728,36.934],[-77.674,36.997],[-77.586,37.063],[-77.562,37.089],[-77.523,37.141],[-77.506,37.177],[-77.475,37.2],[-77.426,37.204]]}},{"type":"Feature","properties":{"label":null},"geometry":{"type":"LineString","coordinates":[[-80.918,36.948],[-80.868,36.953],[-80.845,36.969],[-80.833,36.985],[-80.821,36.993],[-80.762,37.006],[-80.736,37.026],[-80.719,37.052],[-80.689,37.082],[-80.587,37.098],[-80.423,37.111],[-80.38,37.125],[-80.363,37.148],[-80.326,37.167],[-80.264,37.207],[-80.248,37.231],[-80.224,37.245],[-80.147,37.273],[-80.041,37.329],[-80.01,37.358],[-79.982,37.36]]}},{"type":"Feature","properties":{"label":null},"geometry":{"type":"LineString","coordinates":[[-73.729,40.682],[-73.741,40.665],[-73.821,40.668],[-73.854,40.667],[-73.879,40.658],[-73.902,40.645],[-73.911,40.628],[-73.934,40.608],[-73.955,40.601],[-73.98,40.598],[-74.009,40.621],[-74.021,40.627]]}},{"type":"Feature","properties":{"label":null},"geometry":{"type":"LineString","coordinates":[[-74.028,40.616],[-74.019,40.633],[-74.021,40.642],[-74,40.659],[-73.979,40.694],[-73.998,40.717],[-74.008,40.722]]}},{"type":"Feature","properties":{"label":null},"geometry":{"type":"LineString","coordinates":[[-73.722,41.024],[-73.724,40.998],[-73.734,40.975],[-73.751,40.956],[-73.795,40.915],[-73.812,40.902],[-73.824,40.901],[-73.838,40.882],[-73.895,40.837]]}},{"type":"Feature","properties":{"label":null},"geometry":{"type":"LineString","coordinates":[[-76.575,39.254],[-76.587,39.234],[-76.591,39.234]]}},{"type":"Feature","properties":{"label":null},"geometry":{"type":"LineString","coordinates":[[-72.142,42.031],[-72.194,41.962],[-72.291,41.898],[-72.383,41.854],[-72.435,41.851],[-72.548,41.802],[-72.571,41.779],[-72.588,41.774],[-72.663,41.762]]}},{"type":"Feature","properties":{"label":null},"geometry":{"type":"LineString","coordinates":[[-76.862,38.947],[-76.844,38.886],[-76.844,38.865],[-76.876,38.829],[-76.891,38.82],[-76.933,38.82],[-77.027,38.796],[-77.098,38.803],[-77.174,38.793]]}},{"type":"Feature","properties":{"label":null},"geometry":{"type":"LineString","coordinates":[[-76.832,39.15],[-76.735,39.216],[-76.693,39.235],[-76.667,39.265],[-76.653,39.27],[-76.627,39.27],[-76.572,39.258]]}},{"type":"Feature","properties":{"label":null},"geometry":{"type":"LineString","coordinates":[[-77.397,37.217],[-77.397,37.254],[-77.39,37.299],[-77.4,37.323],[-77.404,37.358],[-77.424,37.402],[-77.431,37.436],[-77.428,37.546],[-77.431,37.556]]}},{"type":"Feature","properties":{"label":null},"geometry":{"type":"LineString","coordinates":[[-77.619,37.66],[-77.641,37.66],[-77.674,37.646],[-77.695,37.622],[-77.695,37.591],[-77.692,37.563],[-77.685,37.546],[-77.685,37.523],[-77.674,37.499],[-77.661,37.492],[-77.645,37.474],[-77.624,37.419],[-77.476,37.388],[-77.456,37.382],[-77.442,37.372],[-77.41,37.365]]}},{"type":"Feature","properties":{"label":null},"geometry":{"type":"LineString","coordinates":[[-77.185,38.897],[-77.199,38.923],[-77.211,38.93],[-77.266,38.935],[-77.303,38.947],[-77.35,38.949],[-77.426,38.961],[-77.464,38.992],[-77.497,39.004],[-77.509,39.013],[-77.544,39.088],[-77.56,39.095]]}},{"type":"Feature","properties":{"label":null},"geometry":{"type":"LineString","coordinates":[[-76.839,39.478],[-76.829,39.451],[-76.811,39.426],[-76.79,39.411],[-76.771,39.406],[-76.763,39.386],[-76.747,39.369]]}},{"type":"Feature","properties":{"label":null},"geometry":{"type":"LineString","coordinates":[[-76.665,39.409],[-76.646,39.34],[-76.617,39.31],[-76.613,39.294],[-76.624,39.27],[-76.646,39.246],[-76.643,39.228]]}},{"type":"Feature","properties":{"label":null},"geometry":{"type":"LineString","coordinates":[[-76.632,39.206],[-76.556,39.204],[-76.523,39.218],[-76.497,39.237],[-76.466,39.237],[-76.459,39.241],[-76.459,39.243]]}},{"type":"Feature","properties":{"label":null},"geometry":{"type":"LineString","coordinates":[[-76.643,39.419],[-76.655,39.419],[-76.683,39.4],[-76.704,39.393],[-76.718,39.393],[-76.73,39.386],[-76.747,39.369],[-76.747,39.348],[-76.742,39.294],[-76.723,39.272],[-76.683,39.253],[-76.671,39.241],[-76.646,39.209],[-76.632,39.206]]}},{"type":"Feature","properties":{"label":null},"geometry":{"type":"LineString","coordinates":[[-77.558,37.608],[-77.568,37.553],[-77.53,37.528],[-77.525,37.5],[-77.487,37.447],[-77.469,37.443]]}},{"type":"Feature","properties":{"label":null},"geometry":{"type":"LineString","coordinates":[[-76.947,39.3],[-76.969,39.286],[-76.978,39.258],[-76.973,39.23],[-76.945,39.202],[-76.862,39.178],[-76.83,39.154]]}},{"type":"Feature","properties":{"label":null},"geometry":{"type":"LineString","coordinates":[[-76.995,40.269],[-76.983,40.241],[-76.945,40.225],[-76.879,40.211]]}},{"type":"Feature","properties":{"label":null},"geometry":{"type":"LineString","coordinates":[[-75.597,39.702],[-75.549,39.73],[-75.511,39.763],[-75.483,39.796],[-75.375,39.855],[-75.214,39.895],[-75.181,39.911],[-75.12,39.972],[-75.031,40.022],[-74.905,40.109],[-74.899,40.154],[-74.872,40.187],[-74.865,40.189]]}},{"type":"Feature","properties":{"label":null},"geometry":{"type":"LineString","coordinates":[[-74.356,40.857],[-74.316,40.89],[-74.158,40.901],[-74.115,40.898]]}},{"type":"Feature","properties":{"label":null},"geometry":{"type":"LineString","coordinates":[[-73.896,40.836],[-73.838,40.83],[-73.795,40.802],[-73.745,40.731],[-73.729,40.682]]}},{"type":"Feature","properties":{"label":null},"geometry":{"type":"LineString","coordinates":[[-75.356,39.862],[-75.361,39.89],[-75.333,39.977],[-75.351,40.01],[-75.351,40.032]]}},{"type":"Feature","properties":{"label":null},"geometry":{"type":"LineString","coordinates":[[-74.866,40.192],[-74.889,40.22],[-74.844,40.274],[-74.806,40.291],[-74.72,40.291],[-74.707,40.269],[-74.696,40.192]]}},{"type":"Feature","properties":{"label":null},"geometry":{"type":"LineString","coordinates":[[-76.78,40.22],[-76.818,40.253],[-76.836,40.291]]}},{"type":"Feature","properties":{"label":null},"geometry":{"type":"LineString","coordinates":[[-72.748,40.901],[-72.727,40.923],[-72.687,40.923],[-72.562,40.962],[-72.407,41.071],[-72.324,41.137],[-72.237,41.149]]}},{"type":"Feature","properties":{"label":null},"geometry":{"type":"LineString","coordinates":[[-75.681,41.486],[-75.698,41.476],[-75.698,41.451],[-75.719,41.411],[-75.722,41.387],[-75.712,41.337]]}},{"type":"Feature","properties":{"label":null},"geometry":{"type":"LineString","coordinates":[[-76.81,42.167],[-76.797,42.182],[-76.78,42.195],[-76.768,42.214],[-76.752,42.247],[-76.747,42.278],[-76.723,42.293],[-76.693,42.293],[-76.554,42.389],[-76.521,42.417],[-76.497,42.478],[-76.438,42.485],[-76.424,42.471],[-76.386,42.472],[-76.313,42.49],[-76.27,42.533],[-76.172,42.611]]}},{"type":"Feature","properties":{"label":null},"geometry":{"type":"LineString","coordinates":[[-77.148,39.027],[-77.126,39.025],[-77.087,39.006],[-77.074,39.004],[-77.065,39.011],[-77.015,39.011],[-76.973,39.02],[-76.945,39.02]]}},{"type":"Feature","properties":{"label":null},"geometry":{"type":"LineString","coordinates":[[-77.174,38.793],[-77.186,38.793],[-77.211,38.803],[-77.225,38.815],[-77.223,38.855],[-77.226,38.872],[-77.219,38.885],[-77.219,38.912],[-77.215,38.926]]}},{"type":"Feature","properties":{"label":null},"geometry":{"type":"LineString","coordinates":[[-76.778,39.114],[-76.763,39.093],[-76.738,39.088],[-76.719,39.098],[-76.702,39.102],[-76.683,39.091],[-76.669,39.07],[-76.634,39.06]]}},{"type":"Feature","properties":{"label":null},"geometry":{"type":"LineString","coordinates":[[-76.83,39.154],[-76.78,39.117],[-76.778,39.114]]}},{"type":"Feature","properties":{"label":null},"geometry":{"type":"LineString","coordinates":[[-76.945,39.02],[-76.914,39.018],[-76.895,39.006],[-76.87,38.978],[-76.862,38.947]]}},{"type":"Feature","properties":{"label":null},"geometry":{"type":"LineString","coordinates":[[-77.215,38.926],[-77.214,38.928],[-77.181,38.961],[-77.16,38.989],[-77.148,39.03]]}},{"type":"Feature","properties":{"label":null},"geometry":{"type":"LineString","coordinates":[[-76.95,39.02],[-76.931,39.051],[-76.909,39.065],[-76.896,39.086],[-76.85,39.138],[-76.832,39.15]]}},{"type":"Feature","properties":{"label":null},"geometry":{"type":"LineString","coordinates":[[-76.622,39.228],[-76.648,39.23],[-76.707,39.194],[-76.749,39.15],[-76.763,39.128],[-76.778,39.115]]}},{"type":"Feature","properties":{"label":null},"geometry":{"type":"LineString","coordinates":[[-76.606,39.285],[-76.718,39.303],[-76.743,39.304]]}},{"type":"Feature","properties":{"label":null},"geometry":{"type":"LineString","coordinates":[[-76.502,39.353],[-76.528,39.378],[-76.563,39.397],[-76.586,39.416],[-76.617,39.414],[-76.643,39.421]]}},{"type":"Feature","properties":{"label":null},"geometry":{"type":"LineString","coordinates":[[-77.266,37.523],[-77.298,37.556],[-77.346,37.587],[-77.36,37.615],[-77.372,37.629],[-77.39,37.639],[-77.448,37.655]]}},{"type":"Feature","properties":{"label":null},"geometry":{"type":"LineString","coordinates":[[-77.448,37.655],[-77.48,37.664],[-77.494,37.672],[-77.558,37.679],[-77.614,37.66],[-77.619,37.66]]}},{"type":"Feature","properties":{"label":null},"geometry":{"type":"LineString","coordinates":[[-74.42,40.864],[-74.358,40.847]]}},{"type":"Feature","properties":{"label":null},"geometry":{"type":"LineString","coordinates":[[-74.115,40.898],[-74.085,40.896],[-74.019,40.863],[-73.932,40.863],[-73.894,40.835]]}},{"type":"Feature","properties":{"label":null},"geometry":{"type":"LineString","coordinates":[[-73.895,40.837],[-73.904,40.83],[-73.937,40.809],[-73.98,40.747]]}},{"type":"Feature","properties":{"label":null},"geometry":{"type":"LineString","coordinates":[[-73.76,40.751],[-73.764,40.75],[-73.809,40.741],[-73.838,40.743],[-73.866,40.732],[-73.903,40.732],[-73.948,40.739],[-73.972,40.744]]}},{"type":"Feature","properties":{"label":null},"geometry":{"type":"LineString","coordinates":[[-74.698,40.192],[-74.696,40.192],[-74.658,40.203],[-74.597,40.192]]}},{"type":"Feature","properties":{"label":null},"geometry":{"type":"LineString","coordinates":[[-74.865,40.189],[-74.818,40.203],[-74.767,40.203],[-74.717,40.192],[-74.698,40.192]]}},{"type":"Feature","properties":{"label":null},"geometry":{"type":"LineString","coordinates":[[-71.786,42.278],[-71.789,42.261],[-71.794,42.25],[-71.841,42.214],[-71.848,42.188]]}},{"type":"Feature","properties":{"label":null},"geometry":{"type":"LineString","coordinates":[[-75.775,42.102],[-75.582,42.071],[-75.542,42.04],[-75.528,42.04],[-75.488,42.056],[-75.471,42.054],[-75.459,42.049]]}},{"type":"Feature","properties":{"label":null},"geometry":{"type":"LineString","coordinates":[[-80.111,40.431],[-80.028,40.415],[-79.901,40.447],[-79.751,40.439]]}},{"type":"Feature","properties":{"label":null},"geometry":{"type":"LineString","coordinates":[[-77.469,37.443],[-77.459,37.441],[-77.428,37.441],[-77.393,37.448],[-77.371,37.466],[-77.35,37.474],[-77.317,37.461]]}},{"type":"Feature","properties":{"label":null},"geometry":{"type":"LineString","coordinates":[[-76.31,38.973],[-76.346,38.978],[-76.37,38.985],[-76.396,38.997],[-76.401,39.006]]}},{"type":"Feature","properties":{"label":null},"geometry":{"type":"LineString","coordinates":[[-76.459,39.243],[-76.459,39.261],[-76.466,39.272],[-76.494,39.287],[-76.5,39.296],[-76.5,39.31],[-76.49,39.319],[-76.488,39.329],[-76.5,39.353]]}},{"type":"Feature","properties":{"label":null},"geometry":{"type":"LineString","coordinates":[[-75.787,39.64],[-75.844,39.645],[-75.908,39.642],[-75.927,39.647],[-76.043,39.606]]}},{"type":"Feature","properties":{"label":null},"geometry":{"type":"LineString","coordinates":[[-76.043,39.606],[-76.12,39.579],[-76.15,39.564],[-76.151,39.562]]}},{"type":"Feature","properties":{"label":null},"geometry":{"type":"LineString","coordinates":[[-76.553,39.277],[-76.606,39.285]]}},{"type":"Feature","properties":{"label":null},"geometry":{"type":"LineString","coordinates":[[-74.927,38.97],[-74.896,38.989],[-74.852,39.044],[-74.759,39.143]]}},{"type":"Feature","properties":{"label":null},"geometry":{"type":"LineString","coordinates":[[-75.709,41.343],[-75.761,41.3]]}},{"type":"Feature","properties":{"label":null},"geometry":{"type":"LineString","coordinates":[[-77.633,40.781],[-77.676,40.786],[-77.77,40.774],[-77.803,40.781],[-77.831,40.807],[-77.858,40.819]]}},{"type":"Feature","properties":{"label":null},"geometry":{"type":"LineString","coordinates":[[-72.279,41.465],[-72.298,41.478],[-72.304,41.52],[-72.326,41.565]]}},{"type":"Feature","properties":{"label":null},"geometry":{"type":"LineString","coordinates":[[-73.463,41.13],[-73.457,41.135],[-73.422,41.144],[-73.383,41.163],[-73.361,41.163],[-73.319,41.175],[-73.303,41.188],[-73.274,41.197],[-73.252,41.224],[-73.232,41.232],[-73.191,41.236],[-73.14,41.238],[-73.099,41.247],[-73.081,41.248],[-73.071,41.256],[-73.038,41.292],[-73.031,41.311],[-72.995,41.324],[-72.966,41.35],[-72.927,41.365],[-72.881,41.39],[-72.866,41.401],[-72.841,41.455],[-72.821,41.481],[-72.772,41.522]]}},{"type":"Feature","properties":{"label":null},"geometry":{"type":"LineString","coordinates":[[-73.676,41.036],[-73.671,41.048],[-73.675,41.061],[-73.665,41.085],[-73.653,41.094],[-73.636,41.097],[-73.624,41.09],[-73.594,41.1],[-73.567,41.102],[-73.53,41.118],[-73.493,41.117],[-73.463,41.13]]}},{"type":"Feature","properties":{"label":null},"geometry":{"type":"LineString","coordinates":[[-73.192,41.172],[-73.195,41.193],[-73.18,41.221],[-73.155,41.236],[-73.147,41.254],[-73.116,41.274],[-73.098,41.308],[-73.084,41.318],[-73.095,41.348],[-73.092,41.363],[-73.068,41.402],[-73.071,41.416],[-73.067,41.447],[-73.055,41.459],[-73.05,41.478],[-73.052,41.499],[-73.046,41.504],[-73.044,41.547],[-73.055,41.553],[-73.059,41.567],[-73.052,41.579],[-73.067,41.601],[-73.062,41.616],[-73.08,41.632],[-73.078,41.661]]}},{"type":"Feature","properties":{"label":null},"geometry":{"type":"LineString","coordinates":[[-73.067,41.674],[-73.071,41.703],[-73.09,41.715],[-73.107,41.731],[-73.113,41.745],[-73.114,41.771],[-73.108,41.789],[-73.113,41.798],[-73.11,41.825],[-73.072,41.878],[-73.065,41.903],[-73.056,41.915]]}},{"type":"Feature","properties":{"label":null},"geometry":{"type":"LineString","coordinates":[[-72.279,41.719],[-72.234,41.728],[-72.183,41.736]]}},{"type":"Feature","properties":{"label":null},"geometry":{"type":"LineString","coordinates":[[-72.664,41.819],[-72.605,41.803],[-72.581,41.8],[-72.567,41.783]]}},{"type":"Feature","properties":{"label":null},"geometry":{"type":"LineString","coordinates":[[-72.585,41.774],[-72.57,41.764],[-72.509,41.761],[-72.489,41.764],[-72.467,41.774],[-72.455,41.786]]}},{"type":"Feature","properties":{"label":null},"geometry":{"type":"LineString","coordinates":[[-72.762,41.538],[-72.812,41.55],[-72.826,41.549],[-72.845,41.555],[-72.899,41.556],[-72.919,41.559]]}},{"type":"Feature","properties":{"label":null},"geometry":{"type":"LineString","coordinates":[[-75.584,39.714],[-75.539,39.72],[-75.511,39.747],[-75.49,39.759],[-75.48,39.776],[-75.453,39.798],[-75.454,39.813]]}},{"type":"Feature","properties":{"label":null},"geometry":{"type":"LineString","coordinates":[[-77.069,38.905],[-77.057,38.902]]}},{"type":"Feature","properties":{"label":null},"geometry":{"type":"LineString","coordinates":[[-76.981,38.879],[-77.003,38.861],[-77.009,38.84],[-77.016,38.828],[-77.022,38.804]]}},{"type":"Feature","properties":{"label":null},"geometry":{"type":"LineString","coordinates":[[-76.562,38.983],[-76.559,38.971],[-76.544,38.968]]}},{"type":"Feature","properties":{"label":null},"geometry":{"type":"LineString","coordinates":[[-76.668,38.79],[-76.696,38.808],[-76.732,38.814],[-76.761,38.81],[-76.8,38.813],[-76.813,38.811],[-76.845,38.819],[-76.856,38.829]]}},{"type":"Feature","properties":{"label":null},"geometry":{"type":"LineString","coordinates":[[-77.435,39.415],[-77.432,39.421],[-77.404,39.442]]}},{"type":"Feature","properties":{"label":null},"geometry":{"type":"LineString","coordinates":[[-77.309,39.716],[-77.306,39.72]]}},{"type":"Feature","properties":{"label":null},"geometry":{"type":"LineString","coordinates":[[-77.706,39.327],[-77.698,39.333],[-77.664,39.332],[-77.649,39.335],[-77.62,39.351],[-77.591,39.355],[-77.534,39.358],[-77.502,39.366]]}},{"type":"Feature","properties":{"label":null},"geometry":{"type":"LineString","coordinates":[[-76.918,39.133],[-76.891,39.157],[-76.883,39.17],[-76.858,39.204],[-76.837,39.239],[-76.822,39.252],[-76.818,39.272],[-76.825,39.296]]}},{"type":"Feature","properties":{"label":null},"geometry":{"type":"LineString","coordinates":[[-77.502,39.366],[-77.456,39.387],[-77.434,39.405]]}},{"type":"Feature","properties":{"label":null},"geometry":{"type":"LineString","coordinates":[[-76.671,39.181],[-76.695,39.204],[-76.704,39.231],[-76.714,39.24]]}},{"type":"Feature","properties":{"label":null},"geometry":{"type":"LineString","coordinates":[[-76.998,38.802],[-77.016,38.795],[-77.022,38.804]]}},{"type":"Feature","properties":{"label":null},"geometry":{"type":"LineString","coordinates":[[-77.199,39.122],[-77.182,39.122],[-77.169,39.133],[-77.158,39.127]]}},{"type":"Feature","properties":{"label":null},"geometry":{"type":"LineString","coordinates":[[-71.705,42.105],[-71.706,42.123],[-71.702,42.135],[-71.719,42.147]]}},{"type":"Feature","properties":{"label":null},"geometry":{"type":"LineString","coordinates":[[-71.586,42.014],[-71.624,42.038],[-71.64,42.057],[-71.678,42.073],[-71.691,42.084],[-71.705,42.105]]}},{"type":"Feature","properties":{"label":null},"geometry":{"type":"LineString","coordinates":[[-72.579,42.082],[-72.591,42.082],[-72.6,42.099],[-72.615,42.108]]}},{"type":"Feature","properties":{"label":null},"geometry":{"type":"LineString","coordinates":[[-72.609,42.13],[-72.614,42.144],[-72.606,42.184],[-72.621,42.202]]}},{"type":"Feature","properties":{"label":null},"geometry":{"type":"LineString","coordinates":[[-72.6,42.105],[-72.59,42.115],[-72.557,42.132],[-72.549,42.142],[-72.546,42.162]]}},{"type":"Feature","properties":{"label":null},"geometry":{"type":"LineString","coordinates":[[-79.223,37.397],[-79.235,37.422],[-79.231,37.443]]}},{"type":"Feature","properties":{"label":null},"geometry":{"type":"LineString","coordinates":[[-77.441,38.867],[-77.449,38.885],[-77.431,38.913],[-77.429,38.982],[-77.435,39],[-77.431,39.044]]}},{"type":"Feature","properties":{"label":null},"geometry":{"type":"LineString","coordinates":[[-77.846,39.115],[-77.831,39.113],[-77.819,39.119],[-77.765,39.133],[-77.749,39.14],[-77.691,39.145],[-77.665,39.145],[-77.638,39.14],[-77.616,39.142],[-77.591,39.133],[-77.583,39.118],[-77.588,39.109],[-77.574,39.103]]}},{"type":"Feature","properties":{"label":null},"geometry":{"type":"LineString","coordinates":[[-78.006,39.169],[-77.967,39.158],[-77.955,39.143]]}},{"type":"Feature","properties":{"label":null},"geometry":{"type":"LineString","coordinates":[[-78.405,37.27],[-78.416,37.271],[-78.437,37.289],[-78.444,37.301],[-78.461,37.313]]}},{"type":"Feature","properties":{"label":null},"geometry":{"type":"LineString","coordinates":[[-77.574,39.103],[-77.555,39.098],[-77.546,39.104]]}},{"type":"Feature","properties":{"label":null},"geometry":{"type":"LineString","coordinates":[[-77.788,38.678],[-77.773,38.708],[-77.773,38.725],[-77.786,38.738],[-77.812,38.745]]}},{"type":"Feature","properties":{"label":null},"geometry":{"type":"LineString","coordinates":[[-79.972,37.232],[-79.969,37.244],[-79.936,37.267]]}},{"type":"Feature","properties":{"label":null},"geometry":{"type":"LineString","coordinates":[[-79.035,37.593],[-79.041,37.572],[-79.054,37.564],[-79.074,37.548],[-79.081,37.514],[-79.084,37.472],[-79.08,37.457],[-79.084,37.431],[-79.092,37.413],[-79.095,37.391]]}},{"type":"Feature","properties":{"label":null},"geometry":{"type":"LineString","coordinates":[[-77.067,38.89],[-77.064,38.892]]}},{"type":"Feature","properties":{"label":null},"geometry":{"type":"LineString","coordinates":[[-79.183,37.366],[-79.208,37.369],[-79.223,37.38],[-79.223,37.397]]}},{"type":"Feature","properties":{"label":null},"geometry":{"type":"LineString","coordinates":[[-77.49,37.557],[-77.478,37.57],[-77.469,37.59]]}},{"type":"Feature","properties":{"label":null},"geometry":{"type":"LineString","coordinates":[[-79.936,37.267],[-79.939,37.286],[-79.98,37.315],[-79.998,37.342]]}},{"type":"Feature","properties":{"label":null},"geometry":{"type":"LineString","coordinates":[[-74.956,40.38],[-74.949,40.381]]}},{"type":"Feature","properties":{"label":null},"geometry":{"type":"LineString","coordinates":[[-75.203,40.695],[-75.201,40.695]]}},{"type":"Feature","properties":{"label":null},"geometry":{"type":"LineString","coordinates":[[-75.37,39.828],[-75.348,39.802]]}},{"type":"Feature","properties":{"label":null},"geometry":{"type":"LineString","coordinates":[[-74.206,40.641],[-74.197,40.635]]}},{"type":"Feature","properties":{"label":null},"geometry":{"type":"LineString","coordinates":[[-74.161,40.71],[-74.109,40.692],[-74.095,40.686],[-74.055,40.711],[-74.05,40.731],[-74.02,40.728]]}},{"type":"Feature","properties":{"label":null},"geometry":{"type":"LineString","coordinates":[[-74.121,40.747],[-74.11,40.753],[-74.085,40.758],[-74.062,40.77],[-74.034,40.804],[-74.02,40.836]]}},{"type":"Feature","properties":{"label":null},"geometry":{"type":"LineString","coordinates":[[-73.965,40.861],[-73.959,40.859],[-73.934,40.906],[-73.935,40.919],[-73.922,40.943],[-73.911,40.988],[-73.92,41.006]]}},{"type":"Feature","properties":{"label":null},"geometry":{"type":"LineString","coordinates":[[-74.369,40.74],[-74.334,40.72]]}},{"type":"Feature","properties":{"label":null},"geometry":{"type":"LineString","coordinates":[[-74.6,40.972],[-74.6,40.994],[-74.609,41],[-74.621,41.031],[-74.633,41.048],[-74.648,41.061]]}},{"type":"Feature","properties":{"label":null},"geometry":{"type":"LineString","coordinates":[[-74.071,40.172],[-74.074,40.182],[-74.056,40.197],[-74.05,40.232],[-74.061,40.269],[-74.077,40.279],[-74.1,40.284],[-74.125,40.281],[-74.147,40.284],[-74.198,40.263],[-74.227,40.279],[-74.245,40.308],[-74.26,40.314],[-74.276,40.333],[-74.291,40.359],[-74.306,40.371]]}},{"type":"Feature","properties":{"label":null},"geometry":{"type":"LineString","coordinates":[[-74.448,40.81],[-74.403,40.771],[-74.4,40.765],[-74.378,40.752],[-74.369,40.74]]}},{"type":"Feature","properties":{"label":null},"geometry":{"type":"LineString","coordinates":[[-74.334,40.72],[-74.324,40.711]]}},{"type":"Feature","properties":{"label":null},"geometry":{"type":"LineString","coordinates":[[-74.186,40.87],[-74.165,40.842],[-74.098,40.81],[-74.073,40.806],[-74.049,40.786],[-74.041,40.773]]}},{"type":"Feature","properties":{"label":null},"geometry":{"type":"LineString","coordinates":[[-74.192,40.682],[-74.182,40.708],[-74.161,40.708],[-74.155,40.717],[-74.124,40.735],[-74.101,40.735],[-74.065,40.74]]}},{"type":"Feature","properties":{"label":null},"geometry":{"type":"LineString","coordinates":[[-74.766,40.209],[-74.757,40.227],[-74.72,40.254],[-74.714,40.267]]}},{"type":"Feature","properties":{"label":null},"geometry":{"type":"LineString","coordinates":[[-74.949,40.381],[-74.889,40.414],[-74.865,40.423]]}},{"type":"Feature","properties":{"label":null},"geometry":{"type":"LineString","coordinates":[[-74.725,40.906],[-74.716,40.915]]}},{"type":"Feature","properties":{"label":null},"geometry":{"type":"LineString","coordinates":[[-74.216,40.697],[-74.197,40.707],[-74.182,40.708]]}},{"type":"Feature","properties":{"label":null},"geometry":{"type":"LineString","coordinates":[[-74.23,40.641],[-74.206,40.641]]}},{"type":"Feature","properties":{"label":null},"geometry":{"type":"LineString","coordinates":[[-75.493,39.68],[-75.486,39.677],[-75.46,39.701],[-75.375,39.752],[-75.339,39.779],[-75.332,39.789],[-75.309,39.804],[-75.243,39.819],[-75.189,39.843],[-75.151,39.861],[-75.124,39.859],[-75.101,39.867]]}},{"type":"Feature","properties":{"label":null},"geometry":{"type":"LineString","coordinates":[[-75.112,39.903],[-75.116,39.916],[-75.112,39.933],[-75.121,39.95]]}},{"type":"Feature","properties":{"label":null},"geometry":{"type":"LineString","coordinates":[[-76.454,41.739],[-76.447,41.751],[-76.454,41.774],[-76.468,41.794],[-76.483,41.795]]}},{"type":"Feature","properties":{"label":null},"geometry":{"type":"LineString","coordinates":[[-74.961,40.378],[-74.956,40.38]]}},{"type":"Feature","properties":{"label":null},"geometry":{"type":"LineString","coordinates":[[-75.206,40.695],[-75.203,40.695]]}},{"type":"Feature","properties":{"label":null},"geometry":{"type":"LineString","coordinates":[[-75.372,39.828],[-75.385,39.843]]}},{"type":"Feature","properties":{"label":null},"geometry":{"type":"LineString","coordinates":[[-79.951,40.492],[-79.926,40.498],[-79.875,40.49],[-79.856,40.51],[-79.85,40.532],[-79.838,40.544],[-79.802,40.562],[-79.799,40.568],[-79.763,40.604],[-79.755,40.614],[-79.724,40.64],[-79.725,40.655],[-79.715,40.67],[-79.708,40.695],[-79.67,40.725],[-79.649,40.756],[-79.63,40.761],[-79.582,40.785],[-79.567,40.803],[-79.554,40.81]]}},{"type":"Feature","properties":{"label":null},"geometry":{"type":"LineString","coordinates":[[-79.996,40.453],[-79.995,40.454]]}},{"type":"Feature","properties":{"label":null},"geometry":{"type":"LineString","coordinates":[[-76.788,40.22],[-76.78,40.223],[-76.738,40.227],[-76.714,40.223],[-76.702,40.202],[-76.686,40.194],[-76.64,40.194],[-76.613,40.187],[-76.544,40.134],[-76.513,40.127],[-76.487,40.13],[-76.411,40.099],[-76.397,40.096],[-76.372,40.085],[-76.345,40.079],[-76.326,40.072]]}},{"type":"Feature","properties":{"label":null},"geometry":{"type":"LineString","coordinates":[[-75.82,41.251],[-75.849,41.251],[-75.865,41.266],[-75.901,41.281],[-75.909,41.29]]}},{"type":"Feature","properties":{"label":null},"geometry":{"type":"LineString","coordinates":[[-75.29,40.302],[-75.314,40.323],[-75.314,40.336],[-75.327,40.348],[-75.329,40.374],[-75.34,40.387],[-75.336,40.403]]}},{"type":"Feature","properties":{"label":null},"geometry":{"type":"LineString","coordinates":[[-75.167,40.09],[-75.198,40.106],[-75.206,40.121],[-75.201,40.137],[-75.203,40.166],[-75.213,40.175],[-75.212,40.187],[-75.225,40.206]]}},{"type":"Feature","properties":{"label":null},"geometry":{"type":"LineString","coordinates":[[-75.276,40.634],[-75.285,40.643],[-75.294,40.667],[-75.29,40.682],[-75.291,40.713],[-75.273,40.731],[-75.266,40.744],[-75.29,40.792],[-75.302,40.81],[-75.299,40.825],[-75.303,40.846],[-75.294,40.859],[-75.299,40.868],[-75.314,40.874],[-75.314,40.895],[-75.299,40.907],[-75.3,40.925]]}},{"type":"Feature","properties":{"label":null},"geometry":{"type":"LineString","coordinates":[[-78.924,40.323],[-78.903,40.312],[-78.867,40.314],[-78.842,40.296]]}},{"type":"Feature","properties":{"label":null},"geometry":{"type":"LineString","coordinates":[[-79.975,41.202],[-79.972,41.22],[-79.921,41.269],[-79.902,41.299],[-79.885,41.308],[-79.873,41.321],[-79.878,41.333],[-79.87,41.342],[-79.872,41.359]]}},{"type":"Feature","properties":{"label":null},"geometry":{"type":"LineString","coordinates":[[-79.032,39.785],[-79.039,39.816],[-79.048,39.822],[-79.047,39.843]]}},{"type":"Feature","properties":{"label":null},"geometry":{"type":"LineString","coordinates":[[-75.604,41.42],[-75.578,41.428],[-75.586,41.449],[-75.539,41.475],[-75.526,41.498],[-75.526,41.516],[-75.508,41.549],[-75.496,41.552],[-75.484,41.574],[-75.469,41.576]]}},{"type":"Feature","properties":{"label":null},"geometry":{"type":"LineString","coordinates":[[-76.445,40.279],[-76.432,40.258],[-76.417,40.252],[-76.4,40.255]]}},{"type":"Feature","properties":{"label":null},"geometry":{"type":"LineString","coordinates":[[-77.641,40.569],[-77.622,40.586],[-77.589,40.602],[-77.574,40.616]]}},{"type":"Feature","properties":{"label":null},"geometry":{"type":"LineString","coordinates":[[-74.968,40.13],[-74.94,40.16],[-74.917,40.17],[-74.898,40.187],[-74.883,40.193],[-74.793,40.197],[-74.775,40.206]]}},{"type":"Feature","properties":{"label":null},"geometry":{"type":"LineString","coordinates":[[-75.195,40.004],[-75.173,40.018],[-75.149,40.019]]}},{"type":"Feature","properties":{"label":null},"geometry":{"type":"LineString","coordinates":[[-75.42,39.915],[-75.394,39.936],[-75.366,39.937]]}},{"type":"Feature","properties":{"label":null},"geometry":{"type":"LineString","coordinates":[[-76.031,39.722],[-76.025,39.734],[-76.022,39.758],[-75.994,39.792],[-75.968,39.807],[-75.897,39.825],[-75.85,39.825],[-75.828,39.828],[-75.795,39.844],[-75.771,39.846],[-75.717,39.856],[-75.692,39.858]]}},{"type":"Feature","properties":{"label":null},"geometry":{"type":"LineString","coordinates":[[-75.66,41.41],[-75.671,41.422],[-75.672,41.446],[-75.663,41.455]]}},{"type":"Feature","properties":{"label":null},"geometry":{"type":"LineString","coordinates":[[-76.867,40.768],[-76.865,40.786],[-76.85,40.813],[-76.853,40.819]]}},{"type":"Feature","properties":{"label":null},"geometry":{"type":"LineString","coordinates":[[-76.933,40.232],[-76.972,40.235],[-76.978,40.238]]}},{"type":"Feature","properties":{"label":null},"geometry":{"type":"LineString","coordinates":[[-79.162,40.575],[-79.15,40.595],[-79.124,40.611],[-79.117,40.623],[-79.118,40.643],[-79.113,40.676]]}},{"type":"Feature","properties":{"label":null},"geometry":{"type":"LineString","coordinates":[[-79.592,40.227],[-79.589,40.209],[-79.573,40.196],[-79.561,40.172],[-79.561,40.154]]}},{"type":"Feature","properties":{"label":null},"geometry":{"type":"LineString","coordinates":[[-79.748,39.865],[-79.745,39.882],[-79.754,39.895],[-79.731,39.915],[-79.703,39.927],[-79.663,39.937]]}},{"type":"Feature","properties":{"label":null},"geometry":{"type":"LineString","coordinates":[[-74.814,40.148],[-74.813,40.176],[-74.802,40.197]]}},{"type":"Feature","properties":{"label":null},"geometry":{"type":"LineString","coordinates":[[-77.009,40.149],[-77.006,40.157],[-76.97,40.202],[-76.937,40.223],[-76.933,40.232]]}},{"type":"Feature","properties":{"label":null},"geometry":{"type":"LineString","coordinates":[[-76.868,41.021],[-76.873,41.072]]}},{"type":"Feature","properties":{"label":null},"geometry":{"type":"LineString","coordinates":[[-77.306,39.72],[-77.299,39.734],[-77.277,39.746],[-77.26,39.765],[-77.23,39.777],[-77.203,39.797],[-77.196,39.807],[-77.199,39.825],[-77.196,39.84],[-77.199,39.859],[-77.185,39.886],[-77.169,39.906],[-77.16,39.925],[-77.139,39.943],[-77.127,39.977]]}},{"type":"Feature","properties":{"label":null},"geometry":{"type":"LineString","coordinates":[[-75.149,40.303],[-75.139,40.294],[-75.121,40.3],[-75.106,40.314]]}},{"type":"Feature","properties":{"label":null},"geometry":{"type":"LineString","coordinates":[[-75.592,39.94],[-75.583,39.949],[-75.581,39.962],[-75.59,39.985],[-75.581,40.009],[-75.589,40.025],[-75.581,40.039],[-75.56,40.052],[-75.523,40.051],[-75.478,40.06],[-75.412,40.078],[-75.394,40.084]]}},{"type":"Feature","properties":{"label":null},"geometry":{"type":"LineString","coordinates":[[-75.777,41.318],[-75.746,41.329]]}},{"type":"Feature","properties":{"label":null},"geometry":{"type":"LineString","coordinates":[[-75.327,40.928],[-75.3,40.925],[-75.29,40.952],[-75.282,40.961],[-75.254,40.973],[-75.234,40.975],[-75.222,40.985]]}},{"type":"Feature","properties":{"label":null},"geometry":{"type":"LineString","coordinates":[[-75.59,40.589],[-75.532,40.61],[-75.509,40.614],[-75.493,40.623],[-75.415,40.649],[-75.355,40.677],[-75.311,40.683],[-75.258,40.683],[-75.246,40.692],[-75.215,40.7],[-75.206,40.695]]}},{"type":"Feature","properties":{"label":null},"geometry":{"type":"LineString","coordinates":[[-79.047,40.451],[-79.033,40.456]]}},{"type":"Feature","properties":{"label":null},"geometry":{"type":"LineString","coordinates":[[-76.526,41.936],[-76.529,41.961],[-76.543,41.973],[-76.55,42]]}},{"type":"Feature","properties":{"label":null},"geometry":{"type":"LineString","coordinates":[[-77.475,41.087],[-77.481,41.103],[-77.471,41.112],[-77.451,41.117],[-77.44,41.127],[-77.405,41.132],[-77.375,41.139],[-77.351,41.154],[-77.342,41.166],[-77.305,41.187],[-77.299,41.196],[-77.281,41.205],[-77.221,41.22]]}},{"type":"Feature","properties":{"label":null},"geometry":{"type":"LineString","coordinates":[[-77.112,41.232],[-77.096,41.226],[-77.063,41.224],[-77.04,41.232]]}},{"type":"Feature","properties":{"label":null},"geometry":{"type":"LineString","coordinates":[[-78.562,39.959],[-78.528,39.998],[-78.525,40.012],[-78.514,40.024],[-78.517,40.049]]}},{"type":"Feature","properties":{"label":null},"geometry":{"type":"LineString","coordinates":[[-75.934,40.324],[-75.941,40.338],[-75.959,40.351]]}},{"type":"Feature","properties":{"label":null},"geometry":{"type":"LineString","coordinates":[[-75.819,40.493],[-75.786,40.526],[-75.758,40.532]]}},{"type":"Feature","properties":{"label":null},"geometry":{"type":"LineString","coordinates":[[-75.925,39.982],[-75.879,39.988],[-75.792,40.006],[-75.747,40.007],[-75.701,40.019],[-75.686,40.021],[-75.647,40.013],[-75.586,40.033]]}},{"type":"Feature","properties":{"label":null},"geometry":{"type":"LineString","coordinates":[[-76.694,39.982],[-76.668,39.986],[-76.656,39.994],[-76.604,40.007],[-76.59,40.015],[-76.544,40.031],[-76.49,40.045],[-76.472,40.037],[-76.457,40.039],[-76.378,40.052],[-76.36,40.061],[-76.344,40.063],[-76.326,40.072],[-76.288,40.067],[-76.252,40.048],[-76.242,40.031]]}},{"type":"Feature","properties":{"label":null},"geometry":{"type":"LineString","coordinates":[[-76.8,39.937],[-76.801,39.943],[-76.758,39.979]]}},{"type":"Feature","properties":{"label":null},"geometry":{"type":"LineString","coordinates":[[-78.383,40.009],[-78.38,40.027],[-78.368,40.025]]}},{"type":"Feature","properties":{"label":null},"geometry":{"type":"LineString","coordinates":[[-79.576,40.306],[-79.566,40.306],[-79.551,40.287],[-79.537,40.284],[-79.518,40.303]]}},{"type":"Feature","properties":{"label":null},"geometry":{"type":"LineString","coordinates":[[-76.728,40.261],[-76.701,40.258],[-76.689,40.264]]}},{"type":"Feature","properties":{"label":null},"geometry":{"type":"LineString","coordinates":[[-79.873,40.873],[-79.873,40.874]]}},{"type":"Feature","properties":{"label":null},"geometry":{"type":"LineString","coordinates":[[-79.875,40.874],[-79.873,40.873]]}},{"type":"Feature","properties":{"label":null},"geometry":{"type":"LineString","coordinates":[[-79.92,40.037],[-79.885,40.025]]}},{"type":"Feature","properties":{"label":null},"geometry":{"type":"LineString","coordinates":[[-79.743,39.87],[-79.724,39.867],[-79.711,39.876],[-79.697,39.87]]}},{"type":"Feature","properties":{"label":null},"geometry":{"type":"LineString","coordinates":[[-75.675,40.244],[-75.629,40.23],[-75.607,40.241],[-75.577,40.242]]}},{"type":"Feature","properties":{"label":null},"geometry":{"type":"LineString","coordinates":[[-75.577,40.242],[-75.556,40.232],[-75.533,40.199],[-75.512,40.178],[-75.46,40.152],[-75.447,40.134]]}},{"type":"Feature","properties":{"label":null},"geometry":{"type":"LineString","coordinates":[[-75.447,40.134],[-75.454,40.113],[-75.423,40.115],[-75.417,40.093],[-75.408,40.079]]}},{"type":"Feature","properties":{"label":null},"geometry":{"type":"LineString","coordinates":[[-75.934,40.324],[-75.921,40.312],[-75.892,40.305],[-75.862,40.306]]}},{"type":"Feature","properties":{"label":null},"geometry":{"type":"LineString","coordinates":[[-76.288,40.067],[-76.285,40.075],[-76.267,40.088],[-76.254,40.104],[-76.227,40.119],[-76.203,40.14],[-76.155,40.157],[-76.146,40.172],[-76.127,40.185],[-76.116,40.206],[-76.091,40.217],[-76.058,40.226],[-76.037,40.247],[-76.031,40.267],[-76.004,40.294],[-75.997,40.317],[-75.985,40.32],[-75.97,40.333],[-75.964,40.353],[-75.992,40.368],[-75.988,40.378],[-75.967,40.398],[-75.933,40.415],[-75.913,40.43]]}},{"type":"Feature","properties":{"label":null},"geometry":{"type":"LineString","coordinates":[[-79.228,40.62],[-79.211,40.611],[-79.208,40.602],[-79.184,40.589],[-79.139,40.583],[-79.105,40.589],[-79.08,40.604],[-79.054,40.604],[-79.042,40.608],[-79.014,40.602]]}},{"type":"Feature","properties":{"label":null},"geometry":{"type":"LineString","coordinates":[[-79.554,40.81],[-79.501,40.789],[-79.488,40.801]]}},{"type":"Feature","properties":{"label":null},"geometry":{"type":"LineString","coordinates":[[-79.953,40.882],[-79.911,40.879],[-79.894,40.88],[-79.875,40.874]]}},{"type":"Feature","properties":{"label":null},"geometry":{"type":"LineString","coordinates":[[-79.873,40.874],[-79.865,40.87]]}},{"type":"Feature","properties":{"label":null},"geometry":{"type":"LineString","coordinates":[[-79.19,41.839],[-79.172,41.834],[-79.148,41.837]]}},{"type":"Feature","properties":{"label":null},"geometry":{"type":"LineString","coordinates":[[-79.299,41.848],[-79.278,41.848],[-79.264,41.84],[-79.241,41.849]]}},{"type":"Feature","properties":{"label":null},"geometry":{"type":"LineString","coordinates":[[-75.898,40.154],[-75.9,40.161],[-75.916,40.179],[-75.921,40.196],[-75.913,40.215],[-75.916,40.27],[-75.906,40.284],[-75.898,40.306]]}},{"type":"Feature","properties":{"label":null},"geometry":{"type":"LineString","coordinates":[[-80.107,40.423],[-80.071,40.411],[-80.051,40.42],[-80.035,40.42],[-80.027,40.43],[-80.01,40.439],[-79.998,40.451],[-80.016,40.496],[-80.051,40.511],[-80.071,40.525],[-80.086,40.547],[-80.084,40.56],[-80.101,40.586]]}},{"type":"Feature","properties":{"label":null},"geometry":{"type":"LineString","coordinates":[[-75.505,41.235],[-75.484,41.221],[-75.438,41.185],[-75.405,41.145],[-75.396,41.09],[-75.396,41.07]]}},{"type":"Feature","properties":{"label":null},"geometry":{"type":"LineString","coordinates":[[-75.574,41.372],[-75.566,41.351],[-75.557,41.339],[-75.556,41.327],[-75.544,41.304],[-75.526,41.286],[-75.517,41.253],[-75.505,41.235]]}},{"type":"Feature","properties":{"label":null},"geometry":{"type":"LineString","coordinates":[[-79.995,40.438],[-79.998,40.454]]}},{"type":"Feature","properties":{"label":null},"geometry":{"type":"LineString","coordinates":[[-75.409,40.091],[-75.394,40.082],[-75.351,40.075],[-75.327,40.064],[-75.285,40.072],[-75.26,40.046],[-75.207,40.01],[-75.195,40.004],[-75.207,39.982],[-75.195,39.976],[-75.182,39.955]]}},{"type":"Feature","properties":{"label":null},"geometry":{"type":"LineString","coordinates":[[-73.548,40.61],[-73.537,40.593]]}},{"type":"Feature","properties":{"label":null},"geometry":{"type":"LineString","coordinates":[[-73.967,41.707],[-73.937,41.703]]}},{"type":"Feature","properties":{"label":null},"geometry":{"type":"LineString","coordinates":[[-74.197,40.635],[-74.174,40.622]]}},{"type":"Feature","properties":{"label":null},"geometry":{"type":"LineString","coordinates":[[-73.822,40.791],[-73.836,40.815]]}},{"type":"Feature","properties":{"label":null},"geometry":{"type":"LineString","coordinates":[[-73.282,40.84],[-73.276,40.858],[-73.279,40.876],[-73.271,40.895],[-73.264,40.897]]}},{"type":"Feature","properties":{"label":null},"geometry":{"type":"LineString","coordinates":[[-73.976,40.649],[-73.995,40.667]]}},{"type":"Feature","properties":{"label":null},"geometry":{"type":"LineString","coordinates":[[-74.234,40.526],[-74.224,40.526],[-74.218,40.552],[-74.203,40.557],[-74.189,40.574],[-74.194,40.592],[-74.174,40.622]]}},{"type":"Feature","properties":{"label":null},"geometry":{"type":"LineString","coordinates":[[-73.264,40.64],[-73.265,40.664],[-73.289,40.698],[-73.286,40.734],[-73.279,40.744],[-73.253,40.747],[-73.234,40.755],[-73.192,40.758],[-73.179,40.746]]}},{"type":"Feature","properties":{"label":null},"geometry":{"type":"LineString","coordinates":[[-73.279,40.746],[-73.28,40.804]]}},{"type":"Feature","properties":{"label":null},"geometry":{"type":"LineString","coordinates":[[-73.732,40.744],[-73.717,40.759],[-73.694,40.762],[-73.663,40.779],[-73.647,40.782],[-73.624,40.777],[-73.626,40.765],[-73.615,40.756],[-73.611,40.741],[-73.585,40.734],[-73.569,40.668],[-73.561,40.622],[-73.548,40.61],[-73.585,40.601],[-73.587,40.592]]}},{"type":"Feature","properties":{"label":null},"geometry":{"type":"LineString","coordinates":[[-73.508,40.596],[-73.509,40.599]]}},{"type":"Feature","properties":{"label":null},"geometry":{"type":"LineString","coordinates":[[-73.736,41.209],[-73.736,41.214],[-73.712,41.232],[-73.678,41.248],[-73.676,41.253]]}},{"type":"Feature","properties":{"label":null},"geometry":{"type":"LineString","coordinates":[[-73.978,41.911],[-73.984,41.924],[-73.983,41.945]]}},{"type":"Feature","properties":{"label":null},"geometry":{"type":"LineString","coordinates":[[-74.011,41.976],[-73.989,41.975]]}},{"type":"Feature","properties":{"label":null},"geometry":{"type":"LineString","coordinates":[[-74.035,41.949],[-74.026,41.957],[-74.02,41.972],[-74.011,41.976]]}},{"type":"Feature","properties":{"label":null},"geometry":{"type":"LineString","coordinates":[[-74.028,41.307],[-74.013,41.32],[-73.992,41.32]]}},{"type":"Feature","properties":{"label":null},"geometry":{"type":"LineString","coordinates":[[-73.929,41.29],[-73.934,41.296]]}},{"type":"Feature","properties":{"label":null},"geometry":{"type":"LineString","coordinates":[[-73.871,41.184],[-73.896,41.209],[-73.91,41.215],[-73.914,41.238],[-73.934,41.266],[-73.929,41.29]]}},{"type":"Feature","properties":{"label":null},"geometry":{"type":"LineString","coordinates":[[-73.929,41.682],[-73.937,41.703]]}},{"type":"Feature","properties":{"label":null},"geometry":{"type":"LineString","coordinates":[[-74.02,40.643],[-73.996,40.667],[-74.004,40.68],[-73.996,40.7],[-73.965,40.697],[-73.955,40.713],[-73.919,40.735],[-73.895,40.746],[-73.904,40.768],[-73.911,40.768]]}},{"type":"Feature","properties":{"label":null},"geometry":{"type":"LineString","coordinates":[[-74.011,41.933],[-74.028,41.943]]}},{"type":"Feature","properties":{"label":null},"geometry":{"type":"LineString","coordinates":[[-73.79,40.644],[-73.807,40.653],[-73.801,40.673],[-73.826,40.72],[-73.836,40.734],[-73.835,40.749],[-73.839,40.764],[-73.822,40.791]]}},{"type":"Feature","properties":{"label":null},"geometry":{"type":"LineString","coordinates":[[-73.943,40.849],[-73.928,40.845],[-73.893,40.843],[-73.881,40.837],[-73.845,40.828],[-73.826,40.834],[-73.826,40.854],[-73.833,40.871],[-73.829,40.882],[-73.802,40.888],[-73.784,40.913]]}},{"type":"Feature","properties":{"label":null},"geometry":{"type":"LineString","coordinates":[[-71.841,41.395],[-71.812,41.392],[-71.805,41.387],[-71.808,41.357]]}}]}