{"type":"FeatureCollection","features":[{"type":"Feature","geometry":{"type":"MultiPolygon","coordinates":[[[[-74.6744,41.3479],[-74.6949,41.3573],[-74.7269,41.3462],[-74.7525,41.3462],[-74.7694,41.3266],[-74.7926,41.3221],[-74.7956,41.3191],[-74.7922,41.3116],[-74.8248,41.2917],[-74.839,41.276],[-74.8465,41.2623],[-74.8464,41.2541],[-74.8574,41.2484],[-74.8664,41.2312],[-74.8604,41.2174],[-74.8828,41.1801],[-74.9,41.1656],[-74.9077,41.1533],[-74.9286,41.1348],[-74.9454,41.1287],[-74.9634,41.1147],[-74.9806,41.1098],[-74.9922,41.0928],[-75.0265,41.0802],[-75.0412,41.0917],[-75.0768,41.141],[-75.1566,41.1501],[-75.1276,41.2528],[-75.5053,41.2335],[-75.5165,41.22],[-75.5279,41.2258],[-75.5432,41.2238],[-75.555,41.2085],[-75.569,41.1985],[-75.5772,41.1777],[-75.598,41.1714],[-75.5977,41.1633],[-75.6034,41.1526],[-75.6152,41.1505],[-75.615,41.144],[-75.6276,41.1367],[-75.6255,41.1313],[-75.6348,41.1232],[-75.6464,41.1258],[-75.6556,41.1166],[-75.6572,41.1258],[-75.6658,41.1336],[-75.6917,41.1315],[-75.7086,41.122],[-75.7087,41.1161],[-75.7165,41.118],[-75.7344,41.1022],[-75.7516,41.1037],[-75.7557,41.0937],[-75.767,41.093],[-75.7656,41.0845],[-75.771,41.0761],[-75.7701,41.0516],[-75.7568,41.0321],[-75.7397,41.0295],[-75.7324,41.0085],[-75.8014,40.9831],[-75.836,40.9765],[-75.8496,40.9716],[-75.8483,40.9673],[-75.861,40.962],[-75.9973,40.913],[-75.886,40.8163],[-75.7584,40.7359],[-75.7604,40.7339],[-75.7787,40.7291],[-75.8077,40.708],[-75.8414,40.6937],[-75.8559,40.6925],[-75.9932,40.6397],[-76.0136,40.5779],[-76.0181,40.574],[-76.0438,40.5839],[-76.0539,40.5742],[-76.0587,40.5792],[-76.0658,40.5792],[-76.0794,40.5661],[-76.1332,40.5541],[-76.1721,40.5351],[-76.2183,40.529],[-76.2584,40.5169],[-76.3389,40.5154],[-76.4163,40.4963],[-76.4387,40.4959],[-76.2319,40.3663],[-76.2055,40.3606],[-76.1497,40.3145],[-75.8746,40.1372],[-75.9433,40.1075],[-75.9367,40.0813],[-75.9349,40.0412],[-75.9942,39.953],[-75.9812,39.9332],[-75.9968,39.928],[-75.996,39.9048],[-75.9872,39.8934],[-75.9913,39.8863],[-75.988,39.8724],[-75.9921,39.8694],[-76.0025,39.8741],[-76.0082,39.8521],[-76.0209,39.8521],[-76.0173,39.8316],[-76.0281,39.824],[-76.0357,39.8269],[-76.0316,39.814],[-76.0379,39.8028],[-76.0497,39.8027],[-76.0425,39.7959],[-76.0645,39.7708],[-76.0646,39.7622],[-76.0811,39.7614],[-76.0862,39.7463],[-76.0928,39.7428],[-76.1002,39.7456],[-76.101,39.7417],[-76.0931,39.7349],[-76.0949,39.7309],[-76.1062,39.7243],[-76.111,39.7286],[-76.1112,39.7362],[-76.1197,39.7362],[-76.1188,39.7242],[-76.1299,39.7276],[-76.1357,39.7222],[-75.7883,39.7209],[-75.7878,39.6409],[-75.767,39.382],[-75.7668,39.3777],[-75.7818,39.3816],[-75.8058,39.3766],[-75.8241,39.3812],[-75.8456,39.3675],[-75.8797,39.3656],[-75.8862,39.3591],[-75.8935,39.3633],[-75.9258,39.3647],[-75.9317,39.3696],[-75.9408,39.3644],[-75.9566,39.3717],[-75.9669,39.3721],[-75.9714,39.3652],[-75.9844,39.3632],[-75.9923,39.3717],[-76.0131,39.3659],[-76.1101,39.3724],[-76.1164,39.3609],[-76.1359,39.3496],[-76.1322,39.3332],[-76.1418,39.327],[-76.1455,39.3344],[-76.1597,39.3359],[-76.1704,39.3321],[-76.1747,39.3241],[-76.1858,39.3192],[-76.186,39.3125],[-76.1777,39.3085],[-76.1783,39.2991],[-76.1681,39.2947],[-76.1691,39.2898],[-76.1832,39.291],[-76.1893,39.2819],[-76.2001,39.2801],[-76.2035,39.2689],[-76.2149,39.2672],[-76.2193,39.2618],[-76.251,39.1992],[-76.2721,39.1713],[-76.2785,39.1458],[-76.2771,39.1482],[-76.2653,39.1436],[-76.2526,39.1335],[-76.2335,39.0914],[-76.2321,39.0661],[-76.2269,39.0532],[-76.239,39.0437],[-76.2422,39.028],[-76.2109,39.0078],[-76.2072,39.0133],[-76.1926,39.0147],[-76.1649,39.0006],[-76.2024,38.9729],[-76.2223,38.9677],[-76.23,38.9805],[-76.2303,38.9711],[-76.2354,38.9754],[-76.2345,38.9712],[-76.2435,38.9768],[-76.2463,38.9746],[-76.2432,38.9661],[-76.2362,38.9652],[-76.2416,38.9624],[-76.2353,38.9629],[-76.233,38.9572],[-76.2389,38.957],[-76.2351,38.9418],[-76.2268,38.9412],[-76.2256,38.9461],[-76.2196,38.9483],[-76.2131,38.9428],[-76.207,38.9453],[-76.2138,38.9344],[-76.2058,38.9321],[-76.2031,38.9269],[-76.2052,38.8928],[-76.1983,38.8889],[-76.2062,38.8544],[-76.1974,38.8462],[-76.1957,38.8354],[-76.1902,38.8297],[-76.1988,38.813],[-76.1996,38.8018],[-76.1876,38.7908],[-76.2121,38.784],[-76.2217,38.7855],[-76.2185,38.7882],[-76.2218,38.7916],[-76.2174,38.79],[-76.2137,38.7951],[-76.2195,38.7967],[-76.2125,38.807],[-76.2283,38.8223],[-76.2445,38.8186],[-76.2502,38.8248],[-76.2492,38.8298],[-76.2655,38.8463],[-76.2658,38.8516],[-76.2512,38.857],[-76.2533,38.8629],[-76.2848,38.8366],[-76.2804,38.838],[-76.2774,38.8314],[-76.2855,38.8266],[-76.3017,38.8262],[-76.3089,38.8134],[-76.3101,38.7969],[-76.3207,38.786],[-76.3224,38.7751],[-76.3304,38.7772],[-76.3354,38.7738],[-76.3263,38.7666],[-76.3315,38.7617],[-76.3273,38.7563],[-76.3327,38.7625],[-76.3382,38.7615],[-76.3425,38.7509],[-76.3399,38.74],[-76.3423,38.7299],[-76.3386,38.7268],[-76.3337,38.7363],[-76.3328,38.7295],[-76.3368,38.7265],[-76.3344,38.722],[-76.3395,38.7255],[-76.3369,38.7203],[-76.3406,38.7208],[-76.3468,38.7063],[-76.3433,38.6979],[-76.3487,38.6867],[-76.3401,38.6701],[-76.332,38.6798],[-76.3224,38.6793],[-76.3217,38.6891],[-76.334,38.7031],[-76.3297,38.7088],[-76.3351,38.7112],[-76.3244,38.718],[-76.3189,38.7324],[-76.3161,38.7296],[-76.312,38.7324],[-76.3169,38.7438],[-76.3126,38.7457],[-76.3135,38.7532],[-76.3186,38.7559],[-76.3156,38.759],[-76.3184,38.7627],[-76.3102,38.7645],[-76.3106,38.7703],[-76.3057,38.772],[-76.3,38.7684],[-76.2951,38.7766],[-76.2908,38.7753],[-76.2934,38.778],[-76.2891,38.7814],[-76.2864,38.7754],[-76.2836,38.777],[-76.2849,38.7736],[-76.2766,38.7799],[-76.2721,38.778],[-76.2708,38.7717],[-76.2734,38.7744],[-76.2756,38.7698],[-76.2818,38.7717],[-76.2837,38.767],[-76.2873,38.7703],[-76.2942,38.7634],[-76.2957,38.7676],[-76.3046,38.7522],[-76.2978,38.7494],[-76.2944,38.7356],[-76.2995,38.7272],[-76.2959,38.7247],[-76.2985,38.718],[-76.2932,38.7169],[-76.2929,38.7239],[-76.2885,38.7227],[-76.2887,38.7187],[-76.2837,38.7216],[-76.2825,38.716],[-76.271,38.7088],[-76.2712,38.7173],[-76.2757,38.7159],[-76.2754,38.7223],[-76.2821,38.7264],[-76.2773,38.7295],[-76.2685,38.7253],[-76.2551,38.7363],[-76.2582,38.7419],[-76.2536,38.7493],[-76.2439,38.7493],[-76.2467,38.7531],[-76.2458,38.756],[-76.2413,38.753],[-76.2443,38.7572],[-76.2418,38.7596],[-76.2532,38.7636],[-76.2472,38.7685],[-76.2403,38.7688],[-76.2358,38.7626],[-76.2317,38.7644],[-76.2221,38.7576],[-76.2243,38.7501],[-76.2143,38.7447],[-76.2219,38.7367],[-76.2295,38.7395],[-76.2385,38.7362],[-76.2287,38.7278],[-76.2314,38.7229],[-76.2278,38.7203],[-76.237,38.7245],[-76.2399,38.7166],[-76.2268,38.6975],[-76.2257,38.7093],[-76.2306,38.7144],[-76.228,38.7164],[-76.216,38.7083],[-76.2144,38.7037],[-76.2179,38.7035],[-76.2124,38.6987],[-76.2201,38.6969],[-76.2119,38.6915],[-76.2162,38.6896],[-76.2142,38.6821],[-76.1995,38.6703],[-76.1967,38.674],[-76.2008,38.6723],[-76.2008,38.6773],[-76.1889,38.6901],[-76.1723,38.6836],[-76.1769,38.6753],[-76.1549,38.6561],[-76.1476,38.6371],[-76.1294,38.6369],[-76.1247,38.6251],[-76.1212,38.6288],[-76.1148,38.6264],[-76.1109,38.6115],[-76.1071,38.6227],[-76.0841,38.6252],[-76.0825,38.6154],[-76.053,38.6035],[-76.0528,38.5959],[-76.0605,38.5852],[-76.0323,38.5719],[-75.9911,38.5925],[-75.9809,38.6101],[-75.9835,38.6251],[-75.958,38.648],[-75.9556,38.6634],[-75.9491,38.6717],[-75.9338,38.6804],[-75.9298,38.6758],[-75.9173,38.6808],[-75.913,38.6888],[-75.9036,38.6884],[-75.8962,38.7013],[-75.8766,38.6936],[-75.8414,38.7042],[-75.8045,38.6985],[-75.8007,38.6968],[-75.7982,38.6764],[-75.7761,38.677],[-75.7682,38.6858],[-75.762,38.6858],[-75.7163,38.6477],[-75.7074,38.6356],[-75.6922,38.46],[-75.3407,38.4507],[-75.0489,38.4515],[-75.0593,38.6078],[-75.0789,38.6046],[-75.0703,38.604],[-75.0729,38.6027],[-75.0683,38.6015],[-75.0706,38.5971],[-75.0657,38.5986],[-75.0694,38.5918],[-75.0633,38.5889],[-75.0624,38.582],[-75.0728,38.5757],[-75.0737,38.5886],[-75.0835,38.5791],[-75.0885,38.583],[-75.0898,38.5769],[-75.0966,38.5728],[-75.0878,38.5621],[-75.0958,38.5513],[-75.1026,38.5508],[-75.0907,38.5612],[-75.097,38.5679],[-75.1015,38.5667],[-75.0971,38.5694],[-75.1002,38.5752],[-75.0969,38.5791],[-75.1071,38.5797],[-75.1129,38.5704],[-75.1084,38.5812],[-75.1154,38.5799],[-75.1051,38.5846],[-75.1125,38.5906],[-75.1344,38.5937],[-75.146,38.5864],[-75.1538,38.5868],[-75.1607,38.5785],[-75.1572,38.5694],[-75.1627,38.5799],[-75.1822,38.5672],[-75.1912,38.5698],[-75.1893,38.5657],[-75.2034,38.5572],[-75.1981,38.5442],[-75.2048,38.5576],[-75.1988,38.5597],[-75.1945,38.5682],[-75.2091,38.5608],[-75.2266,38.5585],[-75.2028,38.5661],[-75.1988,38.5718],[-75.1882,38.5751],[-75.1865,38.5721],[-75.1838,38.5767],[-75.1867,38.5802],[-75.1814,38.5807],[-75.1835,38.5846],[-75.1926,38.5879],[-75.1968,38.584],[-75.2051,38.5869],[-75.2297,38.5824],[-75.2361,38.5842],[-75.2199,38.5835],[-75.206,38.5881],[-75.2184,38.5901],[-75.2231,38.5851],[-75.2433,38.5904],[-75.2544,38.5821],[-75.2661,38.5817],[-75.2891,38.5951],[-75.2746,38.5927],[-75.2756,38.5865],[-75.2579,38.5901],[-75.2575,38.5847],[-75.2505,38.5893],[-75.2579,38.6009],[-75.2513,38.5902],[-75.2454,38.5927],[-75.236,38.5884],[-75.2132,38.5907],[-75.2044,38.5961],[-75.1963,38.5916],[-75.185,38.5926],[-75.1686,38.5989],[-75.1726,38.6034],[-75.1633,38.5995],[-75.1551,38.6061],[-75.1683,38.6199],[-75.1571,38.6156],[-75.1582,38.6106],[-75.1446,38.6138],[-75.1474,38.6099],[-75.1241,38.6155],[-75.1267,38.6195],[-75.1221,38.6231],[-75.1216,38.6151],[-75.1113,38.6182],[-75.1157,38.6233],[-75.1058,38.6196],[-75.1074,38.6175],[-75.1006,38.6174],[-75.1003,38.6224],[-75.0972,38.6204],[-75.1025,38.6295],[-75.11,38.6281],[-75.1016,38.6332],[-75.1035,38.6358],[-75.1091,38.6336],[-75.1113,38.6369],[-75.1217,38.6294],[-75.124,38.6351],[-75.1279,38.6337],[-75.1326,38.6389],[-75.1327,38.6341],[-75.1377,38.6336],[-75.1324,38.6412],[-75.1409,38.6395],[-75.1377,38.6405],[-75.1449,38.644],[-75.1663,38.6356],[-75.1723,38.6387],[-75.1661,38.6368],[-75.1582,38.6406],[-75.1599,38.6435],[-75.1472,38.6441],[-75.1473,38.6497],[-75.1618,38.6561],[-75.1743,38.6535],[-75.1882,38.6589],[-75.17,38.6571],[-75.1823,38.667],[-75.1686,38.6588],[-75.1621,38.6601],[-75.1475,38.6542],[-75.1487,38.6511],[-75.145,38.6514],[-75.144,38.6472],[-75.1421,38.6508],[-75.1391,38.6476],[-75.1424,38.6456],[-75.1379,38.6434],[-75.1263,38.6431],[-75.1318,38.6504],[-75.1279,38.6533],[-75.1265,38.649],[-75.1252,38.6532],[-75.132,38.6617],[-75.1366,38.6618],[-75.132,38.6623],[-75.1354,38.6665],[-75.132,38.6709],[-75.1374,38.6815],[-75.1634,38.7039],[-75.1818,38.7129],[-75.1672,38.709],[-75.1674,38.7057],[-75.1504,38.6942],[-75.1357,38.6902],[-75.1365,38.6979],[-75.1292,38.6876],[-75.1342,38.6888],[-75.1197,38.6845],[-75.1238,38.6883],[-75.118,38.685],[-75.12,38.6993],[-75.1163,38.6906],[-75.1075,38.688],[-75.1073,38.6946],[-75.1129,38.6994],[-75.1051,38.7039],[-75.1093,38.6973],[-75.1038,38.6905],[-75.09,38.6871],[-75.094,38.6945],[-75.0777,38.6942],[-75.0723,38.6677],[-75.0726,38.6586],[-75.0773,38.6555],[-75.072,38.6532],[-75.081,38.6487],[-75.0819,38.6388],[-75.0719,38.6325],[-75.0714,38.6276],[-75.0767,38.6265],[-75.0669,38.6214],[-75.0675,38.6128],[-75.0725,38.6177],[-75.075,38.6107],[-75.0619,38.6089],[-75.0655,38.661],[-75.0871,38.7901],[-75.0945,38.8039],[-75.0972,38.8021],[-75.0937,38.794],[-75.0971,38.7887],[-75.1133,38.783],[-75.134,38.7822],[-75.1599,38.7895],[-75.1389,38.7759],[-75.1922,38.8051],[-75.2045,38.8023],[-75.2073,38.8078],[-75.2147,38.8095],[-75.2164,38.8054],[-75.2232,38.8055],[-75.2234,38.8093],[-75.2289,38.8098],[-75.232,38.8057],[-75.2415,38.8058],[-75.2538,38.7891],[-75.2496,38.7923],[-75.2508,38.7982],[-75.2457,38.7974],[-75.2422,38.8062],[-75.2322,38.8064],[-75.2294,38.8103],[-75.2229,38.8098],[-75.2232,38.8061],[-75.2163,38.8062],[-75.2156,38.8102],[-75.2073,38.8086],[-75.2039,38.8029],[-75.1922,38.8067],[-75.1813,38.7985],[-75.1608,38.7912],[-75.1906,38.8069],[-75.237,38.8491],[-75.2576,38.8731],[-75.3041,38.9132],[-75.3169,38.9369],[-75.3127,38.9434],[-75.3025,38.9391],[-75.3136,38.9454],[-75.3224,38.9378],[-75.3149,38.9506],[-75.3204,38.9529],[-75.3375,38.9459],[-75.3529,38.9475],[-75.3566,38.9512],[-75.3612,38.9579],[-75.3516,38.9477],[-75.338,38.9465],[-75.3203,38.9541],[-75.312,38.953],[-75.3164,38.9842],[-75.3424,39.0218],[-75.3966,39.0581],[-75.3998,39.0537],[-75.3931,39.0516],[-75.3935,39.0463],[-75.4007,39.0436],[-75.4058,39.0469],[-75.4072,39.0437],[-75.4019,39.0402],[-75.4079,39.0434],[-75.4051,39.0477],[-75.3998,39.0441],[-75.3942,39.0462],[-75.3932,39.0503],[-75.401,39.054],[-75.3958,39.0592],[-75.3992,39.0651],[-75.4094,39.0718],[-75.4159,39.0702],[-75.4089,39.0724],[-75.4015,39.0678],[-75.4002,39.0982],[-75.4122,39.1531],[-75.4079,39.161],[-75.4083,39.1746],[-75.3976,39.1897],[-75.405,39.1955],[-75.4063,39.206],[-75.4106,39.2084],[-75.4158,39.2037],[-75.4151,39.1966],[-75.4206,39.196],[-75.4157,39.1969],[-75.4192,39.2044],[-75.4101,39.2091],[-75.4055,39.2064],[-75.4036,39.1954],[-75.3969,39.1906],[-75.3986,39.1866],[-75.3951,39.1877],[-75.3929,39.2029],[-75.3962,39.2149],[-75.4045,39.2226],[-75.4135,39.2229],[-75.4246,39.2127],[-75.4309,39.2126],[-75.4338,39.2217],[-75.4524,39.2233],[-75.45,39.2262],[-75.4564,39.2289],[-75.4532,39.237],[-75.4685,39.2391],[-75.4528,39.2374],[-75.4554,39.2293],[-75.4494,39.2264],[-75.4519,39.2237],[-75.4341,39.2226],[-75.4318,39.214],[-75.4263,39.2132],[-75.4163,39.2229],[-75.4043,39.225],[-75.403,39.2411],[-75.4138,39.2438],[-75.4146,39.236],[-75.4195,39.2332],[-75.4289,39.2445],[-75.4497,39.2419],[-75.4712,39.2501],[-75.4897,39.2488],[-75.495,39.2447],[-75.5027,39.2481],[-75.5141,39.2417],[-75.5309,39.2516],[-75.5353,39.2486],[-75.5491,39.251],[-75.5556,39.244],[-75.5682,39.2449],[-75.5559,39.2446],[-75.5491,39.2515],[-75.5356,39.2491],[-75.5308,39.253],[-75.5148,39.242],[-75.503,39.2486],[-75.4948,39.2454],[-75.4761,39.2508],[-75.444,39.2422],[-75.4272,39.2446],[-75.4202,39.2474],[-75.422,39.2526],[-75.4129,39.2541],[-75.4148,39.2644],[-75.4282,39.2599],[-75.4316,39.2707],[-75.4423,39.2647],[-75.4483,39.2661],[-75.449,39.2702],[-75.444,39.2742],[-75.4507,39.2791],[-75.4436,39.2848],[-75.4531,39.2885],[-75.459,39.2826],[-75.4634,39.2841],[-75.4647,39.2926],[-75.4571,39.2922],[-75.4546,39.2959],[-75.4618,39.3],[-75.4682,39.2967],[-75.471,39.302],[-75.4785,39.3024],[-75.477,39.3125],[-75.4818,39.315],[-75.4813,39.3202],[-75.4912,39.3205],[-75.4984,39.341],[-75.5018,39.3363],[-75.4973,39.326],[-75.5048,39.3367],[-75.5025,39.3402],[-75.5172,39.3347],[-75.5012,39.3421],[-75.5126,39.3458],[-75.5035,39.3424],[-75.4941,39.3466],[-75.4918,39.3519],[-75.5144,39.3671],[-75.5206,39.3875],[-75.5401,39.3893],[-75.5495,39.3859],[-75.5425,39.3901],[-75.5582,39.3893],[-75.5295,39.3899],[-75.5506,39.3961],[-75.5285,39.3901],[-75.5338,39.3971],[-75.5241,39.3901],[-75.5382,39.4163],[-75.5716,39.4389],[-75.5804,39.4393],[-75.5819,39.4315],[-75.5812,39.4391],[-75.5753,39.4385],[-75.5705,39.4429],[-75.5736,39.4457],[-75.6013,39.4465],[-75.5827,39.4471],[-75.5802,39.4511],[-75.5904,39.4611],[-75.5932,39.4783],[-75.6043,39.4763],[-75.5926,39.4795],[-75.5883,39.4961],[-75.5725,39.5167],[-75.5688,39.5345],[-75.5727,39.5421],[-75.5695,39.5443],[-75.5693,39.5407],[-75.563,39.5625],[-75.599,39.5889],[-75.6191,39.5843],[-75.6047,39.5899],[-75.6169,39.6055],[-75.614,39.6061],[-75.6168,39.6093],[-75.6119,39.6107],[-75.6157,39.6205],[-75.5871,39.6511],[-75.5616,39.6575],[-75.5263,39.6981],[-75.5211,39.6983],[-75.5258,39.7019],[-75.5203,39.7179],[-75.53,39.7205],[-75.5324,39.7179],[-75.5342,39.7337],[-75.5304,39.7241],[-75.4921,39.7089],[-75.4962,39.7014],[-75.509,39.6945],[-75.5117,39.6743],[-75.5267,39.6551],[-75.5562,39.6349],[-75.5592,39.6293],[-75.5714,39.6263],[-75.5618,39.6053],[-75.5559,39.6059],[-75.5454,39.5968],[-75.5432,39.6023],[-75.5435,39.5983],[-75.5416,39.6028],[-75.5358,39.6025],[-75.5337,39.6121],[-75.5315,39.6066],[-75.5442,39.5966],[-75.5411,39.5942],[-75.5382,39.5971],[-75.5359,39.5923],[-75.5306,39.5948],[-75.5312,39.5983],[-75.5292,39.5956],[-75.5251,39.5979],[-75.5264,39.6016],[-75.5247,39.5983],[-75.5213,39.6006],[-75.5187,39.61],[-75.5192,39.6024],[-75.5113,39.6068],[-75.5203,39.5992],[-75.5125,39.5955],[-75.5169,39.5995],[-75.5262,39.5953],[-75.529,39.5897],[-75.5225,39.5957],[-75.5287,39.5882],[-75.5235,39.5899],[-75.5257,39.5841],[-75.5108,39.5766],[-75.5157,39.5831],[-75.5137,39.5894],[-75.5111,39.5797],[-75.5055,39.5849],[-75.5083,39.5779],[-75.5001,39.5807],[-75.5046,39.577],[-75.5041,39.5706],[-75.4954,39.5744],[-75.4919,39.5845],[-75.4815,39.5821],[-75.4813,39.5754],[-75.476,39.5825],[-75.4801,39.5814],[-75.4826,39.5895],[-75.4917,39.5949],[-75.483,39.5917],[-75.4937,39.5999],[-75.4816,39.5916],[-75.4795,39.597],[-75.4744,39.597],[-75.4781,39.6018],[-75.4776,39.6107],[-75.4916,39.6153],[-75.4827,39.6191],[-75.4845,39.6219],[-75.4763,39.6186],[-75.4806,39.6275],[-75.4761,39.6316],[-75.4799,39.6355],[-75.4788,39.6434],[-75.4878,39.6471],[-75.4774,39.656],[-75.4639,39.6486],[-75.4588,39.6507],[-75.4611,39.6447],[-75.4574,39.645],[-75.4571,39.6412],[-75.4614,39.6407],[-75.4605,39.6374],[-75.4684,39.6374],[-75.4695,39.6336],[-75.4663,39.6277],[-75.4616,39.6265],[-75.4607,39.6297],[-75.4512,39.6241],[-75.4498,39.6182],[-75.4557,39.6177],[-75.4525,39.6136],[-75.4456,39.6183],[-75.4191,39.6122],[-75.4088,39.6181],[-75.4165,39.6117],[-75.4079,39.6098],[-75.4101,39.6077],[-75.4061,39.6025],[-75.3965,39.5979],[-75.4072,39.6008],[-75.4094,39.6065],[-75.4167,39.6099],[-75.4437,39.6124],[-75.4452,39.6074],[-75.4547,39.6059],[-75.4573,39.5985],[-75.4514,39.5973],[-75.4624,39.594],[-75.4661,39.5852],[-75.4733,39.5874],[-75.4747,39.5789],[-75.4722,39.5817],[-75.4705,39.5772],[-75.4632,39.58],[-75.4631,39.5774],[-75.475,39.5783],[-75.5075,39.5646],[-75.5052,39.5673],[-75.5119,39.5676],[-75.5189,39.5551],[-75.5338,39.5408],[-75.5309,39.5367],[-75.5076,39.5339],[-75.5178,39.5342],[-75.5141,39.5302],[-75.5211,39.5356],[-75.5268,39.5349],[-75.5265,39.5236],[-75.5235,39.5232],[-75.5268,39.5227],[-75.5297,39.5047],[-75.5236,39.4987],[-75.52,39.5024],[-75.5167,39.4976],[-75.5057,39.5046],[-75.5041,39.5008],[-75.4977,39.5036],[-75.5031,39.5138],[-75.4927,39.5125],[-75.4986,39.5108],[-75.4955,39.5034],[-75.4925,39.512],[-75.4834,39.508],[-75.4785,39.5121],[-75.4759,39.5071],[-75.4676,39.5058],[-75.4593,39.5099],[-75.4604,39.518],[-75.4485,39.5317],[-75.4449,39.5278],[-75.4425,39.5351],[-75.4152,39.5483],[-75.4232,39.5427],[-75.4205,39.5409],[-75.4308,39.541],[-75.4428,39.5344],[-75.4442,39.5274],[-75.4518,39.5273],[-75.4518,39.523],[-75.4602,39.5167],[-75.4574,39.51],[-75.4674,39.5053],[-75.4801,39.5088],[-75.4795,39.5021],[-75.4811,39.5056],[-75.4913,39.5053],[-75.5122,39.4995],[-75.5099,39.4943],[-75.5123,39.4985],[-75.5184,39.4975],[-75.5188,39.5013],[-75.5229,39.4979],[-75.5271,39.5001],[-75.5212,39.4796],[-75.5272,39.4915],[-75.5373,39.4901],[-75.5405,39.5025],[-75.5444,39.4796],[-75.5414,39.4668],[-75.5354,39.4603],[-75.5084,39.4591],[-75.503,39.4511],[-75.4947,39.4572],[-75.4964,39.4647],[-75.4928,39.4615],[-75.4966,39.4611],[-75.4942,39.4571],[-75.5,39.4488],[-75.4894,39.4482],[-75.4852,39.4421],[-75.4795,39.4458],[-75.484,39.4412],[-75.4769,39.4371],[-75.4652,39.4389],[-75.4529,39.4166],[-75.4509,39.4203],[-75.4539,39.4227],[-75.447,39.4345],[-75.4528,39.4442],[-75.4477,39.4459],[-75.4524,39.4416],[-75.4469,39.4364],[-75.4321,39.4357],[-75.4313,39.4483],[-75.4276,39.4498],[-75.4307,39.4483],[-75.4313,39.4355],[-75.4423,39.4337],[-75.4316,39.4291],[-75.4455,39.4363],[-75.4526,39.422],[-75.4424,39.4023],[-75.4239,39.3863],[-75.4174,39.3872],[-75.4177,39.396],[-75.4078,39.3962],[-75.4118,39.4011],[-75.4055,39.4066],[-75.4107,39.4085],[-75.4141,39.4042],[-75.4202,39.4123],[-75.4087,39.4243],[-75.4108,39.4305],[-75.4148,39.4284],[-75.4192,39.4321],[-75.4098,39.4373],[-75.4173,39.439],[-75.4098,39.4432],[-75.415,39.4536],[-75.4009,39.4624],[-75.3811,39.4582],[-75.4021,39.4612],[-75.414,39.4522],[-75.41,39.4505],[-75.4089,39.4433],[-75.4159,39.4386],[-75.4049,39.4374],[-75.398,39.4317],[-75.4029,39.4249],[-75.4017,39.43],[-75.4072,39.4365],[-75.4183,39.4328],[-75.415,39.429],[-75.4105,39.4312],[-75.4076,39.4241],[-75.4118,39.4231],[-75.4102,39.4201],[-75.4188,39.4111],[-75.4134,39.4048],[-75.4109,39.4091],[-75.4045,39.4072],[-75.4108,39.4009],[-75.4069,39.396],[-75.4172,39.3953],[-75.4142,39.3912],[-75.4169,39.3881],[-75.4131,39.3846],[-75.4087,39.3878],[-75.4057,39.3804],[-75.3974,39.3776],[-75.39,39.3583],[-75.3706,39.3518],[-75.3667,39.3451],[-75.3579,39.3507],[-75.3658,39.3522],[-75.3672,39.3571],[-75.3555,39.362],[-75.3571,39.3687],[-75.3497,39.3693],[-75.3484,39.3738],[-75.3552,39.3782],[-75.3493,39.3836],[-75.3326,39.379],[-75.333,39.3877],[-75.3265,39.3853],[-75.3235,39.3883],[-75.3262,39.3849],[-75.3235,39.382],[-75.3186,39.3907],[-75.3081,39.3916],[-75.305,39.382],[-75.2969,39.3831],[-75.2973,39.3857],[-75.2956,39.3815],[-75.2929,39.3836],[-75.2955,39.3779],[-75.2921,39.3748],[-75.2855,39.3824],[-75.2892,39.3867],[-75.2783,39.3787],[-75.2762,39.3854],[-75.2703,39.386],[-75.2689,39.3797],[-75.2625,39.3829],[-75.2585,39.3768],[-75.2537,39.3803],[-75.248,39.3767],[-75.2434,39.3836],[-75.2453,39.3788],[-75.2276,39.3823],[-75.2301,39.3881],[-75.2336,39.3868],[-75.2291,39.3895],[-75.2327,39.3917],[-75.227,39.3921],[-75.2319,39.397],[-75.2275,39.3994],[-75.2337,39.4034],[-75.2357,39.4235],[-75.2324,39.4235],[-75.2314,39.403],[-75.2259,39.4002],[-75.2265,39.3837],[-75.2238,39.3808],[-75.2147,39.3869],[-75.2228,39.3801],[-75.248,39.3751],[-75.2525,39.3788],[-75.2589,39.3753],[-75.2624,39.3817],[-75.2713,39.3783],[-75.2714,39.3852],[-75.2748,39.3832],[-75.2715,39.3775],[-75.2812,39.3761],[-75.2841,39.3812],[-75.2859,39.3751],[-75.2931,39.3737],[-75.2994,39.3817],[-75.309,39.3829],[-75.3084,39.3886],[-75.3182,39.3894],[-75.3217,39.3807],[-75.3309,39.3865],[-75.3325,39.3771],[-75.3486,39.382],[-75.3537,39.3782],[-75.3471,39.3751],[-75.3472,39.3694],[-75.356,39.3675],[-75.3552,39.3599],[-75.3652,39.3566],[-75.3555,39.3514],[-75.3629,39.3459],[-75.342,39.3487],[-75.3254,39.3416],[-75.3271,39.3334],[-75.3152,39.3106],[-75.2886,39.2892],[-75.2826,39.2985],[-75.285,39.304],[-75.2776,39.3061],[-75.2773,39.31],[-75.2958,39.3165],[-75.2826,39.3145],[-75.2804,39.3287],[-75.2726,39.3333],[-75.2849,39.348],[-75.2736,39.3394],[-75.2691,39.3443],[-75.2698,39.3515],[-75.2681,39.3438],[-75.2748,39.3371],[-75.2604,39.3349],[-75.2629,39.3387],[-75.2589,39.3356],[-75.2707,39.3364],[-75.2709,39.3318],[-75.279,39.3283],[-75.2803,39.3137],[-75.2745,39.3075],[-75.2832,39.3018],[-75.2771,39.2993],[-75.2695,39.3043],[-75.2481,39.2984],[-75.2502,39.3033],[-75.2408,39.3062],[-75.2463,39.3102],[-75.2428,39.3137],[-75.2383,39.3123],[-75.2395,39.315],[-75.232,39.3207],[-75.2387,39.3151],[-75.2376,39.3121],[-75.2444,39.3118],[-75.2404,39.3058],[-75.2496,39.3027],[-75.247,39.2982],[-75.2527,39.2978],[-75.2442,39.2856],[-75.2368,39.2858],[-75.2359,39.2911],[-75.2321,39.2849],[-75.2247,39.2873],[-75.2261,39.2836],[-75.2173,39.2848],[-75.2195,39.2896],[-75.2034,39.2876],[-75.1981,39.2912],[-75.2022,39.296],[-75.1954,39.299],[-75.1965,39.307],[-75.193,39.3097],[-75.1927,39.3059],[-75.1894,39.3089],[-75.1884,39.3011],[-75.1948,39.2985],[-75.1745,39.2996],[-75.2006,39.2956],[-75.1974,39.292],[-75.2033,39.2869],[-75.2191,39.2891],[-75.2173,39.284],[-75.2268,39.2832],[-75.2252,39.2869],[-75.2323,39.2844],[-75.2361,39.2906],[-75.2355,39.286],[-75.2453,39.2774],[-75.2045,39.2618],[-75.1903,39.2439],[-75.1855,39.2465],[-75.1701,39.2433],[-75.1776,39.2429],[-75.1704,39.2346],[-75.1672,39.2179],[-75.1608,39.212],[-75.168,39.2018],[-75.1391,39.18],[-75.1257,39.19],[-75.1147,39.2067],[-75.1224,39.2118],[-75.1087,39.2096],[-75.1029,39.2154],[-75.1152,39.2208],[-75.1166,39.2235],[-75.1126,39.2235],[-75.1156,39.227],[-75.1094,39.2277],[-75.116,39.2227],[-75.1021,39.2163],[-75.1073,39.2114],[-75.0873,39.2082],[-75.0625,39.2136],[-75.0482,39.2125],[-75.0407,39.2214],[-75.0286,39.216],[-75.0257,39.219],[-75.0362,39.2252],[-75.035,39.2305],[-75.0249,39.2376],[-75.0139,39.2344],[-75.0122,39.2374],[-75.0187,39.2449],[-75.0051,39.2471],[-75.0091,39.2565],[-75.0054,39.2523],[-74.9928,39.259],[-75.014,39.2624],[-75.003,39.2635],[-74.996,39.2696],[-74.992,39.287],[-74.9811,39.2977],[-74.9952,39.3023],[-74.9908,39.3073],[-75.0027,39.3031],[-75.0001,39.307],[-75.0067,39.3157],[-74.9979,39.3169],[-75.0089,39.3176],[-75.0044,39.3173],[-75.0101,39.3224],[-75.0026,39.3265],[-75.0161,39.3272],[-75.0187,39.3325],[-75.0138,39.3281],[-75.0105,39.3322],[-75.0216,39.3385],[-75.0164,39.3419],[-75.032,39.3552],[-75.0289,39.3591],[-75.0362,39.3614],[-75.0404,39.3952],[-75.0365,39.3741],[-75.0315,39.3687],[-75.0367,39.3646],[-75.0288,39.3614],[-75.031,39.3553],[-75.0158,39.3448],[-75.0144,39.3417],[-75.0196,39.3383],[-75.0083,39.3402],[-75.0101,39.3379],[-75.0009,39.3264],[-75.005,39.3222],[-74.9978,39.3189],[-74.9981,39.3122],[-74.9891,39.3095],[-74.9838,39.3146],[-74.989,39.3089],[-74.9927,39.3109],[-74.9881,39.3068],[-74.9909,39.3013],[-74.9828,39.3015],[-74.9779,39.2972],[-74.9676,39.3077],[-74.9776,39.2994],[-74.9796,39.2951],[-74.9768,39.2941],[-74.9822,39.2932],[-74.979,39.2896],[-74.9906,39.2861],[-74.9887,39.2799],[-74.9848,39.2824],[-74.987,39.2845],[-74.9805,39.2837],[-74.9754,39.2762],[-74.9828,39.2695],[-74.9911,39.2714],[-74.9996,39.2658],[-75.0009,39.2629],[-74.9937,39.2625],[-74.9907,39.2665],[-74.9905,39.2595],[-74.9948,39.2538],[-75.0027,39.2527],[-75.0047,39.2452],[-75.016,39.245],[-75.0095,39.2351],[-75.0154,39.2321],[-75.0243,39.2359],[-75.0337,39.2285],[-75.0224,39.2203],[-75.0305,39.2132],[-75.0233,39.2048],[-75.0289,39.1946],[-75.0037,39.1908],[-74.9772,39.1928],[-74.9037,39.1743],[-74.8868,39.158],[-74.8899,39.1281],[-74.8792,39.1267],[-74.8648,39.1151],[-74.8479,39.1133],[-74.8641,39.1141],[-74.8663,39.1073],[-74.8683,39.1183],[-74.879,39.1261],[-74.8913,39.1273],[-74.8992,39.0956],[-74.943,39.0276],[-74.9591,38.9882],[-74.9639,38.9678],[-74.9374,38.9675],[-74.9028,38.9528],[-74.8899,38.9524],[-74.8946,38.9579],[-74.8894,38.9575],[-74.8894,38.9626],[-74.888,38.9542],[-74.8773,38.954],[-74.8868,38.963],[-74.8829,38.9688],[-74.8846,38.9746],[-74.8786,38.9747],[-74.884,38.9744],[-74.8823,38.9696],[-74.8586,38.9747],[-74.8632,38.9815],[-74.8757,38.9767],[-74.8716,38.9778],[-74.8746,38.9804],[-74.8716,38.9791],[-74.8721,38.9822],[-74.8658,38.98],[-74.866,38.9856],[-74.8743,38.9856],[-74.8731,38.9904],[-74.8781,38.9871],[-74.8872,38.9937],[-74.8781,38.9908],[-74.878,38.9877],[-74.875,38.9912],[-74.8692,38.9884],[-74.8662,38.9985],[-74.8682,38.9888],[-74.8631,38.9889],[-74.8635,38.9941],[-74.8589,38.989],[-74.8638,38.9825],[-74.846,38.9814],[-74.8536,38.9925],[-74.8451,38.9846],[-74.8413,38.9879],[-74.8431,38.9938],[-74.8523,38.9975],[-74.854,38.9946],[-74.8576,39.0005],[-74.8619,38.9994],[-74.8588,39.0029],[-74.8638,39.0056],[-74.8527,38.9981],[-74.8517,39.0056],[-74.8626,39.0101],[-74.8524,39.0071],[-74.8521,39.0116],[-74.8584,39.0139],[-74.8504,39.0103],[-74.8475,39.0153],[-74.8566,39.019],[-74.8475,39.0163],[-74.8503,39.0217],[-74.8427,39.018],[-74.8362,39.0195],[-74.8361,39.0243],[-74.83,39.0234],[-74.832,39.0294],[-74.8384,39.0263],[-74.8447,39.0289],[-74.8394,39.03],[-74.8386,39.0268],[-74.8318,39.03],[-74.8306,39.0265],[-74.8259,39.0294],[-74.8274,39.0338],[-74.8334,39.0343],[-74.8351,39.0307],[-74.8415,39.0339],[-74.8339,39.0318],[-74.8374,39.0402],[-74.8345,39.0347],[-74.8148,39.0264],[-74.8058,39.0356],[-74.8084,39.0384],[-74.8182,39.0355],[-74.8092,39.0388],[-74.8057,39.0334],[-74.8015,39.036],[-74.8148,39.0445],[-74.8259,39.0415],[-74.8221,39.0449],[-74.8122,39.0442],[-74.8177,39.0518],[-74.8261,39.0502],[-74.8208,39.0564],[-74.8229,39.0593],[-74.8136,39.0677],[-74.8081,39.0674],[-74.8104,39.0713],[-74.8014,39.0712],[-74.8008,39.0754],[-74.8065,39.079],[-74.7792,39.0643],[-74.7754,39.058],[-74.7655,39.0579],[-74.771,39.0616],[-74.7677,39.0699],[-74.7818,39.0718],[-74.784,39.068],[-74.7849,39.0881],[-74.7882,39.0911],[-74.795,39.0888],[-74.7971,39.093],[-74.7899,39.1026],[-74.773,39.1106],[-74.7645,39.109],[-74.7598,39.1028],[-74.7534,39.1033],[-74.7583,39.1121],[-74.7623,39.1104],[-74.7561,39.1115],[-74.7566,39.1176],[-74.7641,39.1188],[-74.769,39.1139],[-74.7773,39.1169],[-74.7671,39.1162],[-74.7618,39.1201],[-74.7557,39.1176],[-74.7549,39.112],[-74.7504,39.1123],[-74.7491,39.1195],[-74.7588,39.1251],[-74.7584,39.1337],[-74.7513,39.1347],[-74.7482,39.1307],[-74.754,39.1282],[-74.7442,39.1276],[-74.7429,39.1312],[-74.7479,39.1353],[-74.739,39.1245],[-74.7347,39.128],[-74.7169,39.1286],[-74.72,39.1373],[-74.7361,39.1363],[-74.7457,39.1467],[-74.75,39.147],[-74.7444,39.1442],[-74.7504,39.1437],[-74.7501,39.1485],[-74.7324,39.1585],[-74.7266,39.1549],[-74.7287,39.1519],[-74.7194,39.1529],[-74.7318,39.1666],[-74.7123,39.1504],[-74.7095,39.1596],[-74.7214,39.1626],[-74.7207,39.1654],[-74.7088,39.1597],[-74.7095,39.152],[-74.7003,39.1573],[-74.6997,39.1662],[-74.713,39.1715],[-74.7039,39.1669],[-74.704,39.1735],[-74.7127,39.1787],[-74.7089,39.1777],[-74.7104,39.1848],[-74.7014,39.1877],[-74.6911,39.1985],[-74.6972,39.1977],[-74.6889,39.199],[-74.6866,39.2023],[-74.6905,39.2083],[-74.6867,39.2083],[-74.6875,39.199],[-74.6688,39.2068],[-74.6756,39.2143],[-74.6722,39.2131],[-74.6672,39.2203],[-74.6692,39.2227],[-74.6637,39.2221],[-74.666,39.2281],[-74.6581,39.2283],[-74.6602,39.23],[-74.6563,39.2326],[-74.6555,39.2274],[-74.6481,39.2295],[-74.6496,39.236],[-74.6556,39.235],[-74.6499,39.2364],[-74.656,39.2402],[-74.6512,39.2387],[-74.6478,39.2305],[-74.6473,39.2399],[-74.6293,39.2457],[-74.6282,39.2513],[-74.63,39.2481],[-74.638,39.2483],[-74.6285,39.2494],[-74.6327,39.252],[-74.6275,39.2545],[-74.6305,39.2572],[-74.6269,39.2736],[-74.6225,39.2745],[-74.6226,39.2801],[-74.6144,39.2822],[-74.6376,39.2929],[-74.6516,39.2874],[-74.661,39.2905],[-74.6663,39.2801],[-74.6596,39.2967],[-74.6693,39.2965],[-74.6734,39.2884],[-74.6766,39.2968],[-74.7058,39.2882],[-74.7017,39.2855],[-74.7069,39.2834],[-74.7029,39.2818],[-74.7071,39.2787],[-74.7029,39.2765],[-74.7048,39.268],[-74.7012,39.2611],[-74.7132,39.2484],[-74.7269,39.2421],[-74.7307,39.2306],[-74.7277,39.2428],[-74.7133,39.2492],[-74.702,39.2619],[-74.7052,39.2682],[-74.7035,39.2771],[-74.7074,39.2788],[-74.7037,39.2818],[-74.7074,39.2837],[-74.7028,39.2849],[-74.7068,39.2879],[-74.7013,39.2905],[-74.7023,39.2938],[-74.7084,39.2903],[-74.7107,39.2949],[-74.7156,39.2912],[-74.7202,39.2938],[-74.7194,39.2979],[-74.7272,39.2954],[-74.7318,39.2983],[-74.7524,39.2949],[-74.7547,39.299],[-74.763,39.2964],[-74.7786,39.299],[-74.7782,39.3032],[-74.7837,39.3067],[-74.7974,39.3066],[-74.7836,39.3075],[-74.7771,39.3037],[-74.778,39.2993],[-74.7733,39.3015],[-74.7632,39.297],[-74.7544,39.3001],[-74.7522,39.2954],[-74.7204,39.2996],[-74.7169,39.2927],[-74.7107,39.2958],[-74.7078,39.2911],[-74.7028,39.2949],[-74.6991,39.2896],[-74.6765,39.2978],[-74.6738,39.2895],[-74.6695,39.2982],[-74.6585,39.2987],[-74.6563,39.295],[-74.6485,39.2991],[-74.6492,39.3028],[-74.6617,39.3077],[-74.6664,39.308],[-74.6692,39.3035],[-74.675,39.305],[-74.6828,39.3119],[-74.7281,39.3083],[-74.6977,39.3138],[-74.6898,39.3102],[-74.682,39.3123],[-74.6694,39.3043],[-74.6664,39.3088],[-74.6602,39.3087],[-74.6553,39.317],[-74.6638,39.3115],[-74.6609,39.315],[-74.6657,39.3174],[-74.6623,39.3184],[-74.6656,39.3222],[-74.6728,39.3192],[-74.6775,39.322],[-74.6754,39.3264],[-74.6805,39.3245],[-74.6999,39.331],[-74.7022,39.3422],[-74.7159,39.3463],[-74.7186,39.3532],[-74.7262,39.3562],[-74.7226,39.3585],[-74.7234,39.3629],[-74.7218,39.3586],[-74.7252,39.3556],[-74.7184,39.3536],[-74.7155,39.3466],[-74.7109,39.3473],[-74.7178,39.3608],[-74.7164,39.3661],[-74.7239,39.3704],[-74.7206,39.3762],[-74.7276,39.3911],[-74.7226,39.3937],[-74.7254,39.3961],[-74.7228,39.4041],[-74.7369,39.4282],[-74.7277,39.4153],[-74.7288,39.4116],[-74.7188,39.4041],[-74.7199,39.4131],[-74.7144,39.4255],[-74.7242,39.4326],[-74.7237,39.4472],[-74.7296,39.4482],[-74.7213,39.4495],[-74.7228,39.4423],[-74.7154,39.4297],[-74.7044,39.4276],[-74.7139,39.4212],[-74.7171,39.3957],[-74.7229,39.3868],[-74.7218,39.3836],[-74.7186,39.3871],[-74.7216,39.3829],[-74.7182,39.3746],[-74.7202,39.3689],[-74.7142,39.3671],[-74.716,39.3605],[-74.7113,39.3515],[-74.6996,39.3428],[-74.6992,39.3325],[-74.6813,39.3283],[-74.6772,39.3336],[-74.6857,39.3383],[-74.6756,39.3302],[-74.6719,39.337],[-74.6757,39.3319],[-74.6705,39.3264],[-74.6681,39.328],[-74.6703,39.3241],[-74.6617,39.3274],[-74.6633,39.325],[-74.6517,39.3183],[-74.653,39.3091],[-74.6465,39.3109],[-74.6336,39.307],[-74.6299,39.3161],[-74.6246,39.3184],[-74.627,39.3222],[-74.6206,39.3325],[-74.6027,39.3356],[-74.603,39.3395],[-74.5984,39.3348],[-74.5892,39.3395],[-74.5773,39.3615],[-74.5804,39.3678],[-74.5751,39.3624],[-74.589,39.3389],[-74.5978,39.3343],[-74.6003,39.3372],[-74.6121,39.3349],[-74.6138,39.3325],[-74.6098,39.3315],[-74.6131,39.3291],[-74.6145,39.3334],[-74.6193,39.3323],[-74.6209,39.3298],[-74.6132,39.3274],[-74.6233,39.3275],[-74.6231,39.3177],[-74.628,39.3153],[-74.6244,39.3067],[-74.6141,39.3037],[-74.5867,39.3117],[-74.5885,39.3165],[-74.5738,39.3237],[-74.5709,39.3194],[-74.5869,39.3139],[-74.5808,39.3104],[-74.5785,39.3135],[-74.5795,39.3097],[-74.5674,39.3033],[-74.5608,39.3132],[-74.5695,39.3174],[-74.5628,39.325],[-74.57,39.3263],[-74.5672,39.3258],[-74.5698,39.3307],[-74.5614,39.3345],[-74.5645,39.3379],[-74.5545,39.345],[-74.5554,39.3484],[-74.5449,39.3449],[-74.5434,39.3342],[-74.5406,39.3344],[-74.5365,39.3433],[-74.5383,39.3535],[-74.5212,39.3562],[-74.5184,39.3635],[-74.5258,39.3736],[-74.516,39.3845],[-74.5204,39.3868],[-74.5076,39.3838],[-74.496,39.3773],[-74.4945,39.3727],[-74.4879,39.3771],[-74.4804,39.3697],[-74.4471,39.3618],[-74.4465,39.3672],[-74.457,39.3707],[-74.461,39.377],[-74.4693,39.3757],[-74.4694,39.3822],[-74.465,39.3852],[-74.4789,39.384],[-74.4653,39.3862],[-74.4745,39.39],[-74.4687,39.3884],[-74.4692,39.3924],[-74.463,39.3934],[-74.4616,39.3979],[-74.4686,39.4011],[-74.4774,39.3942],[-74.4907,39.3975],[-74.4808,39.423],[-74.4721,39.4196],[-74.4637,39.4231],[-74.4603,39.4461],[-74.448,39.4477],[-74.4462,39.4573],[-74.4387,39.4614],[-74.442,39.4562],[-74.4388,39.4521],[-74.4342,39.4572],[-74.4301,39.4565],[-74.4163,39.4362],[-74.4044,39.4351],[-74.4019,39.4387],[-74.4058,39.4421],[-74.4012,39.4387],[-74.3919,39.4441],[-74.3986,39.4476],[-74.3985,39.4515],[-74.4081,39.4518],[-74.3982,39.4533],[-74.4109,39.4615],[-74.3937,39.4592],[-74.3993,39.4709],[-74.4188,39.4754],[-74.4092,39.479],[-74.4109,39.4864],[-74.4016,39.4858],[-74.4056,39.4804],[-74.403,39.4773],[-74.3897,39.4751],[-74.377,39.4829],[-74.4028,39.4972],[-74.4098,39.5067],[-74.4123,39.5047],[-74.4095,39.512],[-74.4143,39.5179],[-74.4252,39.523],[-74.4364,39.5187],[-74.4254,39.5236],[-74.4111,39.5206],[-74.4098,39.5372],[-74.4165,39.5426],[-74.413,39.5449],[-74.4185,39.547],[-74.4183,39.5552],[-74.4235,39.5504],[-74.4364,39.5524],[-74.4307,39.5475],[-74.4302,39.5385],[-74.4448,39.5405],[-74.4464,39.5354],[-74.4588,39.5369],[-74.459,39.5331],[-74.4714,39.5324],[-74.479,39.5162],[-74.4954,39.5154],[-74.4794,39.5181],[-74.4716,39.5331],[-74.4591,39.5338],[-74.4597,39.537],[-74.4552,39.5385],[-74.4463,39.5365],[-74.448,39.5491],[-74.4448,39.5554],[-74.4503,39.557],[-74.4506,39.5475],[-74.4557,39.5454],[-74.4612,39.5476],[-74.4631,39.5551],[-74.4735,39.5478],[-74.4798,39.55],[-74.4828,39.557],[-74.4915,39.5508],[-74.4988,39.5538],[-74.4991,39.5607],[-74.5045,39.5604],[-74.5055,39.5672],[-74.5119,39.5676],[-74.5151,39.5729],[-74.5279,39.5665],[-74.5433,39.5778],[-74.5277,39.5695],[-74.5156,39.5735],[-74.5033,39.5691],[-74.4925,39.5563],[-74.4825,39.5585],[-74.4745,39.5515],[-74.463,39.5565],[-74.4578,39.5473],[-74.4541,39.5483],[-74.4526,39.5571],[-74.4469,39.5591],[-74.4436,39.5565],[-74.4457,39.5465],[-74.4383,39.5409],[-74.4334,39.5439],[-74.4377,39.5541],[-74.4254,39.5535],[-74.4144,39.5633],[-74.4134,39.5507],[-74.4035,39.5609],[-74.4057,39.5567],[-74.3999,39.5543],[-74.4059,39.5501],[-74.3955,39.5499],[-74.3971,39.5447],[-74.3933,39.5379],[-74.3653,39.5468],[-74.3368,39.5382],[-74.3347,39.5482],[-74.3361,39.5429],[-74.3311,39.544],[-74.3283,39.5422],[-74.3335,39.5405],[-74.3253,39.5386],[-74.3311,39.5355],[-74.3293,39.5293],[-74.3102,39.5381],[-74.3048,39.5249],[-74.2991,39.523],[-74.298,39.5384],[-74.3185,39.5455],[-74.3181,39.5535],[-74.3263,39.5534],[-74.3327,39.5623],[-74.3442,39.5653],[-74.342,39.5623],[-74.3463,39.5583],[-74.3523,39.5602],[-74.3468,39.5589],[-74.3427,39.5623],[-74.3452,39.5655],[-74.3374,39.5687],[-74.3394,39.5809],[-74.3253,39.5755],[-74.3231,39.5855],[-74.3146,39.5867],[-74.317,39.5943],[-74.3107,39.5953],[-74.3119,39.5979],[-74.3072,39.5977],[-74.3071,39.6015],[-74.2993,39.6059],[-74.2904,39.6015],[-74.2922,39.6089],[-74.2835,39.6107],[-74.2832,39.6148],[-74.2719,39.6096],[-74.2716,39.6055],[-74.2618,39.6053],[-74.2624,39.6143],[-74.2782,39.6223],[-74.2683,39.6171],[-74.2612,39.6215],[-74.2631,39.6268],[-74.2667,39.6267],[-74.2626,39.6339],[-74.2643,39.641],[-74.2615,39.6342],[-74.2647,39.6282],[-74.2547,39.6224],[-74.2527,39.6268],[-74.2563,39.6306],[-74.2537,39.6361],[-74.2506,39.6327],[-74.2503,39.6404],[-74.2556,39.6535],[-74.2487,39.6436],[-74.2442,39.6463],[-74.2394,39.6439],[-74.2349,39.6486],[-74.225,39.6441],[-74.228,39.6521],[-74.2256,39.6461],[-74.2186,39.6441],[-74.2207,39.6528],[-74.2316,39.6633],[-74.2173,39.6474],[-74.2143,39.6526],[-74.2223,39.6577],[-74.2192,39.6618],[-74.2174,39.6592],[-74.218,39.665],[-74.2143,39.6674],[-74.2167,39.6701],[-74.2084,39.6817],[-74.2132,39.6696],[-74.2051,39.6754],[-74.19,39.6755],[-74.1879,39.6789],[-74.1998,39.6795],[-74.2001,39.6844],[-74.1936,39.6858],[-74.1914,39.6909],[-74.2031,39.6839],[-74.1982,39.688],[-74.2031,39.6901],[-74.1956,39.6908],[-74.1946,39.6947],[-74.1905,39.692],[-74.1872,39.6971],[-74.1824,39.6953],[-74.1848,39.7014],[-74.184,39.6977],[-74.1737,39.6979],[-74.1776,39.7021],[-74.1803,39.6976],[-74.1813,39.7036],[-74.1932,39.7048],[-74.1828,39.7065],[-74.1682,39.7025],[-74.1695,39.7074],[-74.1585,39.711],[-74.161,39.714],[-74.181,39.7087],[-74.1837,39.7125],[-74.1763,39.7098],[-74.1689,39.7135],[-74.1698,39.7162],[-74.1743,39.7148],[-74.191,39.7235],[-74.1965,39.7214],[-74.1972,39.7166],[-74.1987,39.725],[-74.1919,39.722],[-74.1915,39.725],[-74.1887,39.7229],[-74.1841,39.7261],[-74.1914,39.7357],[-74.1837,39.7285],[-74.1846,39.7236],[-74.173,39.7203],[-74.1689,39.7215],[-74.1702,39.7249],[-74.1654,39.7196],[-74.1635,39.7234],[-74.1699,39.7269],[-74.1658,39.7288],[-74.1688,39.734],[-74.1754,39.7346],[-74.1634,39.737],[-74.1831,39.7415],[-74.1898,39.7467],[-74.1838,39.7408],[-74.191,39.7353],[-74.188,39.7411],[-74.2021,39.7451],[-74.2022,39.7515],[-74.197,39.7455],[-74.1897,39.7511],[-74.1925,39.7639],[-74.1858,39.7737],[-74.1822,39.7897],[-74.1845,39.7947],[-74.1809,39.7945],[-74.1595,39.8229],[-74.178,39.8253],[-74.2063,39.8185],[-74.2074,39.8141],[-74.2011,39.8111],[-74.2063,39.8117],[-74.2082,39.8171],[-74.1773,39.8265],[-74.1931,39.826],[-74.1823,39.8281],[-74.1942,39.8353],[-74.1812,39.8285],[-74.1628,39.8265],[-74.1438,39.8391],[-74.1464,39.8417],[-74.144,39.8439],[-74.15,39.8477],[-74.1419,39.8473],[-74.1359,39.8541],[-74.1403,39.8583],[-74.1384,39.8605],[-74.1339,39.8553],[-74.1303,39.8563],[-74.1284,39.8607],[-74.1341,39.8617],[-74.131,39.8667],[-74.1624,39.8705],[-74.1303,39.8729],[-74.1394,39.8757],[-74.1369,39.8795],[-74.141,39.8811],[-74.1365,39.8825],[-74.1402,39.8865],[-74.1354,39.8867],[-74.1372,39.8921],[-74.1303,39.8991],[-74.1332,39.9023],[-74.1254,39.9071],[-74.1254,39.9139],[-74.1207,39.9119],[-74.1077,39.9207],[-74.1051,39.9299],[-74.1124,39.9319],[-74.1327,39.9277],[-74.1458,39.9341],[-74.1548,39.9331],[-74.1527,39.9367],[-74.1657,39.9401],[-74.1798,39.9385],[-74.1972,39.9489],[-74.1783,39.9445],[-74.1761,39.9481],[-74.1657,39.9493],[-74.1562,39.9461],[-74.1541,39.9413],[-74.1375,39.9369],[-74.1333,39.9425],[-74.1217,39.9443],[-74.1212,39.9482],[-74.1211,39.9445],[-74.1165,39.9447],[-74.1095,39.9581],[-74.1119,39.9619],[-74.1136,39.9571],[-74.1226,39.9603],[-74.122,39.9675],[-74.1195,39.9619],[-74.1142,39.9637],[-74.1088,39.9757],[-74.122,39.9807],[-74.1145,39.9825],[-74.1109,39.9917],[-74.1155,39.9945],[-74.1308,39.9835],[-74.129,39.9883],[-74.1433,39.9945],[-74.1411,39.9917],[-74.1461,39.9909],[-74.1438,39.9949],[-74.1496,39.9955],[-74.1352,39.9981],[-74.1388,40.0029],[-74.1484,40.0053],[-74.1286,40.0001],[-74.117,40.0011],[-74.1151,40.0059],[-74.1186,40.0075],[-74.1155,40.0111],[-74.1183,40.0117],[-74.1143,40.0125],[-74.1122,40.0019],[-74.1068,40.0127],[-74.125,40.0185],[-74.1413,40.0183],[-74.1263,40.0195],[-74.1253,40.0229],[-74.1404,40.0329],[-74.1321,40.0303],[-74.1359,40.0351],[-74.1333,40.0345],[-74.1207,40.0235],[-74.1055,40.0263],[-74.1084,40.0212],[-74.1041,40.0158],[-74.0862,40.0124],[-74.0755,40.0219],[-74.0832,40.0234],[-74.0766,40.0289],[-74.084,40.0299],[-74.0592,40.0342],[-74.0659,40.039],[-74.0567,40.0402],[-74.0599,40.0462],[-74.0575,40.0506],[-74.0744,40.0488],[-74.0781,40.052],[-74.0796,40.0465],[-74.0788,40.0514],[-74.0837,40.0461],[-74.0972,40.0516],[-74.1015,40.0477],[-74.111,40.049],[-74.1193,40.0535],[-74.1274,40.0523],[-74.1196,40.0567],[-74.1264,40.0615],[-74.1204,40.0615],[-74.1218,40.0647],[-74.1065,40.0543],[-74.0646,40.056],[-74.068,40.0603],[-74.1025,40.0586],[-74.0994,40.06],[-74.1021,40.0618],[-74.0923,40.0587],[-74.0754,40.0611],[-74.0878,40.0646],[-74.0851,40.066],[-74.0908,40.071],[-74.0883,40.0713],[-74.0909,40.0784],[-74.0861,40.0676],[-74.0726,40.0641],[-74.0722,40.0599],[-74.0711,40.0653],[-74.0668,40.0623],[-74.0682,40.0663],[-74.0651,40.0614],[-74.0564,40.0619],[-74.0592,40.066],[-74.0513,40.064],[-74.06,40.0714],[-74.0678,40.0882],[-74.0782,40.0898],[-74.0948,40.101],[-74.0927,40.1033],[-74.0981,40.1033],[-74.0964,40.1113],[-74.0995,40.1135],[-74.0968,40.1147],[-74.101,40.1239],[-74.0969,40.1237],[-74.0981,40.1291],[-74.0914,40.1162],[-74.0918,40.1075],[-74.0876,40.1067],[-74.0841,40.0973],[-74.071,40.0943],[-74.0448,40.109],[-74.0548,40.1117],[-74.0468,40.112],[-74.049,40.1166],[-74.0368,40.114],[-74.0346,40.1164],[-74.0431,40.1245],[-74.0343,40.1165],[-74.0406,40.1116],[-74.0373,40.1107],[-74.044,40.1124],[-74.0432,40.1086],[-74.0312,40.1016],[-74.0341,40.1031],[-74.0302,40.1228],[-74.0081,40.1864],[-74.0186,40.1872],[-74.015,40.1865],[-74.0429,40.1768],[-74.0531,40.1821],[-74.0575,40.1894],[-74.0408,40.1849],[-74.0378,40.188],[-74.0387,40.1954],[-74.0434,40.1975],[-74.0411,40.2011],[-74.041,40.1973],[-74.0279,40.1924],[-74.0302,40.1895],[-74.0088,40.1879],[-73.995,40.2296],[-73.9742,40.3027],[-73.9761,40.3118],[-73.971,40.333],[-73.9783,40.4402],[-73.9957,40.4687],[-74.0071,40.4753],[-74.0179,40.4743],[-74.0043,40.4616],[-74.003,40.4464],[-73.9926,40.4456],[-73.9956,40.423],[-73.9919,40.4207],[-73.9923,40.4309],[-73.9851,40.4261],[-73.9782,40.4077],[-73.9827,40.4115],[-73.9836,40.4083],[-73.9778,40.4063],[-73.9764,40.3994],[-73.9748,40.3431],[-73.9779,40.3363],[-73.9828,40.3369],[-73.9837,40.3411],[-73.9894,40.334],[-73.9903,40.3387],[-73.9978,40.3364],[-73.9903,40.3331],[-73.994,40.3299],[-73.9823,40.3279],[-73.9837,40.3227],[-73.9849,40.3267],[-73.9955,40.328],[-73.9915,40.3227],[-73.9956,40.3191],[-73.986,40.3125],[-73.9953,40.3166],[-74.003,40.3117],[-74.0011,40.3072],[-74.0051,40.3108],[-74.0091,40.307],[-74.001,40.3148],[-74.0034,40.316],[-73.997,40.318],[-73.9973,40.3305],[-74.0024,40.3319],[-74.0099,40.3224],[-74.0147,40.3238],[-74.0097,40.3291],[-74.0177,40.325],[-74.0206,40.3205],[-74.0176,40.3181],[-74.0246,40.3186],[-74.0238,40.3145],[-74.0277,40.3123],[-74.0353,40.3142],[-74.0264,40.3162],[-74.0235,40.3229],[-74.0483,40.3171],[-74.0211,40.3245],[-74.0163,40.334],[-74.0252,40.3326],[-74.0124,40.337],[-74.0306,40.3367],[-74.0279,40.3387],[-74.0344,40.3423],[-74.0241,40.3395],[-74.0292,40.3443],[-74.0199,40.3405],[-74.0267,40.3474],[-74.0187,40.3406],[-74.0155,40.3411],[-74.0165,40.3453],[-74.0092,40.3415],[-74.0057,40.3445],[-74.0111,40.3471],[-73.9955,40.3526],[-74.0011,40.3558],[-73.9849,40.3556],[-73.9816,40.3584],[-73.987,40.3621],[-73.9827,40.3635],[-73.9787,40.3593],[-73.9754,40.3641],[-73.9783,40.3756],[-73.9865,40.3699],[-73.9813,40.3756],[-74.0231,40.3772],[-74.0294,40.3683],[-74.0467,40.3679],[-74.0611,40.3551],[-74.0702,40.3527],[-74.0754,40.3561],[-74.0838,40.3419],[-74.0802,40.3501],[-74.0832,40.3533],[-74.0686,40.3591],[-74.0669,40.3665],[-74.0459,40.3729],[-74.05,40.3761],[-74.0426,40.3737],[-74.0163,40.3839],[-74.0163,40.3891],[-74.0241,40.3946],[-74.0189,40.395],[-74.0129,40.3891],[-74.0012,40.3906],[-73.9942,40.3838],[-73.9811,40.3849],[-73.9821,40.4029],[-73.9985,40.4109],[-74.0306,40.4155],[-74.0351,40.4173],[-74.0332,40.4223],[-74.0373,40.4175],[-74.0603,40.4237],[-74.0611,40.4209],[-74.0609,40.4247],[-74.0761,40.4337],[-74.1139,40.4449],[-74.1439,40.4599],[-74.139,40.4553],[-74.1429,40.4505],[-74.1527,40.4475],[-74.1556,40.4523],[-74.1547,40.4477],[-74.1579,40.4467],[-74.1795,40.4587],[-74.1939,40.4411],[-74.2134,40.4353],[-74.2063,40.4389],[-74.2092,40.4471],[-74.2619,40.4647],[-74.2724,40.4747],[-74.2658,40.4783],[-74.2757,40.4857],[-74.2719,40.4895],[-74.2862,40.4927],[-74.2838,40.5005],[-74.2591,40.4979],[-74.2568,40.511],[-74.2462,40.5216],[-74.2514,40.5423],[-74.2486,40.5496],[-74.232,40.559],[-74.2154,40.56],[-74.2045,40.5937],[-74.2158,40.6044],[-74.2328,40.5995],[-74.2383,40.6028],[-74.2429,40.6001],[-74.2558,40.6022],[-74.2602,40.5978],[-74.2887,40.5925],[-74.3033,40.5994],[-74.3041,40.6073],[-74.309,40.6084],[-74.4583,40.5953],[-74.4626,40.5989],[-74.4263,40.6182],[-74.4078,40.6457],[-74.4023,40.6643],[-74.4064,40.6675],[-74.4203,40.6581],[-74.4347,40.6641],[-74.4522,40.6553],[-74.4608,40.6742],[-74.4538,40.6759],[-74.4522,40.6853],[-74.4317,40.6931],[-74.4271,40.7018],[-74.4102,40.7097],[-74.4022,40.718],[-74.3917,40.7182],[-74.3903,40.7253],[-74.3853,40.7243],[-74.3785,40.7296],[-74.3803,40.7333],[-74.3713,40.735],[-74.3716,40.7439],[-74.3665,40.7441],[-74.3675,40.7491],[-74.359,40.7529],[-74.3582,40.7557],[-74.3682,40.7608],[-74.3752,40.7583],[-74.3764,40.7616],[-74.3703,40.7667],[-74.373,40.7754],[-74.368,40.7797],[-74.3665,40.7944],[-74.3484,40.8125],[-74.3382,40.8138],[-74.3345,40.8185],[-74.3352,40.8275],[-74.3293,40.8314],[-74.3262,40.8439],[-74.33,40.8483],[-74.3246,40.8576],[-74.3196,40.8583],[-74.3211,40.8633],[-74.3374,40.8697],[-74.3353,40.8771],[-74.3395,40.8796],[-74.3397,40.8895],[-74.3343,40.9054],[-74.2953,40.9062],[-74.2894,40.8994],[-74.2822,40.9007],[-74.2843,40.895],[-74.2725,40.8979],[-74.2716,40.9095],[-74.2677,40.9111],[-74.272,40.9156],[-74.2842,40.9177],[-74.2889,40.9289],[-74.2797,40.941],[-74.277,40.9547],[-74.282,40.9697],[-74.2778,40.9746],[-74.2819,40.9792],[-74.2971,40.981],[-74.293,40.9881],[-74.2999,41.0025],[-74.3093,40.9985],[-74.3281,41.0015],[-74.3353,41.0066],[-74.3474,41.0044],[-74.3556,41.0137],[-74.3891,41.0127],[-74.4184,41.0286],[-74.4335,41.0199],[-74.4271,41.0366],[-74.4389,41.0432],[-74.4474,41.0542],[-74.4769,41.0469],[-74.4977,41.0349],[-74.5012,41.0396],[-74.4971,41.0582],[-74.4871,41.0656],[-74.4873,41.0768],[-74.5022,41.0862],[-74.3659,41.2029],[-74.6744,41.3479]]],[[[-75.2273,38.5885],[-75.2269,38.589],[-75.2281,38.5898],[-75.2273,38.5885]]],[[[-75.0695,38.5879],[-75.0691,38.5902],[-75.07,38.5891],[-75.0695,38.5879]]],[[[-75.0704,38.5918],[-75.0735,38.5909],[-75.0717,38.5884],[-75.0704,38.5918]]],[[[-75.0782,38.6012],[-75.0774,38.6017],[-75.0788,38.6018],[-75.0782,38.6012]]],[[[-75.0746,38.6014],[-75.0746,38.6026],[-75.0766,38.6026],[-75.0746,38.6014]]],[[[-75.0792,38.6019],[-75.0796,38.6032],[-75.0804,38.6032],[-75.0792,38.6019]]],[[[-75.0965,38.6024],[-75.0962,38.6037],[-75.098,38.603],[-75.0965,38.6024]]],[[[-75.0897,38.6094],[-75.0914,38.6102],[-75.0931,38.6081],[-75.0897,38.6094]]],[[[-75.0928,38.6175],[-75.0967,38.6189],[-75.0947,38.6171],[-75.0928,38.6175]]],[[[-75.0702,38.6207],[-75.0762,38.6257],[-75.0799,38.616],[-75.0844,38.6196],[-75.0912,38.6159],[-75.0848,38.6099],[-75.0777,38.6098],[-75.0702,38.6207]]],[[[-75.0958,38.6299],[-75.101,38.6329],[-75.0993,38.6258],[-75.0929,38.6222],[-75.0907,38.6285],[-75.0958,38.6299]]],[[[-75.0764,38.6312],[-75.076,38.6321],[-75.0783,38.6331],[-75.0764,38.6312]]],[[[-75.1371,38.6429],[-75.1388,38.6419],[-75.1363,38.642],[-75.1371,38.6429]]],[[[-75.127,38.6685],[-75.126,38.6694],[-75.1278,38.6699],[-75.127,38.6685]]],[[[-76.3641,38.7539],[-76.3692,38.7569],[-76.3749,38.752],[-76.3636,38.7489],[-76.3641,38.7539]]],[[[-76.3808,38.7582],[-76.3822,38.7589],[-76.3798,38.757],[-76.3808,38.7582]]],[[[-76.382,38.7621],[-76.3834,38.7652],[-76.3837,38.7626],[-76.382,38.7621]]],[[[-76.3713,38.7719],[-76.3735,38.7693],[-76.3715,38.7647],[-76.3713,38.7719]]],[[[-76.3781,38.773],[-76.3828,38.7662],[-76.3786,38.7688],[-76.3781,38.773]]],[[[-76.3729,38.776],[-76.3758,38.7737],[-76.3736,38.773],[-76.3729,38.776]]],[[[-76.3036,38.899],[-76.3084,38.8982],[-76.3055,38.8977],[-76.3036,38.899]]],[[[-76.2806,38.8965],[-76.2794,38.897],[-76.2827,38.9007],[-76.2806,38.8965]]],[[[-76.2438,38.9132],[-76.2492,38.913],[-76.2517,38.9023],[-76.2427,38.9066],[-76.2438,38.9132]]],[[[-76.2852,38.9287],[-76.2857,38.9294],[-76.2875,38.928],[-76.2852,38.9287]]],[[[-75.3119,38.947],[-75.313,38.9492],[-75.3136,38.9467],[-75.3119,38.947]]],[[[-74.904,38.9522],[-74.9079,38.9538],[-74.9113,38.9484],[-74.904,38.9522]]],[[[-74.8697,38.9576],[-74.8678,38.9617],[-74.8702,38.9616],[-74.8697,38.9576]]],[[[-74.9363,38.9662],[-74.9636,38.9659],[-74.972,38.9404],[-74.9672,38.9331],[-74.9204,38.9291],[-74.8705,38.9436],[-74.8781,38.95],[-74.9015,38.945],[-74.9118,38.9478],[-74.9088,38.9554],[-74.9363,38.9662]]],[[[-74.8773,38.9645],[-74.8809,38.9691],[-74.8863,38.9639],[-74.876,38.9546],[-74.8714,38.9628],[-74.8773,38.9645]]],[[[-74.8469,38.9735],[-74.8473,38.9774],[-74.8477,38.9741],[-74.8469,38.9735]]],[[[-74.8533,38.9773],[-74.8505,38.9792],[-74.8602,38.981],[-74.8596,38.9778],[-74.8533,38.9773]]],[[[-74.8563,38.9761],[-74.8623,38.9813],[-74.8616,38.9765],[-74.8563,38.9761]]],[[[-76.2417,38.9827],[-76.2417,38.9833],[-76.2423,38.9834],[-76.2417,38.9827]]],[[[-74.8403,38.9844],[-74.8441,38.984],[-74.8433,38.9779],[-74.8378,38.9798],[-74.8403,38.9844]]],[[[-74.8353,38.9809],[-74.8339,38.9826],[-74.8345,38.9865],[-74.8353,38.9809]]],[[[-74.8357,38.9824],[-74.8351,38.9874],[-74.8377,38.9839],[-74.8357,38.9824]]],[[[-74.8378,38.9998],[-74.8371,39.0001],[-74.8383,39.0001],[-74.8378,38.9998]]],[[[-74.8374,39.0006],[-74.8361,39.0029],[-74.8382,39.002],[-74.8374,39.0006]]],[[[-74.8339,39.0007],[-74.8297,39.0053],[-74.8326,39.0042],[-74.8339,39.0007]]],[[[-74.8461,39.0033],[-74.845,39.006],[-74.8515,38.9974],[-74.8418,38.9934],[-74.8384,38.9857],[-74.8343,38.9935],[-74.8461,39.0033]]],[[[-74.8222,39.0023],[-74.8291,39.0066],[-74.8337,38.9949],[-74.8185,38.9966],[-74.8222,39.0023]]],[[[-74.8491,39.0047],[-74.8504,39.0078],[-74.8495,39.0034],[-74.8464,39.0059],[-74.8491,39.0047]]],[[[-74.8346,39.0055],[-74.8339,39.007],[-74.8349,39.0085],[-74.8346,39.0055]]],[[[-74.8118,39.0138],[-74.8109,39.0173],[-74.8136,39.0158],[-74.8118,39.0138]]],[[[-74.8185,39.0146],[-74.8161,39.0173],[-74.8174,39.019],[-74.8185,39.0146]]],[[[-74.8101,39.0233],[-74.8089,39.0207],[-74.8056,39.0222],[-74.8101,39.0233]]],[[[-74.7958,39.0249],[-74.8004,39.0226],[-74.7983,39.0079],[-74.8096,39.0045],[-74.8081,39.0008],[-74.8151,39.0048],[-74.8177,39.0022],[-74.8129,39.0007],[-74.8176,39.0007],[-74.8245,39.0052],[-74.8158,38.9982],[-74.8217,38.9943],[-74.8309,38.9948],[-74.824,38.9882],[-74.8314,38.9933],[-74.8338,38.9892],[-74.8301,38.9881],[-74.8406,38.9727],[-74.8463,38.9699],[-74.8491,38.9783],[-74.8603,38.9721],[-74.8568,38.968],[-74.8531,38.9719],[-74.8564,38.9677],[-74.8596,38.9698],[-74.8586,38.9652],[-74.8673,38.9571],[-74.8727,38.956],[-74.8645,38.9404],[-74.8194,38.9794],[-74.7927,38.992],[-74.7862,39.0012],[-74.794,39.0137],[-74.7958,39.0249]]],[[[-74.7789,39.0254],[-74.7794,39.0257],[-74.7799,39.0252],[-74.7789,39.0254]]],[[[-74.7819,39.0258],[-74.7817,39.0263],[-74.7826,39.0262],[-74.7819,39.0258]]],[[[-74.7804,39.0261],[-74.78,39.0271],[-74.7809,39.0265],[-74.7804,39.0261]]],[[[-74.778,39.0268],[-74.7787,39.0273],[-74.7795,39.0268],[-74.778,39.0268]]],[[[-74.8233,39.0272],[-74.8282,39.029],[-74.8293,39.0223],[-74.835,39.0243],[-74.8352,39.0191],[-74.8427,39.0165],[-74.8336,39.0152],[-74.8335,39.0095],[-74.8297,39.0083],[-74.8261,39.0134],[-74.8292,39.0191],[-74.8164,39.0229],[-74.8121,39.0194],[-74.8134,39.0241],[-74.8219,39.0231],[-74.8136,39.0244],[-74.8172,39.0274],[-74.823,39.024],[-74.8177,39.0289],[-74.8233,39.0272]]],[[[-74.8008,39.024],[-74.7983,39.0273],[-74.8051,39.031],[-74.8117,39.0271],[-74.803,39.0206],[-74.8123,39.0117],[-74.8123,39.0047],[-74.7992,39.008],[-74.8008,39.024]]],[[[-74.7848,39.035],[-74.7815,39.0386],[-74.7842,39.0378],[-74.7848,39.035]]],[[[-76.301,39.032],[-76.3023,39.0399],[-76.3153,39.0307],[-76.3224,39.0168],[-76.3241,38.9963],[-76.3538,38.9572],[-76.3617,38.9392],[-76.3647,38.8738],[-76.3756,38.8523],[-76.3759,38.8381],[-76.3682,38.8361],[-76.3623,38.8509],[-76.3506,38.8575],[-76.3399,38.8557],[-76.3312,38.8639],[-76.3378,38.8906],[-76.333,38.9003],[-76.3438,38.9105],[-76.3363,38.9157],[-76.3381,38.9214],[-76.3265,38.9191],[-76.325,38.9118],[-76.3179,38.9113],[-76.3164,38.923],[-76.3209,38.9284],[-76.3177,38.9267],[-76.3144,38.9333],[-76.3188,38.9377],[-76.3128,38.9447],[-76.3112,38.9542],[-76.3068,38.9523],[-76.3038,38.9427],[-76.2995,38.9423],[-76.3024,38.9386],[-76.3059,38.9407],[-76.3056,38.9339],[-76.3116,38.9314],[-76.3098,38.9251],[-76.3029,38.9217],[-76.3,38.9015],[-76.2924,38.9031],[-76.2994,38.9185],[-76.2956,38.93],[-76.289,38.9297],[-76.2753,38.9417],[-76.2691,38.9378],[-76.2622,38.92],[-76.2488,38.9214],[-76.2497,38.9278],[-76.259,38.9289],[-76.2628,38.9374],[-76.2577,38.9345],[-76.2543,38.9419],[-76.2501,38.9383],[-76.2551,38.9464],[-76.2511,38.947],[-76.2545,38.9492],[-76.2527,38.9585],[-76.2482,38.9566],[-76.2548,38.9636],[-76.2502,38.9691],[-76.2467,38.967],[-76.2484,38.9782],[-76.2434,38.9809],[-76.2524,38.9797],[-76.2601,38.984],[-76.277,38.982],[-76.294,39.004],[-76.2975,39.0192],[-76.3051,39.0271],[-76.3053,39.0319],[-76.301,39.032]]],[[[-74.7732,39.041],[-74.7722,39.0411],[-74.7717,39.0422],[-74.7732,39.041]]],[[[-74.7831,39.0409],[-74.7913,39.0412],[-74.8003,39.0312],[-74.7917,39.0289],[-74.7811,39.0392],[-74.7831,39.0409]]],[[[-74.7742,39.0415],[-74.7705,39.0468],[-74.7755,39.0421],[-74.7742,39.0415]]],[[[-74.8124,39.0511],[-74.8155,39.0501],[-74.8113,39.046],[-74.8124,39.0511]]],[[[-74.7988,39.051],[-74.8053,39.0529],[-74.8025,39.0406],[-74.7983,39.0387],[-74.7887,39.043],[-74.7988,39.051]]],[[[-74.7968,39.0519],[-74.8021,39.0535],[-74.8014,39.0521],[-74.7968,39.0519]]],[[[-74.8045,39.0406],[-74.8075,39.0541],[-74.8106,39.045],[-74.8045,39.0406]]],[[[-74.8176,39.0524],[-74.8192,39.0543],[-74.8196,39.0531],[-74.8176,39.0524]]],[[[-74.8167,39.0541],[-74.8165,39.0524],[-74.8153,39.054],[-74.8167,39.0541]]],[[[-74.7954,39.0536],[-74.791,39.0579],[-74.7951,39.0615],[-74.803,39.0585],[-74.8006,39.0538],[-74.7954,39.0536]]],[[[-74.8039,39.0615],[-74.8029,39.0598],[-74.7989,39.0603],[-74.8039,39.0615]]],[[[-74.7607,39.0614],[-74.7599,39.063],[-74.7611,39.0613],[-74.7607,39.0614]]],[[[-74.7961,39.0708],[-74.7897,39.0683],[-74.7938,39.0485],[-74.7852,39.0491],[-74.7902,39.0462],[-74.7816,39.043],[-74.7695,39.0575],[-74.7762,39.0578],[-74.7801,39.0642],[-74.7961,39.0708]]],[[[-74.7635,39.0592],[-74.7607,39.0673],[-74.7665,39.0712],[-74.7689,39.0628],[-74.7635,39.0592]]],[[[-74.7952,39.072],[-74.8,39.075],[-74.8004,39.0666],[-74.7908,39.0621],[-74.7902,39.0681],[-74.7966,39.0693],[-74.7952,39.072]]],[[[-74.7477,39.0772],[-74.7565,39.0754],[-74.7536,39.0669],[-74.7477,39.0772]]],[[[-74.7691,39.0769],[-74.7674,39.0818],[-74.7703,39.0783],[-74.7691,39.0769]]],[[[-74.7398,39.0823],[-74.7379,39.0847],[-74.7405,39.0828],[-74.7398,39.0823]]],[[[-74.74,39.0841],[-74.7391,39.0854],[-74.7398,39.0855],[-74.74,39.0841]]],[[[-74.7728,39.0723],[-74.7702,39.0736],[-74.7746,39.0887],[-74.7809,39.0843],[-74.7834,39.076],[-74.7728,39.0723]]],[[[-74.747,39.0903],[-74.7471,39.0908],[-74.7478,39.0908],[-74.747,39.0903]]],[[[-74.7296,39.0932],[-74.7294,39.0942],[-74.7313,39.0938],[-74.7296,39.0932]]],[[[-74.7397,39.0961],[-74.7392,39.0977],[-74.74,39.0968],[-74.7397,39.0961]]],[[[-74.7657,39.1007],[-74.7643,39.1024],[-74.7666,39.1012],[-74.7657,39.1007]]],[[[-74.7599,39.1011],[-74.7622,39.1025],[-74.7609,39.0947],[-74.756,39.0892],[-74.7581,39.0843],[-74.7654,39.0845],[-74.7669,39.0775],[-74.7586,39.0731],[-74.7479,39.078],[-74.7474,39.0739],[-74.7422,39.0802],[-74.7529,39.0865],[-74.7413,39.0807],[-74.7406,39.0881],[-74.7447,39.087],[-74.7508,39.0932],[-74.7568,39.0916],[-74.7591,39.0942],[-74.7516,39.0942],[-74.756,39.1025],[-74.7599,39.1011]]],[[[-74.7306,39.1032],[-74.7409,39.101],[-74.7364,39.0966],[-74.7301,39.0989],[-74.7323,39.0972],[-74.7284,39.0946],[-74.7255,39.0979],[-74.7289,39.1005],[-74.7243,39.1],[-74.7306,39.1032]]],[[[-74.7232,39.1005],[-74.7281,39.1048],[-74.7315,39.1045],[-74.7232,39.1005]]],[[[-74.7644,39.1039],[-74.7651,39.1078],[-74.768,39.1075],[-74.7644,39.1039]]],[[[-74.7324,39.1088],[-74.7443,39.1071],[-74.7487,39.1004],[-74.755,39.099],[-74.748,39.0913],[-74.7465,39.0958],[-74.7405,39.0955],[-74.7405,39.1032],[-74.7291,39.1056],[-74.7324,39.1088]]],[[[-74.7299,39.109],[-74.7221,39.1024],[-74.7202,39.1043],[-74.7299,39.109]]],[[[-74.7306,39.11],[-74.7292,39.112],[-74.7311,39.112],[-74.7306,39.11]]],[[[-74.8649,39.1122],[-74.8648,39.1144],[-74.8652,39.114],[-74.8649,39.1122]]],[[[-74.7191,39.1055],[-74.7148,39.1107],[-74.7167,39.1133],[-74.722,39.1151],[-74.7295,39.1102],[-74.7191,39.1055]]],[[[-74.7441,39.1147],[-74.7499,39.1171],[-74.7496,39.1123],[-74.7558,39.1107],[-74.7511,39.1011],[-74.747,39.1074],[-74.7385,39.1104],[-74.74,39.1125],[-74.7346,39.1101],[-74.7274,39.1154],[-74.7441,39.1147]]],[[[-74.707,39.1084],[-74.7187,39.118],[-74.7211,39.1154],[-74.714,39.1095],[-74.7294,39.0924],[-74.7373,39.0932],[-74.7309,39.0945],[-74.7338,39.0979],[-74.7461,39.0952],[-74.7458,39.0915],[-74.7393,39.093],[-74.7464,39.0908],[-74.7443,39.0881],[-74.7381,39.0922],[-74.7392,39.0864],[-74.7344,39.0904],[-74.7376,39.0853],[-74.7325,39.0891],[-74.7587,39.058],[-74.7643,39.0565],[-74.762,39.0536],[-74.7652,39.0558],[-74.7687,39.0526],[-74.7644,39.0531],[-74.7655,39.0503],[-74.7727,39.049],[-74.7661,39.0495],[-74.7807,39.031],[-74.7744,39.0309],[-74.7797,39.0234],[-74.784,39.0273],[-74.7797,39.0291],[-74.7844,39.0291],[-74.7842,39.0208],[-74.788,39.0197],[-74.7788,39.0231],[-74.7383,39.0747],[-74.7059,39.1029],[-74.707,39.1084]]],[[[-74.7352,39.1161],[-74.7327,39.1175],[-74.7438,39.1171],[-74.7352,39.1161]]],[[[-74.7431,39.1183],[-74.7406,39.1192],[-74.7468,39.1193],[-74.7423,39.1154],[-74.7431,39.1183]]],[[[-74.7454,39.1202],[-74.7443,39.122],[-74.7478,39.124],[-74.7454,39.1202]]],[[[-74.7216,39.1231],[-74.7228,39.1278],[-74.7307,39.1276],[-74.7319,39.1231],[-74.7319,39.1275],[-74.7387,39.1241],[-74.7525,39.1271],[-74.7278,39.1179],[-74.7216,39.1231]]],[[[-74.7211,39.1393],[-74.7205,39.1398],[-74.7253,39.1404],[-74.7211,39.1393]]],[[[-76.2764,39.14],[-76.2759,39.1411],[-76.2784,39.1418],[-76.2764,39.14]]],[[[-74.7333,39.1425],[-74.7393,39.1426],[-74.7382,39.1389],[-74.7333,39.1425]]],[[[-74.7371,39.1427],[-74.7384,39.1469],[-74.7397,39.1433],[-74.7371,39.1427]]],[[[-74.7097,39.1485],[-74.7083,39.1515],[-74.7108,39.15],[-74.7097,39.1485]]],[[[-74.7287,39.1505],[-74.7337,39.1513],[-74.7305,39.147],[-74.7357,39.1371],[-74.7264,39.1394],[-74.7278,39.1447],[-74.7239,39.1506],[-74.7287,39.1505]]],[[[-74.7112,39.1477],[-74.719,39.152],[-74.7271,39.1436],[-74.7159,39.1381],[-74.7062,39.1457],[-74.7112,39.1477]]],[[[-74.7197,39.1626],[-74.7191,39.1639],[-74.7211,39.1631],[-74.7197,39.1626]]],[[[-74.7001,39.1824],[-74.7009,39.1831],[-74.7008,39.182],[-74.7001,39.1824]]],[[[-74.6963,39.1825],[-74.696,39.1834],[-74.6974,39.1839],[-74.6963,39.1825]]],[[[-74.6879,39.1822],[-74.6895,39.184],[-74.6907,39.1816],[-74.6879,39.1822]]],[[[-74.6999,39.1835],[-74.6995,39.184],[-74.7011,39.1837],[-74.6999,39.1835]]],[[[-74.6803,39.1828],[-74.683,39.1841],[-74.6823,39.183],[-74.6803,39.1828]]],[[[-74.6915,39.1816],[-74.6918,39.1845],[-74.6939,39.1813],[-74.6915,39.1816]]],[[[-74.6914,39.1849],[-74.692,39.1858],[-74.692,39.185],[-74.6914,39.1849]]],[[[-74.6992,39.1859],[-74.7003,39.1868],[-74.7017,39.1854],[-74.6992,39.1859]]],[[[-74.6923,39.1867],[-74.697,39.1872],[-74.6935,39.1855],[-74.6949,39.1813],[-74.6923,39.1867]]],[[[-75.1246,39.1901],[-75.1244,39.1908],[-75.1246,39.1908],[-75.1246,39.1901]]],[[[-74.6817,39.1886],[-74.6809,39.1927],[-74.6915,39.1865],[-74.681,39.1815],[-74.686,39.1851],[-74.6817,39.1886]]],[[[-74.6736,39.1951],[-74.6798,39.1936],[-74.6824,39.1844],[-74.6716,39.1861],[-74.6755,39.19],[-74.67,39.1927],[-74.6736,39.1951]]],[[[-74.6748,39.1991],[-74.6899,39.1967],[-74.6969,39.189],[-74.6832,39.1918],[-74.6728,39.1967],[-74.6748,39.1991]]],[[[-74.66,39.1978],[-74.659,39.201],[-74.6655,39.1968],[-74.66,39.1978]]],[[[-74.6492,39.2098],[-74.6593,39.1964],[-74.6733,39.1911],[-74.6704,39.1865],[-74.6778,39.183],[-74.6848,39.1683],[-74.6992,39.1688],[-74.6989,39.1585],[-74.6956,39.1567],[-74.7068,39.1517],[-74.7049,39.1448],[-74.7138,39.138],[-74.7163,39.12],[-74.7084,39.1247],[-74.6714,39.1798],[-74.6477,39.201],[-74.6492,39.2098]]],[[[-75.0469,39.2108],[-75.0472,39.2119],[-75.048,39.2116],[-75.0469,39.2108]]],[[[-74.6501,39.2155],[-74.6575,39.2158],[-74.6706,39.2039],[-74.6788,39.2018],[-74.6654,39.1989],[-74.6486,39.2129],[-74.6501,39.2155]]],[[[-75.0357,39.2154],[-75.04,39.2175],[-75.0417,39.2161],[-75.0357,39.2154]]],[[[-74.6581,39.2278],[-74.6624,39.2275],[-74.66,39.2183],[-74.6676,39.214],[-74.6678,39.2083],[-74.6551,39.2174],[-74.6581,39.2278]]],[[[-74.6122,39.2646],[-74.613,39.2636],[-74.6107,39.2635],[-74.6122,39.2646]]],[[[-74.61,39.265],[-74.6119,39.2646],[-74.6103,39.2636],[-74.61,39.265]]],[[[-74.6174,39.2686],[-74.6185,39.2673],[-74.6167,39.2677],[-74.6174,39.2686]]],[[[-74.6129,39.269],[-74.6138,39.2659],[-74.6092,39.2648],[-74.6129,39.269]]],[[[-74.6102,39.27],[-74.613,39.2729],[-74.6128,39.27],[-74.6102,39.27]]],[[[-74.592,39.2743],[-74.5954,39.2748],[-74.5911,39.2737],[-74.592,39.2743]]],[[[-74.5973,39.2781],[-74.5993,39.2777],[-74.5965,39.2776],[-74.5973,39.2781]]],[[[-74.5945,39.2785],[-74.5952,39.2785],[-74.5934,39.278],[-74.5945,39.2785]]],[[[-74.9892,39.2784],[-74.9918,39.2799],[-74.9949,39.2727],[-74.9876,39.2732],[-74.9892,39.2784]]],[[[-74.6003,39.2808],[-74.6121,39.2783],[-74.6077,39.2765],[-74.6099,39.2704],[-74.6003,39.2808]]],[[[-74.5991,39.2813],[-74.6001,39.2814],[-74.5961,39.2809],[-74.5991,39.2813]]],[[[-74.9796,39.2784],[-74.9807,39.2819],[-74.9867,39.2784],[-74.9871,39.272],[-74.984,39.2771],[-74.9848,39.2713],[-74.9822,39.272],[-74.9796,39.2784]]],[[[-74.5832,39.2836],[-74.588,39.2861],[-74.5931,39.2827],[-74.5867,39.2792],[-74.5832,39.2836]]],[[[-74.5904,39.2843],[-74.5882,39.2866],[-74.5925,39.2847],[-74.5904,39.2843]]],[[[-74.5945,39.2861],[-74.5946,39.2875],[-74.5956,39.2863],[-74.5945,39.2861]]],[[[-74.6006,39.2884],[-74.6002,39.2867],[-74.5973,39.2879],[-74.6006,39.2884]]],[[[-74.5895,39.2885],[-74.5932,39.288],[-74.5928,39.2874],[-74.5895,39.2885]]],[[[-74.5807,39.2898],[-74.5887,39.2881],[-74.5816,39.285],[-74.5807,39.2898]]],[[[-74.6546,39.2953],[-74.6581,39.2914],[-74.6529,39.2895],[-74.6546,39.2953]]],[[[-74.594,39.2946],[-74.5961,39.2957],[-74.5933,39.2941],[-74.594,39.2946]]],[[[-75.4341,39.2918],[-75.4354,39.2967],[-75.4629,39.2929],[-75.464,39.2859],[-75.4596,39.2831],[-75.4571,39.2882],[-75.45,39.2892],[-75.4429,39.2853],[-75.45,39.2785],[-75.4433,39.2746],[-75.4484,39.2701],[-75.4464,39.2657],[-75.4328,39.2716],[-75.4271,39.2602],[-75.4199,39.2656],[-75.4139,39.2645],[-75.4126,39.2523],[-75.4218,39.252],[-75.4192,39.2473],[-75.4261,39.2444],[-75.418,39.2343],[-75.4152,39.2444],[-75.4044,39.2461],[-75.403,39.2546],[-75.4341,39.2918]]],[[[-74.5928,39.2967],[-74.5943,39.2964],[-74.5889,39.2945],[-74.5928,39.2967]]],[[[-75.1957,39.2968],[-75.1949,39.2973],[-75.1981,39.2971],[-75.1957,39.2968]]],[[[-74.5554,39.2963],[-74.561,39.2961],[-74.5903,39.277],[-74.5916,39.2725],[-74.5978,39.2765],[-74.5942,39.2703],[-74.6007,39.276],[-74.6021,39.2721],[-74.5963,39.2692],[-74.5989,39.2672],[-74.6027,39.2717],[-74.6083,39.2686],[-74.608,39.2638],[-74.617,39.2607],[-74.6134,39.2558],[-74.6197,39.261],[-74.6245,39.2574],[-74.6278,39.2516],[-74.6235,39.2503],[-74.6324,39.2429],[-74.632,39.2347],[-74.6406,39.2319],[-74.6409,39.2351],[-74.64,39.2323],[-74.6332,39.2338],[-74.6328,39.2431],[-74.6464,39.2395],[-74.6478,39.2289],[-74.6547,39.2265],[-74.6458,39.2261],[-74.6423,39.2308],[-74.652,39.224],[-74.6445,39.2204],[-74.6541,39.2238],[-74.6538,39.2172],[-74.6481,39.2184],[-74.6461,39.2121],[-74.5949,39.2612],[-74.561,39.2787],[-74.5529,39.287],[-74.5512,39.2935],[-74.5554,39.2963]]],[[[-74.577,39.2947],[-74.579,39.2977],[-74.5862,39.2951],[-74.577,39.2947]]],[[[-74.6472,39.2988],[-74.6494,39.2982],[-74.6484,39.2956],[-74.6472,39.2988]]],[[[-74.5751,39.2974],[-74.5756,39.2998],[-74.5802,39.3006],[-74.5751,39.2974]]],[[[-74.611,39.3015],[-74.6229,39.2992],[-74.6146,39.2983],[-74.611,39.3015]]],[[[-74.5841,39.3014],[-74.5945,39.2996],[-74.587,39.2963],[-74.5803,39.2995],[-74.5841,39.3014]]],[[[-74.5917,39.3058],[-74.5947,39.3028],[-74.5864,39.3042],[-74.5917,39.3058]]],[[[-74.5903,39.3078],[-74.5926,39.3065],[-74.5831,39.3049],[-74.5903,39.3078]]],[[[-74.9957,39.3075],[-74.9934,39.309],[-75.0006,39.3128],[-74.9957,39.3075]]],[[[-75.0023,39.3132],[-75.0033,39.315],[-75.0037,39.3132],[-75.0023,39.3132]]],[[[-74.5307,39.3154],[-74.5316,39.32],[-74.5391,39.3125],[-74.5307,39.3154]]],[[[-74.5477,39.3216],[-74.5519,39.3233],[-74.5502,39.3202],[-74.5477,39.3216]]],[[[-74.6725,39.3221],[-74.6703,39.324],[-74.6717,39.3243],[-74.6725,39.3221]]],[[[-75.4877,39.3255],[-75.4911,39.3245],[-75.4891,39.3194],[-75.4848,39.3213],[-75.4877,39.3255]]],[[[-74.5483,39.3269],[-74.5516,39.3249],[-74.5471,39.3235],[-74.5483,39.3269]]],[[[-74.5263,39.3263],[-74.5321,39.3248],[-74.5283,39.3223],[-74.5263,39.3263]]],[[[-74.5348,39.3186],[-74.5313,39.3209],[-74.5383,39.3279],[-74.555,39.3161],[-74.5618,39.3036],[-74.5446,39.311],[-74.5426,39.3155],[-74.5432,39.3118],[-74.5396,39.313],[-74.5348,39.3186]]],[[[-75.4868,39.3258],[-75.4859,39.3276],[-75.489,39.3288],[-75.4868,39.3258]]],[[[-75.0061,39.3288],[-75.0082,39.3297],[-75.0085,39.3294],[-75.0061,39.3288]]],[[[-74.5191,39.3276],[-74.5192,39.3304],[-74.5222,39.3267],[-74.5191,39.3276]],[[-75.011,39.3331],[-75.0132,39.335],[-75.0087,39.3337],[-75.011,39.3331]]],[[[-74.5396,39.3304],[-74.5485,39.3358],[-74.5479,39.3322],[-74.5558,39.3279],[-74.546,39.3297],[-74.5454,39.3246],[-74.5396,39.3304]]],[[[-74.5139,39.3337],[-74.5146,39.3361],[-74.5168,39.3334],[-74.5139,39.3337]]],[[[-75.4847,39.3319],[-75.4864,39.3363],[-75.4871,39.3314],[-75.4847,39.3319]]],[[[-74.5608,39.3303],[-74.5566,39.3339],[-74.5592,39.3365],[-74.5689,39.3307],[-74.562,39.3246],[-74.567,39.3172],[-74.5595,39.3151],[-74.5505,39.3215],[-74.56,39.3242],[-74.5608,39.3303]]],[[[-75.4943,39.3346],[-75.495,39.3387],[-75.4957,39.3366],[-75.4943,39.3346]]],[[[-75.4567,39.3258],[-75.4827,39.3387],[-75.4857,39.3372],[-75.4845,39.3302],[-75.4758,39.3258],[-75.4839,39.3287],[-75.4849,39.3229],[-75.4766,39.3128],[-75.4778,39.3025],[-75.4705,39.3024],[-75.4672,39.2969],[-75.4615,39.3007],[-75.4531,39.2951],[-75.4356,39.2973],[-75.4383,39.3127],[-75.4508,39.317],[-75.4567,39.3258]]],[[[-74.5148,39.3375],[-74.5195,39.342],[-74.5373,39.3335],[-74.531,39.3273],[-74.5254,39.33],[-74.5276,39.3274],[-74.5244,39.3258],[-74.5148,39.3375]]],[[[-75.4967,39.3397],[-75.4966,39.3421],[-75.4974,39.3415],[-75.4967,39.3397]]],[[[-75.4889,39.3426],[-75.4881,39.3373],[-75.4795,39.3377],[-75.4889,39.3426]]],[[[-75.361,39.3427],[-75.3658,39.3447],[-75.3601,39.3391],[-75.3566,39.3422],[-75.361,39.3427]]],[[[-75.4919,39.3431],[-75.4935,39.3454],[-75.4933,39.3438],[-75.4919,39.3431]]],[[[-74.5082,39.3454],[-74.5072,39.3475],[-74.5085,39.3474],[-74.5082,39.3454]]],[[[-74.5097,39.3454],[-74.5108,39.3482],[-74.5175,39.343],[-74.5097,39.3454]]],[[[-74.5233,39.347],[-74.52,39.3477],[-74.521,39.3514],[-74.5233,39.347]]],[[[-74.5281,39.346],[-74.5221,39.3517],[-74.5357,39.3539],[-74.5393,39.3494],[-74.5281,39.346]]],[[[-74.4951,39.3519],[-74.4998,39.3554],[-74.5034,39.3534],[-74.5044,39.3454],[-74.4977,39.3462],[-74.5002,39.3494],[-74.4962,39.3511],[-74.4954,39.3478],[-74.4951,39.3519]]],[[[-74.5222,39.3439],[-74.5109,39.3501],[-74.5133,39.3574],[-74.5196,39.3461],[-74.5322,39.3454],[-74.5372,39.3379],[-74.5222,39.3439]]],[[[-74.4522,39.3597],[-74.4618,39.3631],[-74.4914,39.3521],[-74.4843,39.3429],[-74.4784,39.3418],[-74.4751,39.3437],[-74.4771,39.3461],[-74.4681,39.3471],[-74.4522,39.3597]]],[[[-74.5109,39.3661],[-74.5153,39.3668],[-74.5126,39.3646],[-74.5109,39.3661]]],[[[-74.519,39.3692],[-74.5153,39.3629],[-74.5164,39.369],[-74.519,39.3692]]],[[[-74.4931,39.3688],[-74.4943,39.3711],[-74.4946,39.3668],[-74.4931,39.3688]]],[[[-74.4858,39.372],[-74.4882,39.3752],[-74.4922,39.3708],[-74.489,39.362],[-74.4996,39.3566],[-74.4901,39.3538],[-74.4819,39.3617],[-74.4858,39.3577],[-74.4739,39.3603],[-74.4745,39.363],[-74.4722,39.3598],[-74.4646,39.3615],[-74.4719,39.3684],[-74.4858,39.372]]],[[[-74.4534,39.371],[-74.4504,39.3775],[-74.4584,39.3744],[-74.4534,39.371]]],[[[-74.443,39.3775],[-74.4498,39.3772],[-74.4529,39.3702],[-74.4461,39.3705],[-74.443,39.3775]]],[[[-75.0383,39.3791],[-75.0379,39.3801],[-75.0403,39.3794],[-75.0383,39.3791]]],[[[-74.4419,39.3791],[-74.4412,39.3809],[-74.4429,39.3802],[-74.4419,39.3791]]],[[[-75.2454,39.3826],[-75.2462,39.3822],[-75.2462,39.3816],[-75.2454,39.3826]]],[[[-75.2431,39.3815],[-75.2445,39.3829],[-75.2462,39.3795],[-75.2431,39.3815]]],[[[-74.4236,39.3809],[-74.423,39.3813],[-74.4243,39.3838],[-74.4236,39.3809]]],[[[-74.4301,39.3871],[-74.436,39.3836],[-74.4371,39.377],[-74.4408,39.3806],[-74.4457,39.3701],[-74.4448,39.3618],[-74.4567,39.3511],[-74.4881,39.3399],[-74.4848,39.3423],[-74.4939,39.3532],[-74.4943,39.3462],[-74.5135,39.3381],[-74.5102,39.3302],[-74.5171,39.331],[-74.5168,39.3264],[-74.5379,39.3041],[-74.534,39.3022],[-74.5132,39.3189],[-74.4622,39.344],[-74.4393,39.3525],[-74.4321,39.3507],[-74.4323,39.3539],[-74.4127,39.3608],[-74.4082,39.365],[-74.415,39.3763],[-74.4207,39.3776],[-74.4193,39.3716],[-74.4226,39.3772],[-74.426,39.372],[-74.429,39.378],[-74.4222,39.3784],[-74.4238,39.385],[-74.4301,39.3871]]],[[[-75.4085,39.3839],[-75.411,39.3869],[-75.4135,39.3809],[-75.4079,39.3808],[-75.4085,39.3839]]],[[[-74.4365,39.388],[-74.4481,39.3875],[-74.4505,39.3787],[-74.4375,39.3793],[-74.4312,39.3873],[-74.4365,39.388]]],[[[-74.453,39.3848],[-74.4495,39.3889],[-74.454,39.3892],[-74.459,39.3819],[-74.4669,39.3818],[-74.4682,39.3754],[-74.4534,39.3773],[-74.453,39.3848]]],[[[-74.4341,39.3912],[-74.4366,39.3952],[-74.4367,39.3918],[-74.4341,39.3912]]],[[[-74.4134,39.3939],[-74.4099,39.3959],[-74.4137,39.3957],[-74.4134,39.3939]]],[[[-74.4561,39.3948],[-74.4609,39.3975],[-74.4678,39.3911],[-74.4666,39.3823],[-74.4593,39.3824],[-74.4544,39.3895],[-74.4381,39.3908],[-74.44,39.3961],[-74.4561,39.3948]]],[[[-75.2288,39.3979],[-75.23,39.3974],[-75.2283,39.397],[-75.2288,39.3979]]],[[[-74.4168,39.3933],[-74.4175,39.3982],[-74.4273,39.3983],[-74.4168,39.3933]]],[[[-74.4531,39.3987],[-74.4608,39.4019],[-74.4561,39.397],[-74.4531,39.3987]]],[[[-74.4458,39.4013],[-74.4532,39.4019],[-74.4426,39.3995],[-74.4458,39.4013]]],[[[-74.4297,39.4022],[-74.4335,39.4012],[-74.4246,39.3932],[-74.428,39.3893],[-74.4194,39.3894],[-74.4182,39.3926],[-74.4292,39.3991],[-74.4257,39.4019],[-74.4297,39.4022]]],[[[-74.7236,39.3902],[-74.7187,39.395],[-74.719,39.4031],[-74.7238,39.4022],[-74.7218,39.3942],[-74.7259,39.3874],[-74.7236,39.3902]]],[[[-74.3837,39.4036],[-74.388,39.4033],[-74.3923,39.3973],[-74.3837,39.4036]]],[[[-74.445,39.4062],[-74.4463,39.4065],[-74.4457,39.406],[-74.445,39.4062]]],[[[-74.3969,39.4052],[-74.3989,39.4074],[-74.4077,39.4015],[-74.3995,39.3963],[-74.3875,39.4009],[-74.3969,39.4052]]],[[[-74.4083,39.4059],[-74.4058,39.4086],[-74.4117,39.4058],[-74.4217,39.4078],[-74.4105,39.4015],[-74.4083,39.4059]]],[[[-74.4053,39.4106],[-74.408,39.4093],[-74.4056,39.4088],[-74.4053,39.4106]]],[[[-74.4534,39.4045],[-74.4638,39.4101],[-74.462,39.4072],[-74.4534,39.4045]]],[[[-74.4579,39.4117],[-74.4592,39.4086],[-74.4444,39.4049],[-74.4579,39.4117]]],[[[-74.428,39.4119],[-74.4323,39.4103],[-74.4313,39.4071],[-74.4246,39.4074],[-74.428,39.4119]]],[[[-74.4601,39.4097],[-74.4589,39.4126],[-74.4611,39.4133],[-74.4601,39.4097]]],[[[-74.4127,39.4086],[-74.4117,39.4135],[-74.4153,39.4093],[-74.4127,39.4086]]],[[[-74.4247,39.4092],[-74.4243,39.4119],[-74.4286,39.4145],[-74.4247,39.4092]]],[[[-74.4408,39.4157],[-74.4543,39.4156],[-74.4566,39.4103],[-74.4355,39.4002],[-74.4349,39.4051],[-74.4438,39.4085],[-74.4408,39.4157]]],[[[-74.3993,39.4167],[-74.4016,39.4127],[-74.3941,39.4042],[-74.3792,39.4054],[-74.3817,39.4115],[-74.3897,39.412],[-74.3881,39.4094],[-74.3993,39.4167]]],[[[-74.4053,39.4174],[-74.4124,39.4141],[-74.4052,39.4121],[-74.4053,39.4174]]],[[[-74.3539,39.4191],[-74.3544,39.4214],[-74.3584,39.4183],[-74.3539,39.4191]]],[[[-74.3577,39.4189],[-74.3549,39.4235],[-74.3601,39.4217],[-74.3577,39.4189]]],[[[-74.405,39.4236],[-74.4099,39.419],[-74.402,39.4191],[-74.405,39.4236]]],[[[-74.3598,39.4229],[-74.3589,39.4236],[-74.3618,39.424],[-74.3598,39.4229]]],[[[-74.4312,39.423],[-74.4368,39.4236],[-74.4384,39.4196],[-74.4352,39.411],[-74.4299,39.416],[-74.4333,39.4152],[-74.4294,39.4182],[-74.4334,39.4213],[-74.4312,39.423]]],[[[-74.4456,39.4256],[-74.4562,39.4237],[-74.4534,39.4227],[-74.4585,39.4186],[-74.4504,39.4152],[-74.4417,39.4184],[-74.4456,39.4256]]],[[[-74.3553,39.4253],[-74.3608,39.4252],[-74.3578,39.4241],[-74.3553,39.4253]]],[[[-74.4153,39.4206],[-74.4209,39.4266],[-74.4235,39.4236],[-74.4193,39.4185],[-74.4259,39.419],[-74.4276,39.4157],[-74.4175,39.41],[-74.4117,39.4183],[-74.4153,39.4206]]],[[[-74.3664,39.4274],[-74.369,39.4278],[-74.3685,39.4246],[-74.3664,39.4274]]],[[[-74.3892,39.4268],[-74.39,39.4279],[-74.3905,39.4268],[-74.3892,39.4268]]],[[[-74.4362,39.4282],[-74.4381,39.423],[-74.4347,39.4242],[-74.4362,39.4282]]],[[[-74.3678,39.4292],[-74.3677,39.4279],[-74.3662,39.4278],[-74.3678,39.4292]]],[[[-74.3871,39.4288],[-74.3891,39.4289],[-74.3884,39.4281],[-74.3871,39.4288]]],[[[-74.4482,39.4293],[-74.4538,39.4291],[-74.455,39.4247],[-74.4456,39.4266],[-74.4482,39.4293]]],[[[-74.3553,39.4259],[-74.355,39.4318],[-74.3582,39.4263],[-74.3553,39.4259]]],[[[-74.4528,39.4325],[-74.4548,39.4309],[-74.4526,39.4317],[-74.4528,39.4325]]],[[[-74.3465,39.43],[-74.3488,39.4327],[-74.3531,39.4304],[-74.3465,39.43]]],[[[-74.372,39.4315],[-74.3718,39.4327],[-74.3733,39.432],[-74.372,39.4315]]],[[[-74.37,39.4315],[-74.3695,39.4327],[-74.3707,39.4325],[-74.37,39.4315]]],[[[-74.3824,39.4314],[-74.3915,39.4237],[-74.3883,39.4165],[-74.3728,39.4244],[-74.3824,39.4314]]],[[[-74.4359,39.4289],[-74.4348,39.4338],[-74.4376,39.4313],[-74.4359,39.4289]]],[[[-74.4496,39.4338],[-74.4523,39.4319],[-74.4484,39.4311],[-74.4496,39.4338]]],[[[-74.4385,39.4279],[-74.4414,39.4344],[-74.4418,39.4299],[-74.4385,39.4279]]],[[[-74.4061,39.4295],[-74.4124,39.4345],[-74.4104,39.4228],[-74.4037,39.4251],[-74.4061,39.4295]]],[[[-74.4056,39.4346],[-74.411,39.4332],[-74.4045,39.4305],[-74.4056,39.4346]]],[[[-74.3671,39.4338],[-74.3711,39.4333],[-74.3671,39.4288],[-74.3671,39.4338]]],[[[-74.4446,39.4347],[-74.447,39.4322],[-74.4427,39.4273],[-74.4446,39.4347]]],[[[-74.4377,39.4348],[-74.4401,39.434],[-74.4382,39.4321],[-74.4377,39.4348]]],[[[-74.3552,39.4322],[-74.3589,39.4351],[-74.3659,39.4322],[-74.3639,39.4269],[-74.3587,39.4267],[-74.3552,39.4322]]],[[[-74.3904,39.4349],[-74.3951,39.4298],[-74.3867,39.4291],[-74.3846,39.4345],[-74.3904,39.4349]]],[[[-74.3731,39.4351],[-74.3812,39.4348],[-74.3689,39.4339],[-74.3731,39.4351]]],[[[-74.3786,39.4332],[-74.3837,39.4353],[-74.3828,39.4318],[-74.3786,39.4332]]],[[[-74.3358,39.4419],[-74.3569,39.4365],[-74.3532,39.4313],[-74.3496,39.4377],[-74.3448,39.4322],[-74.3382,39.4357],[-74.3431,39.4294],[-74.3448,39.4318],[-74.3461,39.4279],[-74.3528,39.4281],[-74.3509,39.4214],[-74.3576,39.4154],[-74.3661,39.4238],[-74.3833,39.4178],[-74.374,39.409],[-74.3693,39.4101],[-74.389,39.3957],[-74.402,39.3954],[-74.4091,39.4021],[-74.4066,39.3935],[-74.4144,39.39],[-74.4179,39.3926],[-74.4207,39.3879],[-74.4184,39.3824],[-74.4122,39.381],[-74.4068,39.3739],[-74.4067,39.3775],[-74.367,39.402],[-74.3348,39.432],[-74.3358,39.4419]]],[[[-74.3705,39.4419],[-74.3723,39.439],[-74.3681,39.4376],[-74.3705,39.4419]]],[[[-74.381,39.4433],[-74.3832,39.4403],[-74.3752,39.4384],[-74.381,39.4433]]],[[[-74.3734,39.4385],[-74.3809,39.4468],[-74.381,39.4435],[-74.3734,39.4385]]],[[[-74.3518,39.447],[-74.359,39.4486],[-74.3689,39.443],[-74.3613,39.437],[-74.3487,39.4432],[-74.3564,39.4439],[-74.3518,39.447]]],[[[-74.3681,39.4531],[-74.3714,39.4469],[-74.3677,39.448],[-74.3681,39.4531]]],[[[-74.3352,39.4519],[-74.3377,39.4554],[-74.3446,39.4492],[-74.3493,39.4505],[-74.3483,39.4434],[-74.3299,39.4473],[-74.3354,39.4469],[-74.3352,39.4519]]],[[[-74.3453,39.457],[-74.3662,39.456],[-74.3669,39.4481],[-74.3728,39.4459],[-74.3697,39.4436],[-74.3592,39.4501],[-74.3483,39.4464],[-74.3514,39.4513],[-74.3443,39.4514],[-74.3391,39.4561],[-74.3453,39.457]]],[[[-74.386,39.4573],[-74.3859,39.4605],[-74.3875,39.4623],[-74.386,39.4573]]],[[[-74.3771,39.4627],[-74.379,39.4602],[-74.3765,39.4608],[-74.3771,39.4627]]],[[[-74.3921,39.4665],[-74.3919,39.4586],[-74.3882,39.4565],[-74.3871,39.4639],[-74.3921,39.4665]]],[[[-74.3663,39.4676],[-74.3676,39.4703],[-74.3721,39.4665],[-74.3686,39.4632],[-74.3693,39.4533],[-74.3653,39.4569],[-74.3524,39.4554],[-74.3616,39.4623],[-74.3519,39.4556],[-74.3454,39.4611],[-74.353,39.4604],[-74.3535,39.4641],[-74.3663,39.4676]]],[[[-74.349,39.4715],[-74.3512,39.473],[-74.3578,39.4684],[-74.349,39.4715]]],[[[-74.3922,39.4716],[-74.3902,39.4735],[-74.3953,39.4735],[-74.3922,39.4716]]],[[[-74.334,39.4729],[-74.3386,39.4746],[-74.3481,39.4699],[-74.3412,39.4643],[-74.3522,39.4684],[-74.3531,39.4611],[-74.3373,39.4585],[-74.3359,39.4678],[-74.3315,39.4686],[-74.334,39.4729]]],[[[-74.3339,39.4748],[-74.3338,39.4751],[-74.3345,39.4753],[-74.3339,39.4748]]],[[[-74.4113,39.4747],[-74.4089,39.4756],[-74.4152,39.4762],[-74.4113,39.4747]]],[[[-74.3793,39.4796],[-74.3821,39.4751],[-74.3733,39.4681],[-74.3677,39.4716],[-74.3637,39.4664],[-74.3548,39.4664],[-74.3793,39.4796]]],[[[-74.3518,39.4808],[-74.3551,39.485],[-74.3624,39.4841],[-74.3592,39.4705],[-74.3399,39.4755],[-74.3518,39.4808]]],[[[-74.3394,39.4918],[-74.3505,39.4944],[-74.3514,39.4871],[-74.3303,39.4763],[-74.3305,39.4676],[-74.3211,39.4625],[-74.3226,39.4591],[-74.3314,39.4661],[-74.3332,39.4546],[-74.3191,39.4517],[-74.3118,39.4582],[-74.3022,39.4789],[-74.3085,39.4839],[-74.3049,39.4787],[-74.3099,39.4706],[-74.3127,39.4774],[-74.3095,39.4863],[-74.3137,39.4939],[-74.313,39.4845],[-74.3286,39.486],[-74.3292,39.4895],[-74.3394,39.4918]]],[[[-75.5684,39.5007],[-75.5683,39.5013],[-75.5691,39.5013],[-75.5684,39.5007]]],[[[-74.3382,39.503],[-74.3405,39.5051],[-74.3435,39.5047],[-74.3382,39.503]]],[[[-75.4841,39.5077],[-75.4844,39.506],[-75.4822,39.5066],[-75.4841,39.5077]],[[-75.4893,39.5063],[-75.4924,39.5094],[-75.486,39.5047],[-75.4893,39.5063]],[[-75.4876,39.5085],[-75.4915,39.5099],[-75.4851,39.5082],[-75.4876,39.5085]]],[[[-74.3499,39.5091],[-74.3494,39.5105],[-74.3511,39.51],[-74.3499,39.5091]]],[[[-74.3467,39.5069],[-74.3397,39.5081],[-74.3485,39.5105],[-74.3467,39.5069]]],[[[-75.4767,39.5108],[-75.4806,39.5096],[-75.4768,39.508],[-75.4767,39.5108]]],[[[-74.3452,39.513],[-74.3507,39.5181],[-74.3494,39.5139],[-74.3452,39.513]]],[[[-75.5641,39.5117],[-75.5612,39.5207],[-75.5667,39.5085],[-75.5641,39.5117]]],[[[-74.3408,39.5127],[-74.3458,39.5212],[-74.3501,39.5213],[-74.3408,39.5127]]],[[[-74.3414,39.5221],[-74.3406,39.5222],[-74.3431,39.5237],[-74.3414,39.5221]]],[[[-74.3502,39.5221],[-74.3476,39.5224],[-74.3498,39.524],[-74.3502,39.5221]]],[[[-74.3066,39.52],[-74.3129,39.5249],[-74.3185,39.5194],[-74.3331,39.5202],[-74.3342,39.515],[-74.3276,39.5077],[-74.3105,39.5068],[-74.3022,39.5134],[-74.3066,39.52]]],[[[-74.3414,39.5214],[-74.3493,39.525],[-74.3393,39.5141],[-74.3357,39.5188],[-74.3414,39.5214]]],[[[-74.3216,39.5219],[-74.3222,39.5255],[-74.3232,39.5221],[-74.3216,39.5219]]],[[[-74.3276,39.5253],[-74.334,39.524],[-74.3315,39.521],[-74.3276,39.5253]]],[[[-75.5277,39.5354],[-75.5265,39.5354],[-75.5296,39.5366],[-75.5277,39.5354]]],[[[-74.3099,39.5367],[-74.3253,39.5315],[-74.3274,39.5222],[-74.3218,39.5261],[-74.3185,39.52],[-74.3104,39.5254],[-74.305,39.5169],[-74.2994,39.5155],[-74.2969,39.5226],[-74.3054,39.5246],[-74.3099,39.5367]]],[[[-74.278,39.5379],[-74.2738,39.5399],[-74.2739,39.5433],[-74.278,39.5379]]],[[[-74.273,39.5473],[-74.2753,39.5492],[-74.2753,39.5476],[-74.273,39.5473]]],[[[-74.294,39.5443],[-74.2929,39.5474],[-74.3011,39.5525],[-74.294,39.5443]]],[[[-74.274,39.5532],[-74.2774,39.5532],[-74.2785,39.549],[-74.274,39.5532]]],[[[-74.2796,39.5518],[-74.282,39.5543],[-74.2799,39.5487],[-74.2796,39.5518]]],[[[-74.2819,39.5566],[-74.2816,39.5577],[-74.2827,39.5565],[-74.2819,39.5566]]],[[[-74.3179,39.5578],[-74.3186,39.5588],[-74.3188,39.558],[-74.3179,39.5578]]],[[[-74.2735,39.5615],[-74.276,39.562],[-74.2763,39.5535],[-74.2735,39.5615]]],[[[-74.3033,39.554],[-74.3087,39.5627],[-74.312,39.5484],[-74.298,39.5446],[-74.3033,39.554]]],[[[-74.2839,39.5632],[-74.2879,39.5559],[-74.2856,39.5534],[-74.282,39.5586],[-74.2839,39.5632]]],[[[-74.3037,39.5591],[-74.305,39.5643],[-74.3059,39.5607],[-74.3037,39.5591]]],[[[-74.2921,39.556],[-74.2947,39.5649],[-74.3001,39.5635],[-74.2987,39.5543],[-74.2902,39.55],[-74.2921,39.556]]],[[[-74.2489,39.5633],[-74.2538,39.554],[-74.2489,39.5561],[-74.2524,39.5566],[-74.2474,39.5603],[-74.2517,39.5598],[-74.2489,39.5633]]],[[[-74.275,39.5655],[-74.2776,39.5643],[-74.2765,39.5624],[-74.275,39.5655]]],[[[-74.2879,39.5569],[-74.2855,39.5631],[-74.2902,39.5662],[-74.2925,39.5604],[-74.2879,39.5569]]],[[[-74.3012,39.5647],[-74.3008,39.5656],[-74.3019,39.5667],[-74.3012,39.5647]]],[[[-74.2795,39.5678],[-74.2821,39.5693],[-74.2799,39.5651],[-74.2795,39.5678]]],[[[-74.2489,39.5692],[-74.2485,39.5707],[-74.2502,39.5696],[-74.2489,39.5692]]],[[[-74.2457,39.5678],[-74.2447,39.5713],[-74.2471,39.569],[-74.2457,39.5678]]],[[[-74.2521,39.5753],[-74.2512,39.5767],[-74.2523,39.5764],[-74.2521,39.5753]]],[[[-75.5089,39.5771],[-75.5084,39.5743],[-75.5061,39.5745],[-75.5089,39.5771]]],[[[-74.2321,39.5812],[-74.2385,39.58],[-74.237,39.5775],[-74.2321,39.5812]]],[[[-75.4905,39.5828],[-75.4947,39.5725],[-75.4839,39.5747],[-75.4821,39.5803],[-75.4905,39.5828]]],[[[-74.2578,39.5814],[-74.2523,39.5851],[-74.2584,39.5827],[-74.2578,39.5814]]],[[[-74.2374,39.5865],[-74.2401,39.5812],[-74.2346,39.5834],[-74.2374,39.5865]]],[[[-75.4809,39.5877],[-75.4823,39.5861],[-75.4776,39.5831],[-75.4809,39.5877]]],[[[-75.478,39.5894],[-75.4759,39.5832],[-75.4746,39.588],[-75.478,39.5894]]],[[[-75.5311,39.5883],[-75.5319,39.5924],[-75.5337,39.5921],[-75.5311,39.5883]]],[[[-75.4729,39.5958],[-75.4794,39.5954],[-75.48,39.5913],[-75.4729,39.5958]]],[[[-74.2616,39.5983],[-74.2616,39.5989],[-74.2627,39.598],[-74.2616,39.5983]]],[[[-75.5653,39.5875],[-75.581,39.5995],[-75.5763,39.5881],[-75.5656,39.5835],[-75.5653,39.5875]]],[[[-74.2652,39.5979],[-74.2687,39.5999],[-74.2677,39.5987],[-74.2652,39.5979]]],[[[-74.223,39.5997],[-74.2224,39.6008],[-74.2241,39.5995],[-74.223,39.5997]]],[[[-74.2258,39.5994],[-74.2255,39.6037],[-74.2277,39.6016],[-74.2258,39.5994]]],[[[-75.4479,39.6101],[-75.452,39.609],[-75.4493,39.6081],[-75.4479,39.6101]]],[[[-75.4643,39.6122],[-75.4677,39.6162],[-75.4692,39.6117],[-75.4643,39.6122]]],[[[-75.4739,39.618],[-75.4793,39.6152],[-75.4764,39.611],[-75.4701,39.6122],[-75.4739,39.618]]],[[[-75.4811,39.6186],[-75.4862,39.6156],[-75.4778,39.6121],[-75.4811,39.6186]]],[[[-75.4714,39.6229],[-75.4767,39.62],[-75.4696,39.6138],[-75.4636,39.6195],[-75.4714,39.6229]]],[[[-75.4565,39.6243],[-75.4588,39.622],[-75.4558,39.6221],[-75.4565,39.6243]]],[[[-74.205,39.6226],[-74.2041,39.6248],[-74.2078,39.6223],[-74.205,39.6226]]],[[[-75.4687,39.6289],[-75.4696,39.6285],[-75.4683,39.6284],[-75.4687,39.6289]]],[[[-75.4764,39.6256],[-75.477,39.6301],[-75.4793,39.6275],[-75.4764,39.6256]]],[[[-75.4745,39.631],[-75.4767,39.6302],[-75.4736,39.6294],[-75.4745,39.631]]],[[[-75.4727,39.6318],[-75.4713,39.629],[-75.4692,39.6299],[-75.4727,39.6318]]],[[[-74.2137,39.6291],[-74.212,39.6326],[-74.2137,39.6305],[-74.2137,39.6291]]],[[[-75.4684,39.6351],[-75.4688,39.6362],[-75.4698,39.6359],[-75.4684,39.6351]]],[[[-75.4712,39.6355],[-75.4747,39.6323],[-75.4705,39.632],[-75.4712,39.6355]]],[[[-74.2082,39.6358],[-74.2142,39.6336],[-74.2112,39.6319],[-74.2082,39.6358]]],[[[-75.4699,39.6365],[-75.469,39.6369],[-75.4714,39.6374],[-75.4699,39.6365]]],[[[-75.4725,39.6372],[-75.4719,39.6376],[-75.4735,39.6374],[-75.4725,39.6372]]],[[[-75.4749,39.6378],[-75.4745,39.6381],[-75.4752,39.6384],[-75.4749,39.6378]]],[[[-75.4694,39.6384],[-75.4705,39.6379],[-75.468,39.6383],[-75.4694,39.6384]]],[[[-75.4746,39.6386],[-75.4761,39.6391],[-75.4744,39.6382],[-75.4746,39.6386]]],[[[-74.1953,39.6383],[-74.1992,39.632],[-74.192,39.6353],[-74.1917,39.6386],[-74.1953,39.6383]]],[[[-75.472,39.6381],[-75.4708,39.6395],[-75.473,39.6384],[-75.472,39.6381]]],[[[-74.198,39.6397],[-74.1984,39.6375],[-74.1972,39.639],[-74.198,39.6397]]],[[[-75.4676,39.6395],[-75.4671,39.6402],[-75.4703,39.639],[-75.4676,39.6395]]],[[[-75.4679,39.6388],[-75.4666,39.6389],[-75.4655,39.6401],[-75.4679,39.6388]]],[[[-75.4745,39.6393],[-75.4756,39.6403],[-75.4756,39.6397],[-75.4745,39.6393]]],[[[-75.4773,39.6403],[-75.4792,39.6401],[-75.4777,39.6346],[-75.4773,39.6403]]],[[[-75.4763,39.6405],[-75.4776,39.6406],[-75.4764,39.6402],[-75.4763,39.6405]]],[[[-75.4727,39.6388],[-75.4723,39.6412],[-75.4739,39.6406],[-75.4727,39.6388]]],[[[-75.475,39.6408],[-75.4747,39.6417],[-75.4757,39.6411],[-75.475,39.6408]]],[[[-75.4729,39.6414],[-75.4724,39.6421],[-75.4747,39.6406],[-75.4729,39.6414]]],[[[-75.4713,39.6405],[-75.471,39.6423],[-75.4718,39.6418],[-75.4713,39.6405]]],[[[-75.4591,39.6418],[-75.4592,39.6422],[-75.4599,39.6423],[-75.4591,39.6418]],[[-75.4781,39.6414],[-75.4779,39.6429],[-75.4766,39.6409],[-75.4781,39.6414]]],[[[-75.4664,39.6414],[-75.4672,39.6431],[-75.4704,39.6403],[-75.4664,39.6414]]],[[[-75.4709,39.6437],[-75.4719,39.6436],[-75.4723,39.6429],[-75.4709,39.6437]]],[[[-75.4692,39.6436],[-75.4702,39.641],[-75.4673,39.6432],[-75.4692,39.6436]]],[[[-75.4626,39.6435],[-75.4639,39.6438],[-75.4653,39.6422],[-75.4626,39.6435]]],[[[-75.4734,39.6443],[-75.4762,39.6432],[-75.475,39.6421],[-75.4734,39.6443]]],[[[-75.4752,39.6441],[-75.4766,39.644],[-75.4744,39.644],[-75.4752,39.6441]]],[[[-75.467,39.6457],[-75.4675,39.6451],[-75.4641,39.6446],[-75.467,39.6457]]],[[[-75.4688,39.6462],[-75.4703,39.645],[-75.4677,39.6457],[-75.4688,39.6462]],[[-75.4791,39.6446],[-75.4784,39.647],[-75.4777,39.6436],[-75.4791,39.6446]]],[[[-75.4744,39.6464],[-75.4769,39.6463],[-75.4741,39.6454],[-75.4744,39.6464]]],[[[-75.4803,39.6453],[-75.4802,39.6468],[-75.4816,39.6474],[-75.4803,39.6453]]],[[[-75.4771,39.6481],[-75.477,39.6469],[-75.4762,39.6475],[-75.4771,39.6481]]],[[[-74.2136,39.6451],[-74.2117,39.6485],[-74.2157,39.647],[-74.2136,39.6451]]],[[[-75.4787,39.6478],[-75.4794,39.649],[-75.48,39.6456],[-75.4787,39.6478]]],[[[-74.2013,39.6463],[-74.1966,39.6497],[-74.2017,39.6483],[-74.2013,39.6463]]],[[[-75.4825,39.6489],[-75.4868,39.6473],[-75.482,39.6466],[-75.4825,39.6489]]],[[[-74.188,39.649],[-74.1879,39.6505],[-74.1888,39.6493],[-74.188,39.649]]],[[[-75.4765,39.6498],[-75.4793,39.6496],[-75.4782,39.6483],[-75.4765,39.6498]]],[[[-74.1931,39.6465],[-74.1906,39.6503],[-74.1989,39.6457],[-74.1931,39.6465]]],[[[-75.4708,39.6504],[-75.4713,39.6508],[-75.4718,39.6503],[-75.4708,39.6504]]],[[[-75.474,39.6523],[-75.474,39.6528],[-75.4748,39.6523],[-75.474,39.6523]]],[[[-74.1888,39.6505],[-74.1881,39.6519],[-74.1886,39.6528],[-74.1888,39.6505]]],[[[-74.1826,39.6585],[-74.189,39.6547],[-74.1867,39.6543],[-74.1826,39.6585]]],[[[-74.1979,39.6616],[-74.2012,39.661],[-74.198,39.658],[-74.2028,39.6523],[-74.1956,39.6574],[-74.1996,39.6529],[-74.1958,39.6512],[-74.2016,39.6494],[-74.1908,39.6509],[-74.1885,39.6611],[-74.1932,39.6622],[-74.192,39.6578],[-74.1979,39.6616]]],[[[-74.2085,39.6639],[-74.2084,39.6651],[-74.2128,39.6663],[-74.2085,39.6639]]],[[[-74.1818,39.6679],[-74.1821,39.6688],[-74.1827,39.668],[-74.1818,39.6679]]],[[[-74.1827,39.6747],[-74.1833,39.675],[-74.1831,39.6745],[-74.1827,39.6747]]],[[[-74.1811,39.6756],[-74.1815,39.6759],[-74.1814,39.6756],[-74.1811,39.6756]]],[[[-74.1654,39.6866],[-74.1683,39.6853],[-74.166,39.6853],[-74.1654,39.6866]]],[[[-74.1701,39.6898],[-74.1712,39.689],[-74.1686,39.6895],[-74.1701,39.6898]]],[[[-74.183,39.6901],[-74.193,39.6857],[-74.193,39.6827],[-74.183,39.6901]]],[[[-74.1835,39.6917],[-74.1831,39.6927],[-74.1837,39.6931],[-74.1835,39.6917]]],[[[-74.1851,39.6914],[-74.1863,39.6947],[-74.1923,39.6863],[-74.1851,39.6914]]],[[[-74.1631,39.6951],[-74.165,39.6976],[-74.1662,39.6966],[-74.1631,39.6951]]],[[[-74.169,39.6971],[-74.1699,39.6955],[-74.1675,39.695],[-74.169,39.6971]]],[[[-74.1659,39.7066],[-74.1684,39.704],[-74.1607,39.7031],[-74.159,39.7062],[-74.1659,39.7066]]],[[[-74.146,39.7107],[-74.1544,39.7068],[-74.1485,39.7059],[-74.146,39.7107]]],[[[-74.1272,39.7439],[-74.1306,39.7425],[-74.1251,39.7413],[-74.1272,39.7439]]],[[[-74.1205,39.7447],[-74.1229,39.7454],[-74.1256,39.7427],[-74.1205,39.7447]]],[[[-74.1407,39.7511],[-74.1415,39.7529],[-74.1415,39.7514],[-74.1407,39.7511]]],[[[-74.1259,39.7521],[-74.1359,39.7498],[-74.1301,39.7478],[-74.1259,39.7521]]],[[[-74.1368,39.7506],[-74.1368,39.7553],[-74.1408,39.7534],[-74.1368,39.7506]]],[[[-74.1277,39.7578],[-74.1347,39.7565],[-74.1361,39.7512],[-74.1294,39.7523],[-74.1277,39.7578]]],[[[-74.1329,39.7573],[-74.1306,39.7583],[-74.132,39.7582],[-74.1329,39.7573]]],[[[-74.1121,39.7575],[-74.1118,39.7586],[-74.1125,39.7582],[-74.1121,39.7575]]],[[[-74.1311,39.7588],[-74.1303,39.7594],[-74.132,39.7587],[-74.1311,39.7588]]],[[[-74.1134,39.7572],[-74.111,39.76],[-74.1146,39.7588],[-74.1134,39.7572]]],[[[-74.1359,39.7605],[-74.1331,39.7627],[-74.1401,39.7593],[-74.1359,39.7605]]],[[[-74.1378,39.7627],[-74.1448,39.7624],[-74.1417,39.7597],[-74.1378,39.7627]]],[[[-74.141,39.7661],[-74.1399,39.7666],[-74.1428,39.7663],[-74.141,39.7661]]],[[[-74.1329,39.7647],[-74.1376,39.7669],[-74.1443,39.7633],[-74.1329,39.7647]]],[[[-74.1391,39.7676],[-74.1387,39.768],[-74.1396,39.7682],[-74.1391,39.7676]]],[[[-74.1376,39.7682],[-74.138,39.769],[-74.1391,39.7688],[-74.1376,39.7682]]],[[[-74.1333,39.7672],[-74.133,39.7718],[-74.1362,39.7714],[-74.1333,39.7672]]],[[[-74.1179,39.7728],[-74.1249,39.7726],[-74.1215,39.7718],[-74.125,39.7707],[-74.1203,39.7683],[-74.1198,39.7612],[-74.1273,39.7556],[-74.1226,39.7486],[-74.1158,39.7478],[-74.1237,39.741],[-74.1221,39.7341],[-74.1342,39.7302],[-74.1344,39.7266],[-74.1249,39.7283],[-74.1356,39.7256],[-74.1296,39.7198],[-74.1376,39.7027],[-74.145,39.7002],[-74.1447,39.6953],[-74.1397,39.697],[-74.146,39.6931],[-74.1469,39.6877],[-74.1517,39.6871],[-74.1489,39.6855],[-74.1637,39.669],[-74.1803,39.6614],[-74.1771,39.6573],[-74.185,39.6523],[-74.188,39.6448],[-74.1849,39.6407],[-74.1893,39.6397],[-74.1863,39.6372],[-74.1999,39.6235],[-74.2017,39.6153],[-74.2083,39.6131],[-74.2179,39.5952],[-74.2288,39.5876],[-74.2283,39.581],[-74.2359,39.5718],[-74.2452,39.5667],[-74.2437,39.5613],[-74.249,39.5548],[-74.256,39.5538],[-74.2565,39.5448],[-74.2597,39.5469],[-74.263,39.5391],[-74.2603,39.5383],[-74.2767,39.526],[-74.2787,39.5191],[-74.2831,39.519],[-74.2841,39.512],[-74.2933,39.5125],[-74.2931,39.5079],[-74.2774,39.5141],[-74.2391,39.5566],[-74.139,39.6932],[-74.1162,39.7365],[-74.1013,39.7564],[-74.1059,39.7644],[-74.1158,39.7506],[-74.1179,39.7728]]],[[[-74.1182,39.7854],[-74.1175,39.7856],[-74.1189,39.7861],[-74.1182,39.7854]]],[[[-74.1136,39.7861],[-74.1121,39.7889],[-74.1142,39.7874],[-74.1136,39.7861]]],[[[-74.1102,39.7851],[-74.1088,39.7895],[-74.1128,39.7869],[-74.1102,39.7851]]],[[[-74.1105,39.7901],[-74.1095,39.7904],[-74.1099,39.7919],[-74.1105,39.7901]]],[[[-74.1158,39.7933],[-74.1209,39.791],[-74.12,39.787],[-74.1146,39.7863],[-74.1126,39.7905],[-74.1158,39.7933]]],[[[-74.106,39.7971],[-74.1049,39.7952],[-74.1035,39.796],[-74.106,39.7971]]],[[[-74.1187,39.7945],[-74.1166,39.7957],[-74.1201,39.7975],[-74.1187,39.7945]]],[[[-74.1756,39.8257],[-74.1747,39.8261],[-74.176,39.8263],[-74.1756,39.8257]]],[[[-74.1268,39.8622],[-74.1267,39.8635],[-74.1274,39.8627],[-74.1268,39.8622]]],[[[-74.0862,39.9507],[-74.0887,39.9484],[-74.0834,39.9443],[-74.0821,39.9482],[-74.0862,39.9507]]],[[[-74.0858,39.9519],[-74.0855,39.9533],[-74.0865,39.9533],[-74.0858,39.9519]]],[[[-74.0828,39.9515],[-74.084,39.9543],[-74.0842,39.9533],[-74.0828,39.9515]]],[[[-74.0852,39.9577],[-74.0885,39.9565],[-74.0851,39.9553],[-74.0852,39.9577]]],[[[-74.0774,39.9781],[-74.0753,39.9839],[-74.0804,39.9804],[-74.0774,39.9781]]],[[[-74.0812,39.9933],[-74.0845,39.9992],[-74.0828,39.9938],[-74.0856,39.9924],[-74.077,39.9924],[-74.0812,39.9933]]],[[[-74.0698,39.9992],[-74.0722,40.0007],[-74.0712,39.9924],[-74.0702,39.9958],[-74.0668,39.9939],[-74.0698,39.9992]]],[[[-74.0784,40.0005],[-74.0817,40.0004],[-74.0756,39.9933],[-74.0733,40.0],[-74.0761,39.996],[-74.0784,40.0005]]],[[[-74.0972,40.0145],[-74.1015,40.013],[-74.0949,40.0118],[-74.0972,40.0145]]],[[[-74.0542,40.054],[-74.0533,40.0476],[-74.0507,40.0499],[-74.0542,40.054]]],[[[-74.0775,40.0597],[-74.0792,40.0595],[-74.0787,40.0593],[-74.0775,40.0597]]],[[[-74.0858,40.06],[-74.0878,40.0596],[-74.0834,40.0596],[-74.0858,40.06]]],[[[-74.0803,40.0601],[-74.0812,40.0597],[-74.0794,40.06],[-74.0803,40.0601]],[[-74.076,40.0601],[-74.0756,40.0602],[-74.0773,40.0596],[-74.076,40.0601]]],[[[-74.0774,40.0601],[-74.0751,40.0608],[-74.0793,40.0599],[-74.0774,40.0601]]],[[[-74.071,40.0907],[-74.0709,40.0926],[-74.0724,40.0932],[-74.071,40.0907]]],[[[-74.0537,40.1035],[-74.0507,40.101],[-74.0515,40.103],[-74.0537,40.1035]]],[[[-74.0313,40.1005],[-74.038,40.1036],[-74.0412,40.0957],[-74.0377,40.1013],[-74.0471,40.102],[-74.0672,40.0883],[-74.065,40.0798],[-74.0526,40.0664],[-74.0471,40.0665],[-74.0479,40.074],[-74.0439,40.075],[-74.0487,40.0565],[-74.0522,40.0571],[-74.0487,40.0543],[-74.0542,40.0309],[-74.0625,40.0232],[-74.056,40.0261],[-74.0561,40.0223],[-74.0629,40.0213],[-74.0648,40.0138],[-74.0588,40.0133],[-74.061,40.0053],[-74.0634,40.0036],[-74.0619,40.0083],[-74.0682,40.005],[-74.0644,39.9982],[-74.0701,39.9907],[-74.0738,39.992],[-74.067,39.9927],[-74.0726,39.9873],[-74.0695,39.9857],[-74.0736,39.9856],[-74.0687,39.9838],[-74.0744,39.9835],[-74.069,39.982],[-74.0755,39.9783],[-74.072,39.9738],[-74.0753,39.9678],[-74.0854,39.9644],[-74.0784,39.9604],[-74.0805,39.9646],[-74.0754,39.9671],[-74.0781,39.9578],[-74.0815,39.9594],[-74.0785,39.956],[-74.0833,39.9575],[-74.0788,39.9552],[-74.0831,39.9545],[-74.0789,39.9518],[-74.0824,39.9519],[-74.079,39.9508],[-74.082,39.9507],[-74.0803,39.9434],[-74.11,39.9476],[-74.0837,39.9413],[-74.0792,39.9366],[-74.0838,39.9336],[-74.0792,39.9332],[-74.0843,39.9308],[-74.0786,39.9305],[-74.0877,39.9099],[-74.0852,39.9014],[-74.0897,39.8964],[-74.0841,39.8885],[-74.096,39.8073],[-74.103,39.7995],[-74.0957,39.7822],[-74.1032,39.7819],[-74.1054,39.7856],[-74.1185,39.7831],[-74.1157,39.7774],[-74.1037,39.7726],[-74.1009,39.7653],[-74.0971,39.7678],[-74.0932,39.7848],[-74.0779,39.9071],[-74.0678,39.9423],[-74.0648,39.9771],[-74.0394,40.0814],[-74.0313,40.1005]]],[[[-74.0421,40.1039],[-74.0459,40.1053],[-74.0497,40.1012],[-74.0421,40.1039]]],[[[-74.0435,40.1074],[-74.0441,40.1086],[-74.0467,40.108],[-74.0435,40.1074]]],[[[-74.0431,40.1089],[-74.0431,40.1092],[-74.0435,40.1091],[-74.0431,40.1089]]],[[[-74.0434,40.1094],[-74.0429,40.1102],[-74.0438,40.1106],[-74.0434,40.1094]]],[[[-74.0449,40.1117],[-74.0454,40.1126],[-74.0463,40.1122],[-74.0449,40.1117]]],[[[-74.0965,40.1243],[-74.0971,40.1254],[-74.0972,40.1243],[-74.0965,40.1243]]],[[[-74.0253,40.1855],[-74.0305,40.1888],[-74.0323,40.1835],[-74.0253,40.1855]]],[[[-73.9758,40.3415],[-73.9768,40.3423],[-73.9772,40.3411],[-73.9758,40.3415]]],[[[-73.9777,40.3416],[-73.9772,40.3428],[-73.9783,40.3418],[-73.9777,40.3416]]],[[[-73.9779,40.3425],[-73.9795,40.3424],[-73.9791,40.3417],[-73.9779,40.3425]]],[[[-73.9776,40.3439],[-73.98,40.3438],[-73.9801,40.3428],[-73.9776,40.3439]]],[[[-73.991,40.3435],[-73.9907,40.3445],[-73.9917,40.3439],[-73.991,40.3435]]],[[[-73.978,40.3449],[-73.9801,40.3446],[-73.9784,40.3442],[-73.978,40.3449]]],[[[-73.9792,40.3461],[-73.9801,40.3451],[-73.9778,40.3452],[-73.9792,40.3461]]],[[[-73.9764,40.3472],[-73.9773,40.3482],[-73.9781,40.346],[-73.9764,40.3472]]],[[[-73.9796,40.3489],[-73.9866,40.348],[-73.9808,40.3453],[-73.9796,40.3489]]],[[[-73.9751,40.3533],[-73.9842,40.3504],[-73.9802,40.3497],[-73.9751,40.3533]]],[[[-73.9761,40.357],[-73.9768,40.3586],[-73.9832,40.3551],[-73.9761,40.357]]],[[[-73.9941,40.3775],[-73.9964,40.3756],[-73.9906,40.3766],[-73.9941,40.3775]]],[[[-73.9807,40.3785],[-73.9857,40.3778],[-73.9764,40.3749],[-73.9807,40.3785]]],[[[-73.9959,40.3779],[-73.9955,40.3787],[-73.9976,40.3787],[-73.9959,40.3779]]],[[[-73.9868,40.3795],[-73.9865,40.3786],[-73.9859,40.3793],[-73.9868,40.3795]]],[[[-73.9885,40.3772],[-73.9918,40.381],[-73.9956,40.3796],[-73.9885,40.3772]]],[[[-73.9978,40.3813],[-73.9991,40.3814],[-73.9996,40.3802],[-73.9978,40.3813]]],[[[-73.9774,40.379],[-73.9775,40.3819],[-73.9804,40.3809],[-73.9774,40.379]]],[[[-73.9875,40.3817],[-73.9873,40.3823],[-73.9888,40.382],[-73.9875,40.3817]]],[[[-73.9792,40.3821],[-73.9789,40.383],[-73.9831,40.3814],[-73.9792,40.3821]]],[[[-73.9957,40.3842],[-73.9985,40.3848],[-73.9951,40.3832],[-73.9957,40.3842]]],[[[-73.9955,40.3845],[-73.9979,40.3863],[-73.9977,40.385],[-73.9955,40.3845]]],[[[-73.9879,40.4204],[-73.9901,40.4197],[-73.9841,40.4174],[-73.9879,40.4204]]]]},"properties":{"wfo":"PHI","cwa":"PHI","citystate":"Mount Holly NJ"}}]}